{"features":[{"geometry":{"type":"Point","coordinates":[131.1460965000001,-26.150253109999937],"crs":null},"id":1,"type":"Feature","properties":{"iloc_total_dwellings":91,"address":"Room WIFI1 CWW, 54 Purara Street, Amata, SA 0872","solution_type":"Mesh Wi-Fi","community_name":"Amata","iloc":"Amata - Tjurma Homelands","iloc_total_population":418,"iloc_indigenous_dwellings":76,"state":"SA","iloc_indigenous_population":387,"objectid":1,"lat":-26.15025311,"long":131.1460965}},{"geometry":{"type":"Point","coordinates":[131.14635500000009,-26.15085799999997],"crs":null},"id":2,"type":"Feature","properties":{"iloc_total_dwellings":91,"address":"5 Kungka Yuu Street, Amata, SA 0872","solution_type":"Single Point","community_name":"Amata","iloc":"Amata - Tjurma Homelands","iloc_total_population":418,"iloc_indigenous_dwellings":76,"state":"SA","iloc_indigenous_population":387,"objectid":2,"lat":-26.150858,"long":131.146355}},{"geometry":{"type":"Point","coordinates":[133.9366808000001,-23.76872310999994],"crs":null},"id":3,"type":"Feature","properties":{"iloc_total_dwellings":54,"address":"Town Camp Name: Amoonguna, 243 White Gum Drive","solution_type":"Single Point","community_name":"Amoonguna","iloc":"Amoonguna","iloc_total_population":229,"iloc_indigenous_dwellings":54,"state":"NT","iloc_indigenous_population":222,"objectid":3,"lat":-23.76872311,"long":133.9366808}},{"geometry":{"type":"Point","coordinates":[135.22706010000002,-21.658261209999978],"crs":null},"id":4,"type":"Feature","properties":{"iloc_total_dwellings":63,"address":"4 Main Rd, Ampilatwatja NT 0872","solution_type":"Mesh Wi-Fi","community_name":"Ampilatwatja","iloc":"Ampilatwatja and Outstations","iloc_total_population":472,"iloc_indigenous_dwellings":50,"state":"NT","iloc_indigenous_population":425,"objectid":4,"lat":-21.65826121,"long":135.2270601}},{"geometry":{"type":"Point","coordinates":[135.22494200000006,-21.65778808999994],"crs":null},"id":5,"type":"Feature","properties":{"iloc_total_dwellings":63,"address":"10 Luck Street, Ampilatwatja, NT 0872","solution_type":"Single Point","community_name":"Ampilatwatja","iloc":"Ampilatwatja and Outstations","iloc_total_population":472,"iloc_indigenous_dwellings":50,"state":"NT","iloc_indigenous_population":425,"objectid":5,"lat":-21.65778809,"long":135.224942}},{"geometry":{"type":"Point","coordinates":[136.46094240000002,-13.981882109999958],"crs":null},"id":6,"type":"Feature","properties":{"iloc_total_dwellings":195,"address":"Angurugu Main Council Office, Lot 490 Angurugu Community ","solution_type":"Single Point","community_name":"Angurugu","iloc":"Angurugu","iloc_total_population":883,"iloc_indigenous_dwellings":184,"state":"NT","iloc_indigenous_population":858,"objectid":6,"lat":-13.98188211,"long":136.4609424}},{"geometry":{"type":"Point","coordinates":[134.8466347000001,-22.012457799999936],"crs":null},"id":7,"type":"Feature","properties":{"iloc_total_dwellings":82,"address":"Soapy Bore Community Rd, Sandover, NT, 0872","solution_type":"Mesh Wi-Fi","community_name":"Arawerr","iloc":"Utopia - Arawerr - Arlparra","iloc_total_population":444,"iloc_indigenous_dwellings":66,"state":"NT","iloc_indigenous_population":372,"objectid":7,"lat":-22.0124578,"long":134.8466347}},{"geometry":{"type":"Point","coordinates":[132.26952280000012,-24.073100789999955],"crs":null},"id":8,"type":"Feature","properties":{"iloc_total_dwellings":41,"address":"37 Utju Dr, Areyonga NT, 0872","solution_type":"Mesh Wi-Fi","community_name":"Areyonga","iloc":"Areyonga","iloc_total_population":236,"iloc_indigenous_dwellings":35,"state":"NT","iloc_indigenous_population":211,"objectid":8,"lat":-24.07310079,"long":132.2695228}},{"geometry":{"type":"Point","coordinates":[141.7268620000001,-13.354939729999955],"crs":null},"id":9,"type":"Feature","properties":{"iloc_total_dwellings":234,"address":"Kor Street, Aurukun, QLD 4892","solution_type":"Mesh Wi-Fi","community_name":"Aurukun","iloc":"Aurukun","iloc_total_population":1101,"iloc_indigenous_dwellings":209,"state":"QLD","iloc_indigenous_population":977,"objectid":9,"lat":-13.35493973,"long":141.726862}},{"geometry":{"type":"Point","coordinates":[130.854599,-12.415419999999926],"crs":null},"id":10,"type":"Feature","properties":{"iloc_total_dwellings":51,"address":"Bagot Community Laundry, 133 Bagot Road","solution_type":"Single Point","community_name":"Bagot","iloc":"Bagot Community","iloc_total_population":196,"iloc_indigenous_dwellings":51,"state":"NT","iloc_indigenous_population":194,"objectid":10,"lat":-12.41542,"long":130.854599}},{"geometry":{"type":"Point","coordinates":[142.3885722000001,-10.892150439999966],"crs":null},"id":11,"type":"Feature","properties":{"iloc_total_dwellings":297,"address":"NPA Family & Community Services, 241 Little Lui Street","solution_type":"Single Point","community_name":"Bamaga","iloc":"Bamaga and Surrounds","iloc_total_population":1207,"iloc_indigenous_dwellings":233,"state":"QLD","iloc_indigenous_population":930,"objectid":11,"lat":-10.89215044,"long":142.3885722}},{"geometry":{"type":"Point","coordinates":[152.6015940000001,-29.220336999999972],"crs":null},"id":12,"type":"Feature","properties":{"iloc_total_dwellings":123,"address":"7181 Clarence Way, Baryulgil, NSW 2460 (BARYULGIL SQUARE)","solution_type":"Single Point","community_name":"Baryulgil","iloc":"Baryulgil","iloc_total_population":350,"iloc_indigenous_dwellings":21,"state":"NSW","iloc_indigenous_population":53,"objectid":12,"lat":-29.220337,"long":152.601594}},{"geometry":{"type":"Point","coordinates":[125.59762120000005,-18.30083486999996],"crs":null},"id":13,"type":"Feature","properties":{"iloc_total_dwellings":74,"address":"Bayulu Community, LOT 71 BROWN COURT","solution_type":"Single Point","community_name":"Bayulu- Fitzroy crossing","iloc":"Bayulu Community","iloc_total_population":308,"iloc_indigenous_dwellings":71,"state":"WA","iloc_indigenous_population":289,"objectid":13,"lat":-18.30083487,"long":125.5976212}},{"geometry":{"type":"Point","coordinates":[122.66448100000002,-16.985626999999965],"crs":null},"id":14,"type":"Feature","properties":{"iloc_total_dwellings":97,"address":"Beagle Bay Community, 54 Lot 9000 Gunburrd Dr          ","solution_type":"Single Point","community_name":"Beagle Bay","iloc":"Beagle Bay Community","iloc_total_population":307,"iloc_indigenous_dwellings":86,"state":"WA","iloc_indigenous_population":287,"objectid":14,"lat":-16.985627,"long":122.664481}},{"geometry":{"type":"Point","coordinates":[152.51155000000006,-30.816600999999935],"crs":null},"id":15,"type":"Feature","properties":{"iloc_total_dwellings":377,"address":"8-10 East Street, Bellbrook, NSW 2440","solution_type":"Single Point","community_name":"Bellbrook","iloc":"Mirriwinni Gardens - Bellbrook","iloc_total_population":978,"iloc_indigenous_dwellings":62,"state":"NSW","iloc_indigenous_population":180,"objectid":15,"lat":-30.816601,"long":152.51155}},{"geometry":{"type":"Point","coordinates":[133.11607590000006,-14.554594079999958],"crs":null},"id":16,"type":"Feature","properties":{"iloc_total_dwellings":82,"address":"2 Cameron Road, Beswick, NT 0852","solution_type":"Single Point","community_name":"Beswick","iloc":"Wugular (Beswick)","iloc_total_population":542,"iloc_indigenous_dwellings":72,"state":"NT","iloc_indigenous_population":515,"objectid":16,"lat":-14.55459408,"long":133.1160759}},{"geometry":{"type":"Point","coordinates":[127.66469700000005,-19.554808999999977],"crs":null},"id":17,"type":"Feature","properties":{"iloc_total_dwellings":56,"address":"Lot 7, Tanami Road, Sturt Creek (DP216229)","solution_type":"Single Point","community_name":"Bililuna (Kururrungku)","iloc":"Mindibungu","iloc_total_population":202,"iloc_indigenous_dwellings":47,"state":"WA","iloc_indigenous_population":178,"objectid":17,"lat":-19.554809,"long":127.664697}},{"geometry":{"type":"Point","coordinates":[128.28383300000007,-25.997326129999976],"crs":null},"id":18,"type":"Feature","properties":{"iloc_total_dwellings":394,"address":"Blackstone Community Clinic, Blackstone Cmmn","solution_type":"Single Point","community_name":"Blackstone (Papulankutja)","iloc":"Papulankutja Community","iloc_total_population":2177,"iloc_indigenous_dwellings":263,"state":"WA","iloc_indigenous_population":1044,"objectid":18,"lat":-25.99732613,"long":128.283833}},{"geometry":{"type":"Point","coordinates":[125.60975740000003,-18.173453129999928],"crs":null},"id":19,"type":"Feature","properties":{"iloc_total_dwellings":35,"address":"ROOM WIFI1 CWW, Lot 1 Bungardi Road","solution_type":"Mesh Wi-Fi","community_name":"Bungardi","iloc":"Burawa - Darlngunaya - Bungardi","iloc_total_population":153,"iloc_indigenous_dwellings":34,"state":"WA","iloc_indigenous_population":119,"objectid":19,"lat":-18.17345313,"long":125.6097574}},{"geometry":{"type":"Point","coordinates":[125.57128480000006,-18.168987449999975],"crs":null},"id":20,"type":"Feature","properties":{"iloc_total_dwellings":35,"address":"ROOM WIFI1 CWW, LOT 318, FORREST RD, FITZROY CROSSING, WA, 6765","solution_type":"Mesh Wi-Fi","community_name":"Burawa","iloc":"Burawa - Darlngunaya - Bungardi","iloc_total_population":153,"iloc_indigenous_dwellings":34,"state":"WA","iloc_indigenous_population":119,"objectid":20,"lat":-18.16898745,"long":125.5712848}},{"geometry":{"type":"Point","coordinates":[117.11947980000002,-20.752006479999977],"crs":null},"id":21,"type":"Feature","properties":{"iloc_total_dwellings":121,"address":"Cheeditha Arts Centre, Cheedditha Community, Cheeditha Rd","solution_type":"Single Point","community_name":"Cheeditha","iloc":"Cheeditha - Mingullatharndo","iloc_total_population":543,"iloc_indigenous_dwellings":25,"state":"WA","iloc_indigenous_population":249,"objectid":21,"lat":-20.75200648,"long":117.1194798}},{"geometry":{"type":"Point","coordinates":[143.19981400000006,-13.94498699999997],"crs":null},"id":22,"type":"Feature","properties":{"iloc_total_dwellings":68,"address":"Coen Wellbeing Centre, 29 Taylor St","solution_type":"Single Point","community_name":"Coen (Cook Shire)","iloc":"Coen","iloc_total_population":279,"iloc_indigenous_dwellings":11,"state":"QLD","iloc_indigenous_population":206,"objectid":22,"lat":-13.944987,"long":143.199814}},{"geometry":{"type":"Point","coordinates":[122.8949884000001,-27.994503109999982],"crs":null},"id":23,"type":"Feature","properties":{"iloc_total_dwellings":21,"address":"Cosmo Newberry Aboriginal Corporation, 13 Yilka Drive","solution_type":"Single Point","community_name":"Cosmo Newbery","iloc":"Laverton","iloc_total_population":69,"iloc_indigenous_dwellings":21,"state":"WA","iloc_indigenous_population":62,"objectid":23,"lat":-27.99450311,"long":122.8949884}},{"geometry":{"type":"Point","coordinates":[125.59760130000006,-18.177115869999966],"crs":null},"id":24,"type":"Feature","properties":{"iloc_total_dwellings":35,"address":"ROOM WIFI1 CWW, Lot 1 Old Crossing Road","solution_type":"Mesh Wi-Fi","community_name":"Darlngunaya","iloc":"Burawa - Darlngunaya - Bungardi","iloc_total_population":153,"iloc_indigenous_dwellings":34,"state":"WA","iloc_indigenous_population":119,"objectid":24,"lat":-18.17711587,"long":125.5976013}},{"geometry":{"type":"Point","coordinates":[122.89516600000002,-16.514633999999944],"crs":null},"id":25,"type":"Feature","properties":{"iloc_total_dwellings":123,"address":"Lot 145, Lombadina Road, Dampier Peninsula, WA 6725","solution_type":"Single Point","community_name":"Djarindjin - Lombadina","iloc":"Djarindjin - Lombadina","iloc_total_population":479,"iloc_indigenous_dwellings":24,"state":"WA","iloc_indigenous_population":64,"objectid":25,"lat":-16.514634,"long":122.895166}},{"geometry":{"type":"Point","coordinates":[138.8260454000001,-17.941845499999943],"crs":null},"id":26,"type":"Feature","properties":{"iloc_total_dwellings":285,"address":"ROOM WIFI1 CWW, 275 SHARPE ST, DOOMADGEE, QLD, 4830","solution_type":"Mesh Wi-Fi","community_name":"Doomadgee","iloc":"Doomadgee","iloc_total_population":1387,"iloc_indigenous_dwellings":239,"state":"QLD","iloc_indigenous_population":1238,"objectid":26,"lat":-17.9418455,"long":138.8260454}},{"geometry":{"type":"Point","coordinates":[134.45451000000003,-22.80326999999994],"crs":null},"id":27,"type":"Feature","properties":{"iloc_total_dwellings":33,"address":"24 Webb Street, Engawala, NT 0872","solution_type":"Single Point","community_name":"Engawala","iloc":"Engawala","iloc_total_population":164,"iloc_indigenous_dwellings":24,"state":"NT","iloc_indigenous_population":146,"objectid":27,"lat":-22.80327,"long":134.45451}},{"geometry":{"type":"Point","coordinates":[143.7603580000001,-9.595927999999958],"crs":null},"id":28,"type":"Feature","properties":{"iloc_total_dwellings":78,"address":"5, Darnley","solution_type":"Single Point","community_name":"Erub/Darnley Island","iloc":"Erub (Darnley) Island","iloc_total_population":326,"iloc_indigenous_dwellings":73,"state":"QLD","iloc_indigenous_population":292,"objectid":28,"lat":-9.595928,"long":143.760358}},{"geometry":{"type":"Point","coordinates":[134.57695,-25.582269999999937],"crs":null},"id":29,"type":"Feature","properties":{"iloc_total_dwellings":46,"address":"15 Lapadum Street, Finke, NT 0872","solution_type":"Single Point","community_name":"Finke","iloc":"Apatula (Finke)","iloc_total_population":191,"iloc_indigenous_dwellings":43,"state":"NT","iloc_indigenous_population":179,"objectid":29,"lat":-25.58227,"long":134.57695}},{"geometry":{"type":"Point","coordinates":[125.57015410000008,-18.19509617999995],"crs":null},"id":30,"type":"Feature","properties":{"iloc_total_dwellings":207,"address":"8 Bell Road, Fitzroy Crossing, WA 6765","solution_type":"Single Point","community_name":"Fitzroy Crossing","iloc":"Fitzroy Crossing","iloc_total_population":600,"iloc_indigenous_dwellings":68,"state":"WA","iloc_indigenous_population":219,"objectid":30,"lat":-18.19509618,"long":125.5701541}},{"geometry":{"type":"Point","coordinates":[135.56680500000004,-12.024098999999978],"crs":null},"id":31,"type":"Feature","properties":{"iloc_total_dwellings":309,"address":"Lot 264 Galiwinku St, Galiwinku NT 0822 (Yalu Corporation Office)","solution_type":"Mesh Wi-Fi","community_name":"Galiwinku","iloc":"Galiwinku","iloc_total_population":2199,"iloc_indigenous_dwellings":252,"state":"NT","iloc_indigenous_population":2027,"objectid":31,"lat":-12.024099,"long":135.566805}},{"geometry":{"type":"Point","coordinates":[135.94333900000004,-13.04558499999996],"crs":null},"id":32,"type":"Feature","properties":{"iloc_total_dwellings":13,"address":"29 Gan Gan Rd, East Arnhem NT 0822 (Clinic, Gan Gan Community)","solution_type":"Mesh Wi-Fi","community_name":"Gan Gan ","iloc":"Gan Gan","iloc_total_population":83,"iloc_indigenous_dwellings":13,"state":"NT","iloc_indigenous_population":82,"objectid":32,"lat":-13.045585,"long":135.943339}},{"geometry":{"type":"Point","coordinates":[135.80528170000002,-12.503521299999932],"crs":null},"id":33,"type":"Feature","properties":{"iloc_total_dwellings":112,"address":"Gapuwiyak Community, (Main Council Office), 9 Bambinamirri St","solution_type":"Single Point","community_name":"Gapuwiyak","iloc":"Gapuwiyak","iloc_total_population":705,"iloc_indigenous_dwellings":95,"state":"NT","iloc_indigenous_population":645,"objectid":33,"lat":-12.5035213,"long":135.8052817}},{"geometry":{"type":"Point","coordinates":[135.8061997000001,-12.504211399999974],"crs":null},"id":34,"type":"Feature","properties":{"iloc_total_dwellings":112,"address":"27 Marrangu Street, Gapuwiyak, NT 0880","solution_type":"Single Point","community_name":"Gapuwiyak","iloc":"Gapuwiyak","iloc_total_population":705,"iloc_indigenous_dwellings":95,"state":"NT","iloc_indigenous_population":645,"objectid":34,"lat":-12.5042114,"long":135.8061997}},{"geometry":{"type":"Point","coordinates":[135.90552900000012,-11.75968899999998],"crs":null},"id":35,"type":"Feature","properties":{"iloc_total_dwellings":305,"address":"Old School House, Gawa Road","solution_type":"Single Point","community_name":"Gawa Community","iloc":"Marthakal Homelands exc Galiwinku","iloc_total_population":2199,"iloc_indigenous_dwellings":252,"state":"NT","iloc_indigenous_population":2027,"objectid":35,"lat":-11.759689,"long":135.905529}},{"geometry":{"type":"Point","coordinates":[147.45162490000007,-29.112638189999984],"crs":null},"id":36,"type":"Feature","properties":{"iloc_total_dwellings":59,"address":"Lot 2, Brenda Street, Goodooga, NSW 2838","solution_type":"Single Point","community_name":"Goodooga","iloc":"Goodooga","iloc_total_population":179,"iloc_indigenous_dwellings":55,"state":"NSW","iloc_indigenous_population":129,"objectid":36,"lat":-29.11263819,"long":147.4516249}},{"geometry":{"type":"Point","coordinates":[136.70626500000003,-12.217679999999973],"crs":null},"id":37,"type":"Feature","properties":{"iloc_total_dwellings":49,"address":"Gumatj Corporation Building, Lot 26 Guymal Amurra Rd","solution_type":"Single Point","community_name":"Gumatj","iloc":"Gunyangara","iloc_total_population":241,"iloc_indigenous_dwellings":37,"state":"NT","iloc_indigenous_population":209,"objectid":37,"lat":-12.21768,"long":136.706265}},{"geometry":{"type":"Point","coordinates":[133.05623930000002,-12.327450589999955],"crs":null},"id":38,"type":"Feature","properties":{"iloc_total_dwellings":217,"address":"Lot 383, 87 Main Road, Gunbalanya, NT 0822","solution_type":"Single Point","community_name":"Gunbalanya","iloc":"Gunbalanya","iloc_total_population":1153,"iloc_indigenous_dwellings":179,"state":"NT","iloc_indigenous_population":1008,"objectid":38,"lat":-12.32745059,"long":133.0562393}},{"geometry":{"type":"Point","coordinates":[136.7083500000001,-12.213280999999938],"crs":null},"id":39,"type":"Feature","properties":{"iloc_total_dwellings":49,"address":"Earc Office, Lot 16 Gunyangara Rd","solution_type":"Single Point","community_name":"Gunyangara","iloc":"Gunyangara","iloc_total_population":241,"iloc_indigenous_dwellings":37,"state":"NT","iloc_indigenous_population":209,"objectid":39,"lat":-12.213281,"long":136.70835}},{"geometry":{"type":"Point","coordinates":[136.70597500000008,-12.216854999999953],"crs":null},"id":40,"type":"Feature","properties":{"iloc_total_dwellings":49,"address":"Miwatj Health Aboriginal Clinic (Gunyangara Clinic), Lot 90 Yunupingu Drive","solution_type":"Single Point","community_name":"Gunyangara","iloc":"Gunyangara","iloc_total_population":241,"iloc_indigenous_dwellings":37,"state":"NT","iloc_indigenous_population":209,"objectid":40,"lat":-12.216855,"long":136.705975}},{"geometry":{"type":"Point","coordinates":[145.10919820000004,-15.293877399999928],"crs":null},"id":41,"type":"Feature","properties":{"iloc_total_dwellings":281,"address":"ROOM WIFI1 CWW, 33 Muni St, Hope Vale QLD 4895","solution_type":"Mesh Wi-Fi","community_name":"Hope Vale","iloc":"Hope Vale","iloc_total_population":976,"iloc_indigenous_dwellings":257,"state":"QLD","iloc_indigenous_population":863,"objectid":41,"lat":-15.2938774,"long":145.1091982}},{"geometry":{"type":"Point","coordinates":[145.10875490000012,-15.293004679999967],"crs":null},"id":42,"type":"Feature","properties":{"iloc_total_dwellings":279,"address":"1 Flierl Street, Hope Vale, QLD 4895","solution_type":"Single Point","community_name":"Hope Vale","iloc":"Hope Vale","iloc_total_population":976,"iloc_indigenous_dwellings":257,"state":"QLD","iloc_indigenous_population":863,"objectid":42,"lat":-15.29300468,"long":145.1087549}},{"geometry":{"type":"Point","coordinates":[142.24726500000008,-10.592372999999952],"crs":null},"id":43,"type":"Feature","properties":{"iloc_total_dwellings":161,"address":"Sea Swift Office, Lot 2 Airport Rd","solution_type":"Single Point","community_name":"Horn Island","iloc":"Horn Island","iloc_total_population":533,"iloc_indigenous_dwellings":112,"state":"QLD","iloc_indigenous_population":382,"objectid":43,"lat":-10.592373,"long":142.247265}},{"geometry":{"type":"Point","coordinates":[133.30915630000004,-26.96634925999996],"crs":null},"id":44,"type":"Feature","properties":{"iloc_total_dwellings":73,"address":"Building 3, 11 Indulkana Boulevard, Iwantja, SA 0872","solution_type":"Mesh Wi-Fi","community_name":"Indulkana","iloc":"Indulkana","iloc_total_population":350,"iloc_indigenous_dwellings":58,"state":"SA","iloc_indigenous_population":326,"objectid":44,"lat":-26.96634926,"long":133.3091563}},{"geometry":{"type":"Point","coordinates":[142.32497630000012,-10.90776158999995],"crs":null},"id":45,"type":"Feature","properties":{"iloc_total_dwellings":109,"address":"Injinoo Hall, 57 Ropeyarn Highway (lot 57 on SP273363)","solution_type":"Single Point","community_name":"Injinoo","iloc":"Injinoo, Queensland","iloc_total_population":498,"iloc_indigenous_dwellings":100,"state":"QLD","iloc_indigenous_population":449,"objectid":45,"lat":-10.90776159,"long":142.3249763}},{"geometry":{"type":"Point","coordinates":[127.66433100000006,-25.862401999999975],"crs":null},"id":46,"type":"Feature","properties":{"iloc_total_dwellings":26,"address":"Gunbarrel Highway, Ngaanyatjarra-giles, WA 0872 (JAMESON COMMUNITY OFFICE)","solution_type":"Single Point","community_name":"Jameson (Mantamaru)","iloc":"Shire of Ngaanyatjarraku","iloc_total_population":124,"iloc_indigenous_dwellings":23,"state":"WA","iloc_indigenous_population":112,"objectid":46,"lat":-25.862402,"long":127.664331}},{"geometry":{"type":"Point","coordinates":[152.52649700000006,-28.89274899999998],"crs":null},"id":47,"type":"Feature","properties":{"iloc_total_dwellings":36,"address":"14A Jubullum Street, Tabulam, NSW 2469","solution_type":"Single Point","community_name":"Jubullum","iloc":"Jubullum Village","iloc_total_population":138,"iloc_indigenous_dwellings":36,"state":"NSW","iloc_indigenous_population":116,"objectid":47,"lat":-28.892749,"long":152.526497}},{"geometry":{"type":"Point","coordinates":[145.80010600000003,-18.12579599999998],"crs":null},"id":48,"type":"Feature","properties":{"iloc_total_dwellings":35,"address":"Community Hall - Wom-Bul-Mun, Lot 115 Murray Falls Road","solution_type":"Single Point","community_name":"Jumbun","iloc":"Jumbun","iloc_total_population":122,"iloc_indigenous_dwellings":27,"state":"QLD","iloc_indigenous_population":93,"objectid":48,"lat":-18.125796,"long":145.800106}},{"geometry":{"type":"Point","coordinates":[125.56704980000006,-18.178111979999983],"crs":null},"id":49,"type":"Feature","properties":{"iloc_total_dwellings":67,"address":"ROOM WIFI3 CWW, 565 FORREST RD, FITZROY CROSSING, WA, 6765","solution_type":"Mesh Wi-Fi","community_name":"Junjuwa","iloc":"Junjuwa","iloc_total_population":231,"iloc_indigenous_dwellings":67,"state":"WA","iloc_indigenous_population":209,"objectid":49,"lat":-18.17811198,"long":125.5670498}},{"geometry":{"type":"Point","coordinates":[130.83427500000005,-17.448533399999974],"crs":null},"id":50,"type":"Feature","properties":{"iloc_total_dwellings":84,"address":"65 Buntine Highway, Kalkarindji, NT 0852","solution_type":"Single Point","community_name":"Kalkarindji","iloc":"Kalkarindji","iloc_total_population":383,"iloc_indigenous_dwellings":60,"state":"NT","iloc_indigenous_population":311,"objectid":50,"lat":-17.4485334,"long":130.834275}},{"geometry":{"type":"Point","coordinates":[132.0282274000001,-26.76335081999997],"crs":null},"id":51,"type":"Feature","properties":{"iloc_total_dwellings":92,"address":"Room WIFI1 CWW, 8 Malu Place, Kaltjiti, SA 0872","solution_type":"Mesh Wi-Fi","community_name":"Kaltjiti","iloc":"Kaltjiti (Fregon) and Irintata Homelands","iloc_total_population":348,"iloc_indigenous_dwellings":59,"state":"SA","iloc_indigenous_population":276,"objectid":51,"lat":-26.76335082,"long":132.0282274}},{"geometry":{"type":"Point","coordinates":[132.02699100000007,-26.764196999999967],"crs":null},"id":52,"type":"Feature","properties":{"iloc_total_dwellings":91,"address":"Fregon Road, Kaltjiti, SA 0872 (KALTJITI ARTS AND CRAFTS)","solution_type":"Single Point","community_name":"Kaltjiti (Fregon)","iloc":"Kaltjiti","iloc_total_population":348,"iloc_indigenous_dwellings":59,"state":"SA","iloc_indigenous_population":276,"objectid":52,"lat":-26.764197,"long":132.026991}},{"geometry":{"type":"Point","coordinates":[142.21775900000011,-10.555016999999964],"crs":null},"id":53,"type":"Feature","properties":{"iloc_total_dwellings":73,"address":"Keriri Library, 74 (Lot 86)  ZILLAH ROAD","solution_type":"Single Point","community_name":"Keriri (Hammond Island)","iloc":"Hammond Island","iloc_total_population":261,"iloc_indigenous_dwellings":68,"state":"QLD","iloc_indigenous_population":253,"objectid":53,"lat":-10.555017,"long":142.217759}},{"geometry":{"type":"Point","coordinates":[127.76389500000005,-22.81684199999995],"crs":null},"id":54,"type":"Feature","properties":{"iloc_total_dwellings":29,"address":"Malu Street, Gibson Desert North, WA 0872 (KIWIRRKURRA COMMUNITY OFFICE)","solution_type":"Single Point","community_name":"Kiwirrkurra","iloc":"Kiwirrkurra Community","iloc_total_population":180,"iloc_indigenous_dwellings":24,"state":"WA","iloc_indigenous_population":171,"objectid":54,"lat":-22.816842,"long":127.763895}},{"geometry":{"type":"Point","coordinates":[133.42509930000006,-31.902644789999954],"crs":null},"id":55,"type":"Feature","properties":{"iloc_total_dwellings":43,"address":"Room WIFI 1, 1 Koonibba Street, Koonibba, SA 5690","solution_type":"Mesh Wi-Fi","community_name":"Koonibba","iloc":"Koonibba","iloc_total_population":130,"iloc_indigenous_dwellings":43,"state":"SA","iloc_indigenous_population":125,"objectid":55,"lat":-31.90264479,"long":133.4250993}},{"geometry":{"type":"Point","coordinates":[141.74756800000011,-15.476900999999941],"crs":null},"id":56,"type":"Feature","properties":{"iloc_total_dwellings":247,"address":"ROOM WIFI1 CWW, LOT 510, CHAPMAN RD, KOWANYAMA, QLD, 4892","solution_type":"Mesh Wi-Fi","community_name":"Kowanyama","iloc":"Kowanyama","iloc_total_population":1079,"iloc_indigenous_dwellings":215,"state":"QLD","iloc_indigenous_population":937,"objectid":56,"lat":-15.476901,"long":141.747568}},{"geometry":{"type":"Point","coordinates":[128.6148240000001,-18.793226999999945],"crs":null},"id":57,"type":"Feature","properties":{"iloc_total_dwellings":30,"address":"Lot 62, Gordon Downs Road, Sturt Creek, WA 6770 (YARUMAN ART CENTRE)","solution_type":"Single Point","community_name":"KUNDAT DJARU","iloc":"Kundat Djaru Community","iloc_total_population":141,"iloc_indigenous_dwellings":23,"state":"WA","iloc_indigenous_population":126,"objectid":57,"lat":-18.793227,"long":128.614824}},{"geometry":{"type":"Point","coordinates":[130.74913200000003,-12.43536599999993],"crs":null},"id":115,"type":"Feature","properties":{"iloc_total_dwellings":459,"address":"142 Wagait Tower Road","solution_type":"Single Point","community_name":"Wagait Beach","iloc":"Cox-Finniss","iloc_total_population":1106,"iloc_indigenous_dwellings":63,"state":"NT","iloc_indigenous_population":132,"objectid":115,"lat":-12.435366,"long":130.749132}},{"geometry":{"type":"Point","coordinates":[125.5659859000001,-18.197838169999955],"crs":null},"id":58,"type":"Feature","properties":{"iloc_total_dwellings":54,"address":"ROOM WIFI3 CWW, 158 GREAT NORTHERN HIGHWAY, WA 6765","solution_type":"Mesh Wi-Fi","community_name":"Kurnangki","iloc":"Mindi Rardi - Kurnangki - Loanbun","iloc_total_population":191,"iloc_indigenous_dwellings":52,"state":"WA","iloc_indigenous_population":180,"objectid":58,"lat":-18.19783817,"long":125.5659859}},{"geometry":{"type":"Point","coordinates":[121.33041000000003,-30.829099999999983],"crs":null},"id":59,"type":"Feature","properties":{"iloc_total_dwellings":18,"address":"Lot 22, Sharpe Drive, Mount Burges, WA 6429","solution_type":"Single Point","community_name":"Kurrawang","iloc":"Kurrawang","iloc_total_population":77,"iloc_indigenous_dwellings":18,"state":"WA","iloc_indigenous_population":73,"objectid":59,"lat":-30.8291,"long":121.33041}},{"geometry":{"type":"Point","coordinates":[148.0999108000001,-37.839502669999945],"crs":null},"id":60,"type":"Feature","properties":{"iloc_total_dwellings":27,"address":"485 Rules Road, Toorloo Arm, VIC 3909 (ABORIGINAL TRUST)","solution_type":"Single Point","community_name":"Lake Tyers","iloc":"Lake Tyers Mission","iloc_total_population":107,"iloc_indigenous_dwellings":27,"state":"VIC","iloc_indigenous_population":50,"objectid":60,"lat":-37.83950267,"long":148.0999108}},{"geometry":{"type":"Point","coordinates":[144.4466860000001,-15.55841799999996],"crs":null},"id":61,"type":"Feature","properties":{"iloc_total_dwellings":25,"address":"Laura Hall & Library, Terminus St, (195 Deighton Rd)","solution_type":"Single Point","community_name":"Laura (Cook Shire)","iloc":"Laura","iloc_total_population":101,"iloc_indigenous_dwellings":19,"state":"QLD","iloc_indigenous_population":76,"objectid":61,"lat":-15.558418,"long":144.446686}},{"geometry":{"type":"Point","coordinates":[125.57639260000008,-18.208917329999963],"crs":null},"id":62,"type":"Feature","properties":{"iloc_total_dwellings":54,"address":"ROOM WIFI1 CWW, 0 GREAT NORTHERN HIGHWAY, WA 6765","solution_type":"Mesh Wi-Fi","community_name":"Loanbun","iloc":"Mindi Rardi - Kurnangki - Loanbun","iloc_total_population":191,"iloc_indigenous_dwellings":52,"state":"WA","iloc_indigenous_population":180,"objectid":62,"lat":-18.20891733,"long":125.5763926}},{"geometry":{"type":"Point","coordinates":[152.6269430000001,-29.182215999999983],"crs":null},"id":63,"type":"Feature","properties":{"iloc_total_dwellings":123,"address":"7679 Clarence Way, Malabugilmah, NSW 2460","solution_type":"Single Point","community_name":"Malabugilmah","iloc":"Baryulgil","iloc_total_population":350,"iloc_indigenous_dwellings":21,"state":"NSW","iloc_indigenous_population":53,"objectid":63,"lat":-29.182216,"long":152.626943}},{"geometry":{"type":"Point","coordinates":[143.41613800000005,-9.750539999999944],"crs":null},"id":64,"type":"Feature","properties":{"iloc_total_dwellings":76,"address":"Community Hall,  121 Dans Road ","solution_type":"Single Point","community_name":"Masig (Yorke Island)","iloc":"(Masig) Yorke Island","iloc_total_population":283,"iloc_indigenous_dwellings":65,"state":"QLD","iloc_indigenous_population":251,"objectid":64,"lat":-9.75054,"long":143.416138}},{"geometry":{"type":"Point","coordinates":[129.96760500000005,-14.221979999999974],"crs":null},"id":65,"type":"Feature","properties":{"iloc_total_dwellings":36,"address":"Merrepan Community, Lot 7 Merrepen","solution_type":"Single Point","community_name":"Merrepen","iloc":"Thamarrurr exc. Wadeye","iloc_total_population":188,"iloc_indigenous_dwellings":36,"state":"NT","iloc_indigenous_population":188,"objectid":65,"lat":-14.22198,"long":129.967605}},{"geometry":{"type":"Point","coordinates":[132.70671850000008,-27.00448346999997],"crs":null},"id":66,"type":"Feature","properties":{"iloc_total_dwellings":64,"address":"Room WIFI1 CWW, 2 Itara Street, Mimili, SA 0872","solution_type":"Mesh Wi-Fi","community_name":"Mimili","iloc":"Mimili and Mimili Homelands","iloc_total_population":277,"iloc_indigenous_dwellings":48,"state":"SA","iloc_indigenous_population":239,"objectid":66,"lat":-27.00448347,"long":132.7067185}},{"geometry":{"type":"Point","coordinates":[125.5659859000001,-18.197838169999955],"crs":null},"id":67,"type":"Feature","properties":{"iloc_total_dwellings":54,"address":"ROOM WIFI1 CWW, 158 GREAT NORTHERN HIGHWAY, WA 6765","solution_type":"Mesh Wi-Fi","community_name":"Mindi Rardi","iloc":"Mindi Rardi - Kurnangki - Loanbun","iloc_total_population":191,"iloc_indigenous_dwellings":52,"state":"WA","iloc_indigenous_population":180,"objectid":67,"lat":-18.19783817,"long":125.5659859}},{"geometry":{"type":"Point","coordinates":[142.2170900000001,-10.234962999999937],"crs":null},"id":68,"type":"Feature","properties":{"iloc_total_dwellings":40,"address":"32 Ikilgau Yabu, Kubin Community","solution_type":"Single Point","community_name":"Moa Island","iloc":"Kubin","iloc_total_population":156,"iloc_indigenous_dwellings":40,"state":"QLD","iloc_indigenous_population":151,"objectid":68,"lat":-10.234963,"long":142.21709}},{"geometry":{"type":"Point","coordinates":[142.32935200000009,-10.185146999999972],"crs":null},"id":69,"type":"Feature","properties":{"iloc_total_dwellings":79,"address":"St Pauls Community Centre, 1 Oza Bosun Rd","solution_type":"Single Point","community_name":"Moa Island","iloc":"St. Pauls","iloc_total_population":278,"iloc_indigenous_dwellings":76,"state":"QLD","iloc_indigenous_population":242,"objectid":69,"lat":-10.185147,"long":142.329352}},{"geometry":{"type":"Point","coordinates":[139.1789123000001,-16.664703749999944],"crs":null},"id":70,"type":"Feature","properties":{"iloc_total_dwellings":239,"address":"Rural Transaction Centre, 306 Lardil St (Wellesley Islands)","solution_type":"Single Point","community_name":"Mornington Island","iloc":"Mornington","iloc_total_population":1025,"iloc_indigenous_dwellings":191,"state":"QLD","iloc_indigenous_population":822,"objectid":70,"lat":-16.66470375,"long":139.1789123}},{"geometry":{"type":"Point","coordinates":[117.8486372000001,-28.062937489999968],"crs":null},"id":71,"type":"Feature","properties":{"iloc_total_dwellings":132,"address":"79 Hepburn Street, Mount Magnet, WA 6638","solution_type":"Single Point","community_name":"Mount Magnet","iloc":"Mount Magnet","iloc_total_population":653,"iloc_indigenous_dwellings":22,"state":"WA","iloc_indigenous_population":58,"objectid":71,"lat":-28.06293749,"long":117.8486372}},{"geometry":{"type":"Point","coordinates":[127.59476000000006,-20.102439999999945],"crs":null},"id":72,"type":"Feature","properties":{"iloc_total_dwellings":36,"address":"MULAN ADMINISTRATION OFFICE, Lot 62 Third Street","solution_type":"Single Point","community_name":"Mulan Community","iloc":"Mulan","iloc_total_population":120,"iloc_indigenous_dwellings":31,"state":"WA","iloc_indigenous_population":111,"objectid":72,"lat":-20.10244,"long":127.59476}},{"geometry":{"type":"Point","coordinates":[125.76163660000009,-18.159711869999967],"crs":null},"id":73,"type":"Feature","properties":{"iloc_total_dwellings":36,"address":" Lot 30, Margaret River Road, St George Ranges, WA 6728","solution_type":"Single Point","community_name":"Muludja","iloc":"Muludja Community","iloc_total_population":177,"iloc_indigenous_dwellings":36,"state":"WA","iloc_indigenous_population":167,"objectid":73,"lat":-18.15971187,"long":125.7616366}},{"geometry":{"type":"Point","coordinates":[134.1986978000001,-20.33736836999998],"crs":null},"id":74,"type":"Feature","properties":{"iloc_total_dwellings":null,"address":"Lot 14 Mungkarta Road","solution_type":"Mesh Wi-Fi","community_name":"Mungkarta","iloc":null,"iloc_total_population":null,"iloc_indigenous_dwellings":null,"state":"NT","iloc_indigenous_population":55,"objectid":74,"lat":-20.33736837,"long":134.1986978}},{"geometry":{"type":"Point","coordinates":[146.37165260000006,-33.215360499999974],"crs":null},"id":75,"type":"Feature","properties":{"iloc_total_dwellings":1437,"address":"8 Riverside Drive, Murrin Bridge, NSW 2672 (MURRIN BRIDGE WOMENS HEALTH CENTRE)","solution_type":"Single Point","community_name":"Murrin Bridge","iloc":"Murrin Bridge","iloc_total_population":4129,"iloc_indigenous_dwellings":287,"state":"NSW","iloc_indigenous_population":631,"objectid":75,"lat":-33.2153605,"long":146.3716526}},{"geometry":{"type":"Point","coordinates":[148.1154180000001,-30.00851599999993],"crs":null},"id":76,"type":"Feature","properties":{"iloc_total_dwellings":753,"address":"111 George Sands Way, Walgett, NSW 2832","solution_type":"Single Point","community_name":"Namoi Village","iloc":"Walgett","iloc_total_population":1984,"iloc_indigenous_dwellings":81,"state":"NSW","iloc_indigenous_population":183,"objectid":76,"lat":-30.008516,"long":148.115418}},{"geometry":{"type":"Point","coordinates":[148.98599400000012,-32.58010799999994],"crs":null},"id":77,"type":"Feature","properties":{"iloc_total_dwellings":1327,"address":" Lot 244, Lowrie Drive, Nanima, NSW 2582","solution_type":"Single Point","community_name":"Nanima Village (Wellington)","iloc":"Wellington","iloc_total_population":4431,"iloc_indigenous_dwellings":224,"state":"NSW","iloc_indigenous_population":816,"objectid":77,"lat":-32.580108,"long":148.985994}},{"geometry":{"type":"Point","coordinates":[141.8868000000001,-12.684549999999945],"crs":null},"id":78,"type":"Feature","properties":{"iloc_total_dwellings":199,"address":"IBIS Napranum, 320 (Lot 86) Wa Tyne St ","solution_type":"Single Point","community_name":"Napranum - Mission River","iloc":"Napranum","iloc_total_population":883,"iloc_indigenous_dwellings":184,"state":"QLD","iloc_indigenous_population":716,"objectid":78,"lat":-12.68455,"long":141.8868}},{"geometry":{"type":"Point","coordinates":[141.89204200000006,-12.68170699999996],"crs":null},"id":79,"type":"Feature","properties":{"iloc_total_dwellings":199,"address":"Lot 430 Naprunum Road","solution_type":"Single Point","community_name":"Napranum - Mission River","iloc":"Napranum","iloc_total_population":883,"iloc_indigenous_dwellings":184,"state":"QLD","iloc_indigenous_population":716,"objectid":79,"lat":-12.681707,"long":141.892042}},{"geometry":{"type":"Point","coordinates":[133.8709560000001,-23.765536999999938],"crs":null},"id":80,"type":"Feature","properties":{"iloc_total_dwellings":48,"address":"26 (Goanna) New Ilparpa ","solution_type":"Single Point","community_name":"New Ilparpa","iloc":"Anthepe - New Llparpa - Tyeweretye","iloc_total_population":271,"iloc_indigenous_dwellings":48,"state":"NT","iloc_indigenous_population":248,"objectid":80,"lat":-23.765537,"long":133.870956}},{"geometry":{"type":"Point","coordinates":[142.38510400000007,-10.86941799999994],"crs":null},"id":81,"type":"Feature","properties":{"iloc_total_dwellings":111,"address":"New Mapoon Council Building, 81 Brown St","solution_type":"Single Point","community_name":"New Mapoon","iloc":"New Mapoon, Queensland","iloc_total_population":412,"iloc_indigenous_dwellings":94,"state":"QLD","iloc_indigenous_population":363,"objectid":81,"lat":-10.869418,"long":142.385104}},{"geometry":{"type":"Point","coordinates":[134.73165330000006,-14.734950159999926],"crs":null},"id":82,"type":"Feature","properties":{"iloc_total_dwellings":167,"address":"Lot 296, Balamurra Street, Ngukurr, NT 0852","solution_type":"Single Point","community_name":"Ngukurr","iloc":"Ngukurr","iloc_total_population":1088,"iloc_indigenous_dwellings":138,"state":"NT","iloc_indigenous_population":1003,"objectid":82,"lat":-14.73495016,"long":134.7316533}},{"geometry":{"type":"Point","coordinates":[141.07858800000008,-17.669930999999963],"crs":null},"id":83,"type":"Feature","properties":{"iloc_total_dwellings":373,"address":"Normanton Shire Hall, 99 - 101 Landsborough St","solution_type":"Single Point","community_name":"Normanton","iloc":"Normanton","iloc_total_population":1326,"iloc_indigenous_dwellings":209,"state":"QLD","iloc_indigenous_population":766,"objectid":83,"lat":-17.669931,"long":141.078588}},{"geometry":{"type":"Point","coordinates":[120.10597200000007,-21.89298999999994],"crs":null},"id":84,"type":"Feature","properties":{"iloc_total_dwellings":43,"address":"9 Mcfie Street, Nullagine, WA 6758 (NULLAGINE TASHBURTON ABORINGAL CORPORATION OFFICE)","solution_type":"Single Point","community_name":"Nullagine","iloc":"Nullagine","iloc_total_population":147,"iloc_indigenous_dwellings":18,"state":"WA","iloc_indigenous_population":90,"objectid":84,"lat":-21.89299,"long":120.105972}},{"geometry":{"type":"Point","coordinates":[146.57784860000004,-18.734104979999927],"crs":null},"id":85,"type":"Feature","properties":{"iloc_total_dwellings":493,"address":"Palm Island Library, 1 Main St (building 105B)","solution_type":"Single Point","community_name":"Palm Island","iloc":"Palm Island","iloc_total_population":2098,"iloc_indigenous_dwellings":461,"state":"QLD","iloc_indigenous_population":1918,"objectid":85,"lat":-18.73410498,"long":146.5778486}},{"geometry":{"type":"Point","coordinates":[146.58404500000006,-18.720599999999934],"crs":null},"id":86,"type":"Feature","properties":{"iloc_total_dwellings":493,"address":"Palm Island Sports Precinct, 475A Farm Rd","solution_type":"Single Point","community_name":"Palm Island","iloc":"Palm Island","iloc_total_population":2098,"iloc_indigenous_dwellings":461,"state":"QLD","iloc_indigenous_population":1918,"objectid":86,"lat":-18.7206,"long":146.584045}},{"geometry":{"type":"Point","coordinates":[123.65916400000003,-17.736971739999944],"crs":null},"id":87,"type":"Feature","properties":{"iloc_total_dwellings":23,"address":"LOT 353 DERBY HIGHWAY                            ","solution_type":"Single Point","community_name":"Pandanus Park","iloc":"Pandanus Park Community","iloc_total_population":82,"iloc_indigenous_dwellings":23,"state":"WA","iloc_indigenous_population":79,"objectid":87,"lat":-17.73697174,"long":123.659164}},{"geometry":{"type":"Point","coordinates":[128.28176130000008,-25.997372729999938],"crs":null},"id":88,"type":"Feature","properties":{"iloc_total_dwellings":43,"address":"Lot 31, Blackstone-warburton Road, Ngaanyatjarra-giles, WA 0872","solution_type":"Single Point","community_name":"Papulankutj","iloc":"Papulankutja","iloc_total_population":162,"iloc_indigenous_dwellings":33,"state":"WA","iloc_indigenous_population":136,"objectid":88,"lat":-25.99737273,"long":128.2817613}},{"geometry":{"type":"Point","coordinates":[131.90922810000006,-23.203243809999947],"crs":null},"id":89,"type":"Feature","properties":{"iloc_total_dwellings":74,"address":"2 Possum Crescent, Papunya, NT 0872","solution_type":"Single Point","community_name":"Papunya","iloc":"Papunya","iloc_total_population":438,"iloc_indigenous_dwellings":48,"state":"NT","iloc_indigenous_population":389,"objectid":89,"lat":-23.20324381,"long":131.9092281}},{"geometry":{"type":"Point","coordinates":[129.17237980000004,-26.16342433999995],"crs":null},"id":90,"type":"Feature","properties":{"iloc_total_dwellings":39,"address":"Room WIFI1 CWW, 6 Patilpa Street, Pipalyatjara, SA 0872","solution_type":"Mesh Wi-Fi","community_name":"Pipalyatjara","iloc":"Pipalyatjara","iloc_total_population":159,"iloc_indigenous_dwellings":28,"state":"SA","iloc_indigenous_population":130,"objectid":90,"lat":-26.16342434,"long":129.1723798}},{"geometry":{"type":"Point","coordinates":[141.6193849000001,-14.899924489999933],"crs":null},"id":91,"type":"Feature","properties":{"iloc_total_dwellings":153,"address":"ROOM WIFI2 CWW, 24 THINRAATHIN ST, PORMPURAAW, QLD, 4871","solution_type":"Mesh Wi-Fi","community_name":"Pormpuraaw","iloc":null,"iloc_total_population":611,"iloc_indigenous_dwellings":128,"state":"QLD","iloc_indigenous_population":479,"objectid":91,"lat":-14.89992449,"long":141.6193849}},{"geometry":{"type":"Point","coordinates":[132.13289830000008,-26.279712169999982],"crs":null},"id":92,"type":"Feature","properties":{"iloc_total_dwellings":102,"address":"Room WIFI1 CWW, 1 Kali Crescent, Pukatja, SA 0872","solution_type":"Mesh Wi-Fi","community_name":"Pukatja","iloc":"Pukatja (Ernabella)","iloc_total_population":519,"iloc_indigenous_dwellings":82,"state":"SA","iloc_indigenous_population":465,"objectid":92,"lat":-26.27971217,"long":132.1328983}},{"geometry":{"type":"Point","coordinates":[132.1331970000001,-26.27932899999996],"crs":null},"id":93,"type":"Feature","properties":{"iloc_total_dwellings":98,"address":"Kali Crescent, Pukatja, SA 0872 (ERNABELLA ARTS)","solution_type":"Single Point","community_name":"Pukatja (Ernabella)","iloc":"Pukatja (Ernabella)","iloc_total_population":519,"iloc_indigenous_dwellings":82,"state":"SA","iloc_indigenous_population":465,"objectid":93,"lat":-26.279329,"long":132.133197}},{"geometry":{"type":"Point","coordinates":[134.92746230000012,-12.328695369999934],"crs":null},"id":94,"type":"Feature","properties":{"iloc_total_dwellings":28,"address":"Council Building, House 2, 21 (Lot 123) Warrk Rd ","solution_type":"Single Point","community_name":"Ramingining","iloc":"Ramingining, Northern Territory","iloc_total_population":814,"iloc_indigenous_dwellings":100,"state":"NT","iloc_indigenous_population":742,"objectid":94,"lat":-12.32869537,"long":134.9274623}},{"geometry":{"type":"Point","coordinates":[134.92717620000008,-12.328876909999963],"crs":null},"id":95,"type":"Feature","properties":{"iloc_total_dwellings":128,"address":"19 Warrk Road, Ramingining, NT 0822","solution_type":"Single Point","community_name":"Ramingining","iloc":"Ramingining","iloc_total_population":814,"iloc_indigenous_dwellings":100,"state":"NT","iloc_indigenous_population":742,"objectid":95,"lat":-12.32887691,"long":134.9271762}},{"geometry":{"type":"Point","coordinates":[152.9547020000001,-29.08631699999995],"crs":null},"id":96,"type":"Feature","properties":{"iloc_total_dwellings":4227,"address":"Lot 2, 3 Lyons Street, Rappville, NSW 2469","solution_type":"Single Point","community_name":"Rappville","iloc":"Richmond Valley Council","iloc_total_population":11668,"iloc_indigenous_dwellings":277,"state":"NSW","iloc_indigenous_population":565,"objectid":96,"lat":-29.086317,"long":152.954702}},{"geometry":{"type":"Point","coordinates":[139.13276000000008,-35.50769399999996],"crs":null},"id":97,"type":"Feature","properties":{"iloc_total_dwellings":39,"address":"1 Seymour Street, Narrung, SA 5259","solution_type":"Single Point","community_name":"Raukkan community","iloc":"Raukkan","iloc_total_population":108,"iloc_indigenous_dwellings":39,"state":"SA","iloc_indigenous_population":96,"objectid":97,"lat":-35.507694,"long":139.13276}},{"geometry":{"type":"Point","coordinates":[136.00321500000007,-12.34041899999994],"crs":null},"id":98,"type":"Feature","properties":{"iloc_total_dwellings":28,"address":"8 Raymangirr, East Arnhem, NT","solution_type":"Single Point","community_name":"Raymangirr","iloc":"Ramingining, Northern Territory","iloc_total_population":814,"iloc_indigenous_dwellings":100,"state":"NT","iloc_indigenous_population":742,"objectid":98,"lat":-12.340419,"long":136.003215}},{"geometry":{"type":"Point","coordinates":[132.1857490000001,-14.519909999999982],"crs":null},"id":99,"type":"Feature","properties":{"iloc_total_dwellings":18,"address":"Rockhole Community, 805 Florina Rd","solution_type":"Single Point","community_name":"Rockhole","iloc":"Rockhole","iloc_total_population":145,"iloc_indigenous_dwellings":18,"state":"NT","iloc_indigenous_population":145,"objectid":99,"lat":-14.51991,"long":132.185749}},{"geometry":{"type":"Point","coordinates":[133.91672590000007,-23.692747749999967],"crs":null},"id":100,"type":"Feature","properties":{"iloc_total_dwellings":1877,"address":"Town Camp Name: Whitegate, (Unit 1) Lot 5126, Undoolya Road,","solution_type":"Single Point","community_name":"Sadadeen (IRRKELANTYE) Whitegate","iloc":"Ross","iloc_total_population":5157,"iloc_indigenous_dwellings":355,"state":"NT","iloc_indigenous_population":955,"objectid":100,"lat":-23.69274775,"long":133.9167259}},{"geometry":{"type":"Point","coordinates":[134.69009300000005,-22.070201999999938],"crs":null},"id":101,"type":"Feature","properties":{"iloc_total_dwellings":82,"address":"Apungalindum Homeland School, 11780 Sandover Hwy (Pungalindum Road)","solution_type":"Single Point","community_name":"Sandover - Apungalindum","iloc":"Utopia, Northern Territory","iloc_total_population":444,"iloc_indigenous_dwellings":66,"state":"NT","iloc_indigenous_population":372,"objectid":101,"lat":-22.070202,"long":134.690093}},{"geometry":{"type":"Point","coordinates":[135.11295990000008,-21.98008446999995],"crs":null},"id":102,"type":"Feature","properties":{"iloc_total_dwellings":8,"address":"Irrultja School, 28 Irrultja Int Road","solution_type":"Single Point","community_name":"Sandover - Irrultja","iloc":"Irrultja","iloc_total_population":45,"iloc_indigenous_dwellings":8,"state":"NT","iloc_indigenous_population":46,"objectid":102,"lat":-21.98008447,"long":135.1129599}},{"geometry":{"type":"Point","coordinates":[134.84021000000007,-21.897945899999968],"crs":null},"id":103,"type":"Feature","properties":{"iloc_total_dwellings":82,"address":"Urapuntja Community (Clinic School), Sandover Highway","solution_type":"Single Point","community_name":"Sandover - Urapuntja","iloc":"Utopia, Northern Territory","iloc_total_population":444,"iloc_indigenous_dwellings":66,"state":"NT","iloc_indigenous_population":372,"objectid":103,"lat":-21.8979459,"long":134.84021}},{"geometry":{"type":"Point","coordinates":[134.37556860000007,-24.131859969999937],"crs":null},"id":104,"type":"Feature","properties":{"iloc_total_dwellings":124,"address":"17 Keringke Crescent, Santa Teresa, NT 0872","solution_type":"Single Point","community_name":"Santa Teresa","iloc":"Santa Teresa (Ltyentye Purte)","iloc_total_population":609,"iloc_indigenous_dwellings":99,"state":"NT","iloc_indigenous_population":561,"objectid":104,"lat":-24.13185997,"long":134.3755686}},{"geometry":{"type":"Point","coordinates":[142.36661200000003,-10.854843999999957],"crs":null},"id":105,"type":"Feature","properties":{"iloc_total_dwellings":88,"address":"Seisia Community Hall, Tumema Street","solution_type":"Single Point","community_name":"Seisia","iloc":"Seisia","iloc_total_population":293,"iloc_indigenous_dwellings":57,"state":"QLD","iloc_indigenous_population":194,"objectid":105,"lat":-10.854844,"long":142.366612}},{"geometry":{"type":"Point","coordinates":[122.59760900000003,-22.818570459999933],"crs":null},"id":106,"type":"Feature","properties":{"iloc_total_dwellings":null,"address":"Lot 1, Punmu-parnngurr Road, Telfer, WA 6762 (MARTUMILI ARTISTS)","solution_type":"Single Point","community_name":"Telfer","iloc":null,"iloc_total_population":null,"iloc_indigenous_dwellings":null,"state":"WA","iloc_indigenous_population":null,"objectid":106,"lat":-22.81857046,"long":122.597609}},{"geometry":{"type":"Point","coordinates":[123.11958540000012,-22.044329259999927],"crs":null},"id":107,"type":"Feature","properties":{"iloc_total_dwellings":null,"address":"First Street, Telfer, WA 6762 (IVAAP)","solution_type":"Single Point","community_name":"Telfer WA","iloc":null,"iloc_total_population":null,"iloc_indigenous_dwellings":null,"state":"WA","iloc_indigenous_population":null,"objectid":107,"lat":-22.04432926,"long":123.1195854}},{"geometry":{"type":"Point","coordinates":[142.22410890000003,-10.570012059999954],"crs":null},"id":108,"type":"Feature","properties":{"iloc_total_dwellings":218,"address":"Rosehill Community Store (CEQ), 60 Waiben Esplanade","solution_type":"Single Point","community_name":"Thursday Island","iloc":"TRAWQ (Thursday island)","iloc_total_population":1059,"iloc_indigenous_dwellings":192,"state":"QLD","iloc_indigenous_population":929,"objectid":108,"lat":-10.57001206,"long":142.2241089}},{"geometry":{"type":"Point","coordinates":[142.2109680000001,-10.57932599999998],"crs":null},"id":109,"type":"Feature","properties":{"iloc_total_dwellings":218,"address":"Community Centre, 2-4 (Lot 21) Olandi Street","solution_type":"Single Point","community_name":"Thursday Island","iloc":"TRAWQ (Thursday island)","iloc_total_population":1059,"iloc_indigenous_dwellings":192,"state":"QLD","iloc_indigenous_population":929,"objectid":109,"lat":-10.579326,"long":142.210968}},{"geometry":{"type":"Point","coordinates":[134.07558500000005,-24.673438999999973],"crs":null},"id":110,"type":"Feature","properties":{"iloc_total_dwellings":45,"address":"14 Ngintaka Road, Titjikala, NT 0872","solution_type":"Single Point","community_name":"Titjikala","iloc":"Titjikala","iloc_total_population":196,"iloc_indigenous_dwellings":36,"state":"NT","iloc_indigenous_population":186,"objectid":110,"lat":-24.673439,"long":134.075585}},{"geometry":{"type":"Point","coordinates":[128.71913800000004,-24.348240999999973],"crs":null},"id":111,"type":"Feature","properties":{"iloc_total_dwellings":394,"address":"Tjukurla Community Access Road, Ngaanyatjarra-giles, WA 0872 (TJUKURLA COMMUNITY OFFICE)","solution_type":"Single Point","community_name":"Tjukurla","iloc":"Shire of Ngaanyatjarraku","iloc_total_population":2177,"iloc_indigenous_dwellings":263,"state":"WA","iloc_indigenous_population":1044,"objectid":111,"lat":-24.348241,"long":128.719138}},{"geometry":{"type":"Point","coordinates":[142.35206540000001,-10.893195339999977],"crs":null},"id":112,"type":"Feature","properties":{"iloc_total_dwellings":94,"address":"128 Mara St Umagico (Lot 128 on SP 273352)","solution_type":"Single Point","community_name":"Umagico","iloc":"Umagico","iloc_total_population":394,"iloc_indigenous_dwellings":86,"state":"QLD","iloc_indigenous_population":354,"objectid":112,"lat":-10.89319534,"long":142.3520654}},{"geometry":{"type":"Point","coordinates":[136.8128084000001,-13.857086249999952],"crs":null},"id":113,"type":"Feature","properties":{"iloc_total_dwellings":106,"address":"Umbakumba Main Council Office, 12 (Lot 229) Mamarika Rd","solution_type":"Single Point","community_name":"Umbakumba","iloc":"Umbakumba and Outstations","iloc_total_population":482,"iloc_indigenous_dwellings":96,"state":"NT","iloc_indigenous_population":441,"objectid":113,"lat":-13.85708625,"long":136.8128084}},{"geometry":{"type":"Point","coordinates":[132.71009340000012,-27.00440539999994],"crs":null},"id":114,"type":"Feature","properties":{"iloc_total_dwellings":63,"address":"Lot 100, Mimili Community Road, Mimili, SA 0872","solution_type":"Single Point","community_name":"Mimili","iloc":"Mimili and Mimili Homelands","iloc_total_population":277,"iloc_indigenous_dwellings":48,"state":"SA","iloc_indigenous_population":239,"objectid":114,"lat":-27.0044054,"long":132.7100934}},{"geometry":{"type":"Point","coordinates":[150.4187137,-31.395529529999976],"crs":null},"id":116,"type":"Feature","properties":{"iloc_total_dwellings":32,"address":"43 Pine Road, Caroona, NSW 2343","solution_type":"Single Point","community_name":"Walhallow","iloc":"Walhallow Reserve (Carooma)","iloc_total_population":91,"iloc_indigenous_dwellings":32,"state":"NSW","iloc_indigenous_population":86,"objectid":116,"lat":-31.39552953,"long":150.4187137}},{"geometry":{"type":"Point","coordinates":[136.35562600000003,-12.891606999999965],"crs":null},"id":117,"type":"Feature","properties":{"iloc_total_dwellings":null,"address":"Lot 3 Wandawuy Rd, East Arnhem NT 0822 (Clinic, Wanduway Community)","solution_type":"Mesh Wi-Fi","community_name":"Wandawuy","iloc":null,"iloc_total_population":null,"iloc_indigenous_dwellings":null,"state":"NT","iloc_indigenous_population":84,"objectid":117,"lat":-12.891607,"long":136.355626}},{"geometry":{"type":"Point","coordinates":[128.28724480000005,-25.00254917999996],"crs":null},"id":118,"type":"Feature","properties":{"iloc_total_dwellings":45,"address":"Building 1 CWW, Lot 5, Fifteenth Street, Ngaanyatjarra-giles, WA 0872","solution_type":"Mesh Wi-Fi","community_name":"Warakurna","iloc":"Warakurna Community","iloc_total_population":185,"iloc_indigenous_dwellings":35,"state":"WA","iloc_indigenous_population":158,"objectid":118,"lat":-25.00254918,"long":128.2872448}},{"geometry":{"type":"Point","coordinates":[127.54097200000001,-25.284475999999984],"crs":null},"id":119,"type":"Feature","properties":{"iloc_total_dwellings":394,"address":"Wararn Community Office, Twelfth Street","solution_type":"Single Point","community_name":"Wararn","iloc":"Shire of Ngaanyatjarraku","iloc_total_population":2177,"iloc_indigenous_dwellings":263,"state":"WA","iloc_indigenous_population":1044,"objectid":119,"lat":-25.284476,"long":127.540972}},{"geometry":{"type":"Point","coordinates":[126.58015100000011,-26.133399999999938],"crs":null},"id":120,"type":"Feature","properties":{"iloc_total_dwellings":132,"address":"Warburton Community Clinic, Fourth St","solution_type":"Single Point","community_name":"Warburton","iloc":"Warburton","iloc_total_population":511,"iloc_indigenous_dwellings":98,"state":"WA","iloc_indigenous_population":431,"objectid":120,"lat":-26.1334,"long":126.580151}},{"geometry":{"type":"Point","coordinates":[128.2159418000001,-17.03196627999995],"crs":null},"id":121,"type":"Feature","properties":{"iloc_total_dwellings":96,"address":"Lot 9, Warmun Road, Warmun, WA 6743 (WARMUN ARTS)","solution_type":"Single Point","community_name":"Warmun","iloc":"Warmun","iloc_total_population":457,"iloc_indigenous_dwellings":77,"state":"WA","iloc_indigenous_population":409,"objectid":121,"lat":-17.03196628,"long":128.2159418}},{"geometry":{"type":"Point","coordinates":[119.59036100000003,-20.64922699999994],"crs":null},"id":122,"type":"Feature","properties":{"iloc_total_dwellings":21,"address":"1 Third Street, Marble Bar, WA 6760 (WARRALONG COMMUNITY)","solution_type":"Single Point","community_name":"Warralong","iloc":"Warralong Community","iloc_total_population":90,"iloc_indigenous_dwellings":17,"state":"WA","iloc_indigenous_population":87,"objectid":122,"lat":-20.649227,"long":119.590361}},{"geometry":{"type":"Point","coordinates":[143.379092,-31.558794999999975],"crs":null},"id":123,"type":"Feature","properties":{"iloc_total_dwellings":153,"address":"39 Reid Street, Wilcannia, NSW 2836","solution_type":"Single Point","community_name":"Wilcannia","iloc":"Wilcannia","iloc_total_population":575,"iloc_indigenous_dwellings":42,"state":"NSW","iloc_indigenous_population":367,"objectid":123,"lat":-31.558795,"long":143.379092}},{"geometry":{"type":"Point","coordinates":[128.93091800000002,-26.06631699999997],"crs":null},"id":124,"type":"Feature","properties":{"iloc_total_dwellings":394,"address":"Piralungka Street, Ngaanyatjarra-giles, WA 0872 (WINGELLINA COMMUNITY OFFICE)","solution_type":"Single Point","community_name":"Wingellina (Irrunytju)","iloc":"Shire of Ngaanyatjarraku","iloc_total_population":2177,"iloc_indigenous_dwellings":263,"state":"WA","iloc_indigenous_population":1044,"objectid":124,"lat":-26.066317,"long":128.930918}},{"geometry":{"type":"Point","coordinates":[145.3188311,-15.94560144999997],"crs":null},"id":125,"type":"Feature","properties":{"iloc_total_dwellings":79,"address":"Rural Transaction Centre, 120 Hartwig Street","solution_type":"Single Point","community_name":"Wujal Wujal","iloc":"Wujal Wujal","iloc_total_population":276,"iloc_indigenous_dwellings":70,"state":"QLD","iloc_indigenous_population":258,"objectid":125,"lat":-15.94560145,"long":145.3188311}},{"geometry":{"type":"Point","coordinates":[145.31945340000004,-15.952707519999933],"crs":null},"id":126,"type":"Feature","properties":{"iloc_total_dwellings":77,"address":"736 Douglas Street, Wujal Wujal, QLD 4895","solution_type":"Single Point","community_name":"Wujal Wujal","iloc":"Wujal Wujal","iloc_total_population":276,"iloc_indigenous_dwellings":70,"state":"QLD","iloc_indigenous_population":258,"objectid":126,"lat":-15.95270752,"long":145.3194534}},{"geometry":{"type":"Point","coordinates":[130.6390580000001,-11.754152999999974],"crs":null},"id":127,"type":"Feature","properties":{"iloc_total_dwellings":368,"address":"12 Puantulura Street, Wurrumiyanga, NT 0822","solution_type":"Single Point","community_name":"Wurrumiyanga","iloc":"Wurrumiyanga (Nguiu)","iloc_total_population":1421,"iloc_indigenous_dwellings":316,"state":"NT","iloc_indigenous_population":1209,"objectid":127,"lat":-11.754153,"long":130.639058}},{"geometry":{"type":"Point","coordinates":[128.12162050000006,-15.484969839999962],"crs":null},"id":128,"type":"Feature","properties":{"iloc_total_dwellings":220,"address":"2B Civic Way, Wyndham, WA 6740 (TDE BIRCH MEMORIAL YOUTH & RECREATION CENTRE)","solution_type":"Single Point","community_name":"Wyndham","iloc":"Wyndham","iloc_total_population":745,"iloc_indigenous_dwellings":142,"state":"WA","iloc_indigenous_population":448,"objectid":128,"lat":-15.48496984,"long":128.1216205}},{"geometry":{"type":"Point","coordinates":[145.86678700000004,-16.907618999999954],"crs":null},"id":129,"type":"Feature","properties":{"iloc_total_dwellings":489,"address":"Yarrabah Library, 2 Workshop Rd","solution_type":"Single Point","community_name":"Yarrabah","iloc":"Yarrabah","iloc_total_population":2505,"iloc_indigenous_dwellings":476,"state":"QLD","iloc_indigenous_population":2402,"objectid":129,"lat":-16.907619,"long":145.866787}},{"geometry":{"type":"Point","coordinates":[136.89119900000003,-12.251054999999951],"crs":null},"id":130,"type":"Feature","properties":{"iloc_total_dwellings":144,"address":"Yirrkala Accommodation, Lot 128 Tuffin Rd","solution_type":"Single Point","community_name":"Yirrkala","iloc":"Yirrkala","iloc_total_population":657,"iloc_indigenous_dwellings":98,"state":"NT","iloc_indigenous_population":524,"objectid":130,"lat":-12.251055,"long":136.891199}},{"geometry":{"type":"Point","coordinates":[136.8914450000001,-12.250593999999978],"crs":null},"id":131,"type":"Feature","properties":{"iloc_total_dwellings":144,"address":"Yirrkala Art Centre, Lot 137 Tuffin Rd","solution_type":"Single Point","community_name":"Yirrkala","iloc":"Yirrkala","iloc_total_population":657,"iloc_indigenous_dwellings":98,"state":"NT","iloc_indigenous_population":524,"objectid":131,"lat":-12.250594,"long":136.891445}},{"geometry":{"type":"Point","coordinates":[126.90106190000006,-17.27829485999996],"crs":null},"id":132,"type":"Feature","properties":{"iloc_total_dwellings":105,"address":"LOT 302 TABLELANDS ROAD","solution_type":"Single Point","community_name":"Yulumbu","iloc":"Halls Creek","iloc_total_population":421,"iloc_indigenous_dwellings":90,"state":"WA","iloc_indigenous_population":349,"objectid":132,"lat":-17.27829486,"long":126.9010619}}],"type":"FeatureCollection","properties":{"exceededTransferLimit":false}}