{"features":[{"geometry":{"type":"Point","coordinates":[133.93600000000004,-22.21479999999997],"crs":null},"id":1,"type":"Feature","properties":{"no_of_phones":1,"cpp_line_no_1":"08 8956 9076","cpp_line_no_2":null,"alternative_name":"Woolla","cpp_line_no_5":null,"cpp_line_no_3":null,"latitude":-22.2148,"cpp_line_no_4":null,"community":"Adelaide Bore","objectid":1,"longitude":133.936}},{"geometry":{"type":"Point","coordinates":[137.83300000000008,-20.982999999999947],"crs":null},"id":2,"type":"Feature","properties":{"no_of_phones":4,"cpp_line_no_1":"07 4748 3028","cpp_line_no_2":"07 4748 3053","alternative_name":"Lake Nash","cpp_line_no_5":null,"cpp_line_no_3":"07 4748 3071","latitude":-20.983,"cpp_line_no_4":"07 4748 3176","community":"Alpurrurulam CP-14","objectid":2,"longitude":137.833}},{"geometry":{"type":"Point","coordinates":[131.10300000000007,-13.245799999999974],"crs":null},"id":3,"type":"Feature","properties":{"no_of_phones":1,"cpp_line_no_1":"08 8976 7290","cpp_line_no_2":null,"alternative_name":"Adelaide River Town Camp, Wairia","cpp_line_no_5":null,"cpp_line_no_3":null,"latitude":-13.2458,"cpp_line_no_4":null,"community":"Amangal","objectid":3,"longitude":131.103}},{"geometry":{"type":"Point","coordinates":[134.84166000000005,-21.89766999999995],"crs":null},"id":4,"type":"Feature","properties":{"no_of_phones":1,"cpp_line_no_1":"08 8956 9641","cpp_line_no_2":null,"alternative_name":"Mingintirnina, Urapentye, Utopia","cpp_line_no_5":null,"cpp_line_no_3":null,"latitude":-21.89767,"cpp_line_no_4":null,"community":"Amengernterneah","objectid":4,"longitude":134.84166}},{"geometry":{"type":"Point","coordinates":[134.56306000000006,-22.230039999999974],"crs":null},"id":5,"type":"Feature","properties":{"no_of_phones":1,"cpp_line_no_1":"08 8956 9038","cpp_line_no_2":null,"alternative_name":"Angkarripa, Angkwetengarenye, Ankarripa, Old Utopia Homestead","cpp_line_no_5":null,"cpp_line_no_3":null,"latitude":-22.23004,"cpp_line_no_4":null,"community":"Ankerrapw Homestead","objectid":5,"longitude":134.56306}},{"geometry":{"type":"Point","coordinates":[133.8710000000001,-23.66799999999995],"crs":null},"id":6,"type":"Feature","properties":{"no_of_phones":1,"cpp_line_no_1":"08 8953 7526","cpp_line_no_2":null,"alternative_name":"Palmers","cpp_line_no_5":null,"cpp_line_no_3":null,"latitude":-23.668,"cpp_line_no_4":null,"community":"Aper-Alwerrknge","objectid":6,"longitude":133.871}},{"geometry":{"type":"Point","coordinates":[131.8778000000001,-11.193599999999947],"crs":null},"id":7,"type":"Feature","properties":{"no_of_phones":1,"cpp_line_no_1":"08 8979 0329","cpp_line_no_2":null,"alternative_name":null,"cpp_line_no_5":null,"cpp_line_no_3":null,"latitude":-11.1936,"cpp_line_no_4":null,"community":"Araru Point ","objectid":7,"longitude":131.8778}},{"geometry":{"type":"Point","coordinates":[132.57400000000007,-23.94969999999995],"crs":null},"id":8,"type":"Feature","properties":{"no_of_phones":1,"cpp_line_no_1":"08 8956 9021","cpp_line_no_2":null,"alternative_name":null,"cpp_line_no_5":null,"cpp_line_no_3":null,"latitude":-23.9497,"cpp_line_no_4":null,"community":"Arawerr","objectid":8,"longitude":132.574}},{"geometry":{"type":"Point","coordinates":[132.27083000000005,-24.07361199999997],"crs":null},"id":9,"type":"Feature","properties":{"no_of_phones":2,"cpp_line_no_1":"08 8955 8312","cpp_line_no_2":"08 8955 8316","alternative_name":null,"cpp_line_no_5":null,"cpp_line_no_3":null,"latitude":-24.073612,"cpp_line_no_4":null,"community":"Areyonga CP-14","objectid":9,"longitude":132.27083}},{"geometry":{"type":"Point","coordinates":[134.77470000000005,-22.087699999999927],"crs":null},"id":10,"type":"Feature","properties":{"no_of_phones":1,"cpp_line_no_1":"08 8956 9022","cpp_line_no_2":null,"alternative_name":"Ahalpere, Angarapa, New Shop, Uranpuntja, Store, Utopia New Store","cpp_line_no_5":null,"cpp_line_no_3":null,"latitude":-22.0877,"cpp_line_no_4":null,"community":"Arlparra","objectid":10,"longitude":134.7747}},{"geometry":{"type":"Point","coordinates":[133.6250000000001,-23.781399999999962],"crs":null},"id":11,"type":"Feature","properties":{"no_of_phones":1,"cpp_line_no_1":"08 8955 0816","cpp_line_no_2":null,"alternative_name":null,"cpp_line_no_5":null,"cpp_line_no_3":null,"latitude":-23.7814,"cpp_line_no_4":null,"community":"Arrilljhere","objectid":11,"longitude":133.625}},{"geometry":{"type":"Point","coordinates":[134.54317000000003,-22.290259999999932],"crs":null},"id":12,"type":"Feature","properties":{"no_of_phones":1,"cpp_line_no_1":"08 8956 9063","cpp_line_no_2":null,"alternative_name":"Arterre, Artekerr, Artekkere, Atikirra,Three Bores","cpp_line_no_5":null,"cpp_line_no_3":null,"latitude":-22.29026,"cpp_line_no_4":null,"community":"Artekerre","objectid":12,"longitude":134.54317}},{"geometry":{"type":"Point","coordinates":[134.86760000000004,-21.91758999999996],"crs":null},"id":13,"type":"Feature","properties":{"no_of_phones":1,"cpp_line_no_1":"08 8956 9023","cpp_line_no_2":null,"alternative_name":"Athiliya, Sillya","cpp_line_no_5":null,"cpp_line_no_3":null,"latitude":-21.91759,"cpp_line_no_4":null,"community":"Atheley","objectid":13,"longitude":134.8676}},{"geometry":{"type":"Point","coordinates":[134.99300000000005,-21.871999999999957],"crs":null},"id":14,"type":"Feature","properties":{"no_of_phones":1,"cpp_line_no_1":"08 8956 9037","cpp_line_no_2":null,"alternative_name":"Atnungurpa, Atnwengerrp, Ammaroo, Quart Pot","cpp_line_no_5":null,"cpp_line_no_3":null,"latitude":-21.872,"cpp_line_no_4":null,"community":"Atnwengerrpe","objectid":14,"longitude":134.993}},{"geometry":{"type":"Point","coordinates":[131.89600000000007,-23.260999999999967],"crs":null},"id":15,"type":"Feature","properties":{"no_of_phones":1,"cpp_line_no_1":"08 8956 8531","cpp_line_no_2":null,"alternative_name":"Aturu, Pupunya Outstation","cpp_line_no_5":null,"cpp_line_no_3":null,"latitude":-23.261,"cpp_line_no_4":null,"community":"Blackwater","objectid":15,"longitude":131.896}},{"geometry":{"type":"Point","coordinates":[135.72244000000012,-12.37466999999998],"crs":null},"id":16,"type":"Feature","properties":{"no_of_phones":1,"cpp_line_no_1":"08 8987 3576","cpp_line_no_2":null,"alternative_name":"Gapuwiyak Out Station, Bunhanura","cpp_line_no_5":null,"cpp_line_no_3":null,"latitude":-12.37467,"cpp_line_no_4":null,"community":"Bunghungura","objectid":16,"longitude":135.72244}},{"geometry":{"type":"Point","coordinates":[133.74751000000003,-23.196699999999964],"crs":null},"id":17,"type":"Feature","properties":{"no_of_phones":1,"cpp_line_no_1":"08 8956 9094","cpp_line_no_2":null,"alternative_name":"Yambah Mpweringe, Rices Camp","cpp_line_no_5":null,"cpp_line_no_3":null,"latitude":-23.1967,"cpp_line_no_4":null,"community":"Burt Creek","objectid":17,"longitude":133.74751}},{"geometry":{"type":"Point","coordinates":[134.55240000000003,-22.271799999999928],"crs":null},"id":18,"type":"Feature","properties":{"no_of_phones":1,"cpp_line_no_1":"08 8956 9048","cpp_line_no_2":null,"alternative_name":"Camels Camp ","cpp_line_no_5":null,"cpp_line_no_3":null,"latitude":-22.2718,"cpp_line_no_4":null,"community":"Camel Camp","objectid":18,"longitude":134.5524}},{"geometry":{"type":"Point","coordinates":[131.59360000000004,-23.753299999999967],"crs":null},"id":19,"type":"Feature","properties":{"no_of_phones":1,"cpp_line_no_1":"08 8956 7719","cpp_line_no_2":null,"alternative_name":"Yateman, Bore","cpp_line_no_5":null,"cpp_line_no_3":null,"latitude":-23.7533,"cpp_line_no_4":null,"community":"Camels Hump","objectid":19,"longitude":131.5936}},{"geometry":{"type":"Point","coordinates":[135.61900000000003,-20.638999999999953],"crs":null},"id":20,"type":"Feature","properties":{"no_of_phones":1,"cpp_line_no_1":"08 8964 1650","cpp_line_no_2":null,"alternative_name":" Owairtilla, Orwaitilla, Orwaitillya","cpp_line_no_5":null,"cpp_line_no_3":null,"latitude":-20.639,"cpp_line_no_4":null,"community":"Canteen Creek CP-14","objectid":20,"longitude":135.619}},{"geometry":{"type":"Point","coordinates":[135.56090000000006,-12.052599999999927],"crs":null},"id":21,"type":"Feature","properties":{"no_of_phones":1,"cpp_line_no_1":"08 8970 5147","cpp_line_no_2":null,"alternative_name":"Elliot on Elcho Island","cpp_line_no_5":null,"cpp_line_no_3":null,"latitude":-12.0526,"cpp_line_no_4":null,"community":"Dhambala","objectid":21,"longitude":135.5609}},{"geometry":{"type":"Point","coordinates":[133.53597000000002,-17.549889999999948],"crs":null},"id":22,"type":"Feature","properties":{"no_of_phones":1,"cpp_line_no_1":"08 8969 2137","cpp_line_no_2":null,"alternative_name":null,"cpp_line_no_5":null,"cpp_line_no_3":null,"latitude":-17.54989,"cpp_line_no_4":null,"community":"Elliott North Camp","objectid":22,"longitude":133.53597}},{"geometry":{"type":"Point","coordinates":[134.45100000000002,-22.803999999999974],"crs":null},"id":23,"type":"Feature","properties":{"no_of_phones":2,"cpp_line_no_1":"08 8956 9025","cpp_line_no_2":"08 8956 9026","alternative_name":"Alcoota","cpp_line_no_5":null,"cpp_line_no_3":null,"latitude":-22.804,"cpp_line_no_4":null,"community":"Engawala CP-14","objectid":23,"longitude":134.451}},{"geometry":{"type":"Point","coordinates":[134.34404400000005,-25.34555599999993],"crs":null},"id":24,"type":"Feature","properties":{"no_of_phones":3,"cpp_line_no_1":"08 8956 0449","cpp_line_no_2":"08 8956 0451","alternative_name":"Aputula, Apatula","cpp_line_no_5":null,"cpp_line_no_3":"08 8956 0452","latitude":-25.345556,"cpp_line_no_4":null,"community":"Finke","objectid":24,"longitude":134.344044}},{"geometry":{"type":"Point","coordinates":[129.52700000000004,-14.53899999999993],"crs":null},"id":25,"type":"Feature","properties":{"no_of_phones":1,"cpp_line_no_1":"08 8978 1247","cpp_line_no_2":null,"alternative_name":null,"cpp_line_no_5":null,"cpp_line_no_3":null,"latitude":-14.539,"cpp_line_no_4":null,"community":"Fossil Head","objectid":25,"longitude":129.527}},{"geometry":{"type":"Point","coordinates":[134.81600000000003,-12.28329999999994],"crs":null},"id":26,"type":"Feature","properties":{"no_of_phones":1,"cpp_line_no_1":"08 8979 0714","cpp_line_no_2":null,"alternative_name":"Galawdjapin Galatjapan","cpp_line_no_5":null,"cpp_line_no_3":null,"latitude":-12.2833,"cpp_line_no_4":null,"community":"Galadjapin","objectid":26,"longitude":134.816}},{"geometry":{"type":"Point","coordinates":[133.69420000000002,-23.065199999999948],"crs":null},"id":27,"type":"Feature","properties":{"no_of_phones":1,"cpp_line_no_1":"08 8956 9245","cpp_line_no_2":null,"alternative_name":"Alkupitja","cpp_line_no_5":null,"cpp_line_no_3":null,"latitude":-23.0652,"cpp_line_no_4":null,"community":"Gilllian Bore","objectid":27,"longitude":133.6942}},{"geometry":{"type":"Point","coordinates":[131.88100000000009,-23.449999999999932],"crs":null},"id":28,"type":"Feature","properties":{"no_of_phones":2,"cpp_line_no_1":"08 8964 7023","cpp_line_no_2":"08 8964 7156","alternative_name":"Kunparrka, Ikuntji","cpp_line_no_5":null,"cpp_line_no_3":null,"latitude":-23.45,"cpp_line_no_4":null,"community":"Haasts Bluff CP-14","objectid":28,"longitude":131.881}},{"geometry":{"type":"Point","coordinates":[133.9000000000001,-23.70799999999997],"crs":null},"id":29,"type":"Feature","properties":{"no_of_phones":3,"cpp_line_no_1":"08 8952 6907","cpp_line_no_2":"08 8952 7637","alternative_name":"Ewyenper-Atwatye","cpp_line_no_5":null,"cpp_line_no_3":"08 8952 8901","latitude":-23.708,"cpp_line_no_4":null,"community":"Hidden Valley","objectid":29,"longitude":133.9}},{"geometry":{"type":"Point","coordinates":[136.6500000000001,-19.032199999999932],"crs":null},"id":30,"type":"Feature","properties":{"no_of_phones":1,"cpp_line_no_1":"08 8964 5512","cpp_line_no_2":null,"alternative_name":"Illuwuru","cpp_line_no_5":null,"cpp_line_no_3":null,"latitude":-19.0322,"cpp_line_no_4":null,"community":"Ilawuru","objectid":30,"longitude":136.65}},{"geometry":{"type":"Point","coordinates":[133.87060000000008,-23.76569999999998],"crs":null},"id":31,"type":"Feature","properties":{"no_of_phones":1,"cpp_line_no_1":"08 8953 6945","cpp_line_no_2":null,"alternative_name":"New Ilparpa","cpp_line_no_5":null,"cpp_line_no_3":null,"latitude":-23.7657,"cpp_line_no_4":null,"community":"Ilparpa","objectid":31,"longitude":133.8706}},{"geometry":{"type":"Point","coordinates":[133.86110000000008,-23.665599999999984],"crs":null},"id":32,"type":"Feature","properties":{"no_of_phones":1,"cpp_line_no_1":"08 8953 7647","cpp_line_no_2":null,"alternative_name":"Warlpiri Town Camp ","cpp_line_no_5":null,"cpp_line_no_3":null,"latitude":-23.6656,"cpp_line_no_4":null,"community":"Ilperle Tyathe","objectid":32,"longitude":133.8611}},{"geometry":{"type":"Point","coordinates":[133.8710000000001,-23.743799999999965],"crs":null},"id":33,"type":"Feature","properties":{"no_of_phones":1,"cpp_line_no_1":"08 8953 7649","cpp_line_no_2":null,"alternative_name":"Ilperentye, Ilyiperenye, Old Timers Camp,  Alice Springs Town Camp","cpp_line_no_5":null,"cpp_line_no_3":null,"latitude":-23.7438,"cpp_line_no_4":null,"community":"Ilyperenye","objectid":33,"longitude":133.871}},{"geometry":{"type":"Point","coordinates":[132.57000000000005,-25.12719999999996],"crs":null},"id":34,"type":"Feature","properties":{"no_of_phones":1,"cpp_line_no_1":"08 8954 9153","cpp_line_no_2":null,"alternative_name":"Top Camp","cpp_line_no_5":null,"cpp_line_no_3":null,"latitude":-25.1272,"cpp_line_no_4":null,"community":"Imanpa","objectid":34,"longitude":132.57}},{"geometry":{"type":"Point","coordinates":[134.8470000000001,-21.820099999999968],"crs":null},"id":35,"type":"Feature","properties":{"no_of_phones":1,"cpp_line_no_1":"08 8956 9040","cpp_line_no_2":null,"alternative_name":"Rocket Range, Angawangere, Mortons","cpp_line_no_5":null,"cpp_line_no_3":null,"latitude":-21.8201,"cpp_line_no_4":null,"community":"Inkawenyerre","objectid":35,"longitude":134.847}},{"geometry":{"type":"Point","coordinates":[132.37390000000005,-23.988599999999963],"crs":null},"id":36,"type":"Feature","properties":{"no_of_phones":1,"cpp_line_no_1":"08 8955 8239","cpp_line_no_2":null,"alternative_name":null,"cpp_line_no_5":null,"cpp_line_no_3":null,"latitude":-23.9886,"cpp_line_no_4":null,"community":"Ipolera","objectid":36,"longitude":132.3739}},{"geometry":{"type":"Point","coordinates":[135.13450000000012,-22.846199999999953],"crs":null},"id":37,"type":"Feature","properties":{"no_of_phones":1,"cpp_line_no_1":"08 8956 9030","cpp_line_no_2":null,"alternative_name":"Mt Swan, MacDonald Downs","cpp_line_no_5":null,"cpp_line_no_3":null,"latitude":-22.8462,"cpp_line_no_4":null,"community":"Irrerlirre","objectid":37,"longitude":135.1345}},{"geometry":{"type":"Point","coordinates":[136.39400000000012,-21.65399999999994],"crs":null},"id":38,"type":"Feature","properties":{"no_of_phones":1,"cpp_line_no_1":"08 8956 6369","cpp_line_no_2":null,"alternative_name":null,"cpp_line_no_5":null,"cpp_line_no_3":null,"latitude":-21.654,"cpp_line_no_4":null,"community":"Irrmanne","objectid":38,"longitude":136.394}},{"geometry":{"type":"Point","coordinates":[135.11,-21.982999999999947],"crs":null},"id":39,"type":"Feature","properties":{"no_of_phones":1,"cpp_line_no_1":"08 8956 9036","cpp_line_no_2":null,"alternative_name":"Irrwelty, Ittweltye","cpp_line_no_5":null,"cpp_line_no_3":null,"latitude":-21.983,"cpp_line_no_4":null,"community":"Irrultja","objectid":39,"longitude":135.11}},{"geometry":{"type":"Point","coordinates":[133.2170000000001,-20.829999999999927],"crs":null},"id":40,"type":"Feature","properties":{"no_of_phones":1,"cpp_line_no_1":"08 8964 1637","cpp_line_no_2":null,"alternative_name":null,"cpp_line_no_5":null,"cpp_line_no_3":null,"latitude":-20.83,"cpp_line_no_4":null,"community":"Jarra Jarra","objectid":40,"longitude":133.217}},{"geometry":{"type":"Point","coordinates":[129.07600000000002,-24.857999999999947],"crs":null},"id":41,"type":"Feature","properties":{"no_of_phones":3,"cpp_line_no_1":"08 8955 8245","cpp_line_no_2":"08 8955 8246","alternative_name":"Docker River,  Kultukatjara","cpp_line_no_5":null,"cpp_line_no_3":"08 8955 8247","latitude":-24.858,"cpp_line_no_4":null,"community":"Kaltukatjara","objectid":41,"longitude":129.076}},{"geometry":{"type":"Point","coordinates":[133.91800000000012,-19.003799999999956],"crs":null},"id":42,"type":"Feature","properties":{"no_of_phones":1,"cpp_line_no_1":"08 8964 4754","cpp_line_no_2":null,"alternative_name":"Akulumpulpa, Blue Bush Bore, Kalampurlpa, Kalumparlpa, Kalumbulpa, Kulumpurlpa","cpp_line_no_5":null,"cpp_line_no_3":null,"latitude":-19.0038,"cpp_line_no_4":null,"community":"Kalumpurlpa","objectid":42,"longitude":133.918}},{"geometry":{"type":"Point","coordinates":[132.37110000000007,-12.698799999999949],"crs":null},"id":43,"type":"Feature","properties":{"no_of_phones":1,"cpp_line_no_1":"08 8979 3108","cpp_line_no_2":null,"alternative_name":"Naramu","cpp_line_no_5":null,"cpp_line_no_3":null,"latitude":-12.6988,"cpp_line_no_4":null,"community":"Kapalga","objectid":43,"longitude":132.3711}},{"geometry":{"type":"Point","coordinates":[132.72030000000007,-23.93969999999996],"crs":null},"id":44,"type":"Feature","properties":{"no_of_phones":1,"cpp_line_no_1":"08 8956 7771","cpp_line_no_2":null,"alternative_name":"Kaporilja","cpp_line_no_5":null,"cpp_line_no_3":null,"latitude":-23.9397,"cpp_line_no_4":null,"community":"Kaporilya","objectid":44,"longitude":132.7203}},{"geometry":{"type":"Point","coordinates":[134.1980000000001,-19.65859999999998],"crs":null},"id":45,"type":"Feature","properties":{"no_of_phones":1,"cpp_line_no_1":"08 8962 3436","cpp_line_no_2":null,"alternative_name":"Watijipungara","cpp_line_no_5":null,"cpp_line_no_3":null,"latitude":-19.6586,"cpp_line_no_4":null,"community":"Karguru Town Camp","objectid":45,"longitude":134.198}},{"geometry":{"type":"Point","coordinates":[133.86400000000003,-23.763999999999953],"crs":null},"id":46,"type":"Feature","properties":{"no_of_phones":1,"cpp_line_no_1":"08 8953 7189","cpp_line_no_2":null,"alternative_name":null,"cpp_line_no_5":null,"cpp_line_no_3":null,"latitude":-23.764,"cpp_line_no_4":null,"community":"Karnte","objectid":46,"longitude":133.864}},{"geometry":{"type":"Point","coordinates":[134.06900000000007,-23.304899999999975],"crs":null},"id":47,"type":"Feature","properties":{"no_of_phones":1,"cpp_line_no_1":"08 8956 9074","cpp_line_no_2":null,"alternative_name":"Sandy Bore, Turner's Camp,  Amapipe","cpp_line_no_5":null,"cpp_line_no_3":null,"latitude":-23.3049,"cpp_line_no_4":null,"community":"Kemerne Bore","objectid":47,"longitude":134.069}},{"geometry":{"type":"Point","coordinates":[135.39780000000007,-19.390799999999956],"crs":null},"id":48,"type":"Feature","properties":{"no_of_phones":1,"cpp_line_no_1":"08 8964 4785","cpp_line_no_2":null,"alternative_name":"Six Eye, Bore N0 6, Frewena,  Kuntapurla, Kurnturlpara","cpp_line_no_5":null,"cpp_line_no_3":null,"latitude":-19.3908,"cpp_line_no_4":null,"community":"Kurntapurra","objectid":48,"longitude":135.3978}},{"geometry":{"type":"Point","coordinates":[129.5970000000001,-14.036999999999978],"crs":null},"id":49,"type":"Feature","properties":{"no_of_phones":1,"cpp_line_no_1":"08 8978 2956","cpp_line_no_2":null,"alternative_name":null,"cpp_line_no_5":null,"cpp_line_no_3":null,"latitude":-14.037,"cpp_line_no_4":null,"community":"Kuy","objectid":49,"longitude":129.597}},{"geometry":{"type":"Point","coordinates":[132.76700000000005,-22.53899999999993],"crs":null},"id":50,"type":"Feature","properties":{"no_of_phones":2,"cpp_line_no_1":"08 8964 7158","cpp_line_no_2":"08 8964 7159","alternative_name":"Napperby, Napperrby","cpp_line_no_5":null,"cpp_line_no_3":null,"latitude":-22.539,"cpp_line_no_4":null,"community":"Laramba  CP-14","objectid":50,"longitude":132.767}},{"geometry":{"type":"Point","coordinates":[132.9018000000001,-24.05699999999996],"crs":null},"id":51,"type":"Feature","properties":{"no_of_phones":1,"cpp_line_no_1":"08 8955 8206","cpp_line_no_2":null,"alternative_name":"Yankies Camp","cpp_line_no_5":null,"cpp_line_no_3":null,"latitude":-24.057,"cpp_line_no_4":null,"community":"Ltira Outstation","objectid":51,"longitude":132.9018}},{"geometry":{"type":"Point","coordinates":[132.84310000000005,-12.666299999999978],"crs":null},"id":52,"type":"Feature","properties":{"no_of_phones":1,"cpp_line_no_1":"08 8979 3263","cpp_line_no_2":null,"alternative_name":"Jabiru Town Camp","cpp_line_no_5":null,"cpp_line_no_3":null,"latitude":-12.6663,"cpp_line_no_4":null,"community":"Manaburduma","objectid":52,"longitude":132.8431}},{"geometry":{"type":"Point","coordinates":[133.40800000000002,-17.37999999999994],"crs":null},"id":53,"type":"Feature","properties":{"no_of_phones":2,"cpp_line_no_1":"08 8964 4756","cpp_line_no_2":"08 8964 4758","alternative_name":null,"cpp_line_no_5":null,"cpp_line_no_3":null,"latitude":-17.38,"cpp_line_no_4":null,"community":"Marlinja","objectid":53,"longitude":133.408}},{"geometry":{"type":"Point","coordinates":[132.36,-23.289999999999964],"crs":null},"id":54,"type":"Feature","properties":{"no_of_phones":1,"cpp_line_no_1":"08 8964 7160","cpp_line_no_2":null,"alternative_name":"Umpangari, Mt Zeil, Dashwood, Bunghara, Umpangara","cpp_line_no_5":null,"cpp_line_no_3":null,"latitude":-23.29,"cpp_line_no_4":null,"community":"Mbunghara ","objectid":54,"longitude":132.36}},{"geometry":{"type":"Point","coordinates":[129.966,-14.22199999999998],"crs":null},"id":55,"type":"Feature","properties":{"no_of_phones":1,"cpp_line_no_1":"08 8978 2395","cpp_line_no_2":null,"alternative_name":" Matapan","cpp_line_no_5":null,"cpp_line_no_3":null,"latitude":-14.222,"cpp_line_no_4":null,"community":"Merrepen","objectid":55,"longitude":129.966}},{"geometry":{"type":"Point","coordinates":[130.6741800000001,-11.421666999999957],"crs":null},"id":56,"type":"Feature","properties":{"no_of_phones":4,"cpp_line_no_1":"08 8970 9349","cpp_line_no_2":"08 8970 9350","alternative_name":"Melville Island, Snake Bay","cpp_line_no_5":null,"cpp_line_no_3":"08 8970 9351","latitude":-11.421667,"cpp_line_no_4":"08 8970 9353","community":"Milikapiti","objectid":56,"longitude":130.67418}},{"geometry":{"type":"Point","coordinates":[134.1780000000001,-13.531999999999982],"crs":null},"id":57,"type":"Feature","properties":{"no_of_phones":1,"cpp_line_no_1":"08 8975 4894","cpp_line_no_2":null,"alternative_name":"Gillen Bore, Gillens Bore","cpp_line_no_5":null,"cpp_line_no_3":null,"latitude":-13.532,"cpp_line_no_4":null,"community":"Mount Jean","objectid":57,"longitude":134.178}},{"geometry":{"type":"Point","coordinates":[134.20940000000007,-22.451299999999947],"crs":null},"id":58,"type":"Feature","properties":{"no_of_phones":1,"cpp_line_no_1":"08 8956 9031","cpp_line_no_2":null,"alternative_name":"Mulga Bore Station, Atartinga","cpp_line_no_5":null,"cpp_line_no_3":null,"latitude":-22.4513,"cpp_line_no_4":null,"community":"Mulga Bore","objectid":58,"longitude":134.2094}},{"geometry":{"type":"Point","coordinates":[134.1984000000001,-20.336999999999932],"crs":null},"id":59,"type":"Feature","properties":{"no_of_phones":1,"cpp_line_no_1":"08 8964 1634","cpp_line_no_2":null,"alternative_name":"Mungarta, McLaren Creek","cpp_line_no_5":null,"cpp_line_no_3":null,"latitude":-20.337,"cpp_line_no_4":null,"community":"Mungkarta","objectid":59,"longitude":134.1984}},{"geometry":{"type":"Point","coordinates":[134.18280000000004,-19.64769999999993],"crs":null},"id":60,"type":"Feature","properties":{"no_of_phones":1,"cpp_line_no_1":"08 8962 3974","cpp_line_no_2":null,"alternative_name":"Blueberry Hill","cpp_line_no_5":null,"cpp_line_no_3":null,"latitude":-19.6477,"cpp_line_no_4":null,"community":"Muntji-Mala","objectid":60,"longitude":134.1828}},{"geometry":{"type":"Point","coordinates":[130.00200000000007,-14.241999999999962],"crs":null},"id":61,"type":"Feature","properties":{"no_of_phones":1,"cpp_line_no_1":"08 8978 2404","cpp_line_no_2":null,"alternative_name":null,"cpp_line_no_5":null,"cpp_line_no_3":null,"latitude":-14.242,"cpp_line_no_4":null,"community":"Nemarluk","objectid":61,"longitude":130.002}},{"geometry":{"type":"Point","coordinates":[134.1930000000001,-19.634999999999934],"crs":null},"id":62,"type":"Feature","properties":{"no_of_phones":1,"cpp_line_no_1":"08 8962 3986","cpp_line_no_2":null,"alternative_name":"Mulga Camp","cpp_line_no_5":null,"cpp_line_no_3":null,"latitude":-19.635,"cpp_line_no_4":null,"community":"Ngalpa Ngalpa","objectid":62,"longitude":134.193}},{"geometry":{"type":"Point","coordinates":[131.8796000000001,-23.46449999999993],"crs":null},"id":63,"type":"Feature","properties":{"no_of_phones":1,"cpp_line_no_1":"08 8956 8819","cpp_line_no_2":null,"alternative_name":"Nganrritja","cpp_line_no_5":null,"cpp_line_no_3":null,"latitude":-23.4645,"cpp_line_no_4":null,"community":"Ngankiritja Outstation","objectid":63,"longitude":131.8796}},{"geometry":{"type":"Point","coordinates":[133.26100000000008,-22.124999999999943],"crs":null},"id":64,"type":"Feature","properties":{"no_of_phones":2,"cpp_line_no_1":"08 8956 9473","cpp_line_no_2":"08 8956 9562","alternative_name":"Ti Tree Station, Anmatjere","cpp_line_no_5":null,"cpp_line_no_3":null,"latitude":-22.125,"cpp_line_no_4":null,"community":"Nturiya","objectid":64,"longitude":133.261}},{"geometry":{"type":"Point","coordinates":[130.55000000000007,-22.652799999999957],"crs":null},"id":65,"type":"Feature","properties":{"no_of_phones":3,"cpp_line_no_1":"08 8964 7042","cpp_line_no_2":"08 8964 7170","alternative_name":null,"cpp_line_no_5":null,"cpp_line_no_3":"08 8964 7173","latitude":-22.6528,"cpp_line_no_4":null,"community":"Nyirripi CP-14","objectid":65,"longitude":130.55}},{"geometry":{"type":"Point","coordinates":[129.49800000000005,-14.129399999999976],"crs":null},"id":66,"type":"Feature","properties":{"no_of_phones":1,"cpp_line_no_1":"08 8978 1235","cpp_line_no_2":null,"alternative_name":null,"cpp_line_no_5":null,"cpp_line_no_3":null,"latitude":-14.1294,"cpp_line_no_4":null,"community":"Old Mission","objectid":66,"longitude":129.498}},{"geometry":{"type":"Point","coordinates":[130.64300000000003,-11.748099999999965],"crs":null},"id":67,"type":"Feature","properties":{"no_of_phones":1,"cpp_line_no_1":"08 8970 9074","cpp_line_no_2":null,"alternative_name":null,"cpp_line_no_5":null,"cpp_line_no_3":null,"latitude":-11.7481,"cpp_line_no_4":null,"community":"Paru","objectid":67,"longitude":130.643}},{"geometry":{"type":"Point","coordinates":[132.37800000000004,-22.561099999999954],"crs":null},"id":68,"type":"Feature","properties":{"no_of_phones":1,"cpp_line_no_1":"08 8964 7174","cpp_line_no_2":null,"alternative_name":"Puldari","cpp_line_no_5":null,"cpp_line_no_3":null,"latitude":-22.5611,"cpp_line_no_4":null,"community":"Pulardi","objectid":68,"longitude":132.378}},{"geometry":{"type":"Point","coordinates":[134.37330000000009,-24.130699999999933],"crs":null},"id":69,"type":"Feature","properties":{"no_of_phones":3,"cpp_line_no_1":"08 8956 0408","cpp_line_no_2":"08 8956 0426","alternative_name":null,"cpp_line_no_5":null,"cpp_line_no_3":"08 8956 0998","latitude":-24.1307,"cpp_line_no_4":null,"community":"Santa Teresa","objectid":69,"longitude":134.3733}},{"geometry":{"type":"Point","coordinates":[133.91500000000008,-23.158999999999935],"crs":null},"id":70,"type":"Feature","properties":{"no_of_phones":1,"cpp_line_no_1":"08 8956 9058","cpp_line_no_2":null,"alternative_name":"Alkngirrweltye","cpp_line_no_5":null,"cpp_line_no_3":null,"latitude":-23.159,"cpp_line_no_4":null,"community":"Snake Well","objectid":70,"longitude":133.915}},{"geometry":{"type":"Point","coordinates":[133.9960000000001,-21.505999999999972],"crs":null},"id":71,"type":"Feature","properties":{"no_of_phones":1,"cpp_line_no_1":"08 8956 9648","cpp_line_no_2":null,"alternative_name":null,"cpp_line_no_5":null,"cpp_line_no_3":null,"latitude":-21.506,"cpp_line_no_4":null,"community":"Tara CP-14","objectid":71,"longitude":133.996}},{"geometry":{"type":"Point","coordinates":[130.711,-11.607999999999947],"crs":null},"id":72,"type":"Feature","properties":{"no_of_phones":1,"cpp_line_no_1":"08 8970 9361","cpp_line_no_2":null,"alternative_name":"Taracumbi, Tarintipi, Tarrcumbi, Turacumbi, Melville Island","cpp_line_no_5":null,"cpp_line_no_3":null,"latitude":-11.608,"cpp_line_no_4":null,"community":"Taracumbie","objectid":72,"longitude":130.711}},{"geometry":{"type":"Point","coordinates":[133.41600000000005,-22.131899999999973],"crs":null},"id":73,"type":"Feature","properties":{"no_of_phones":2,"cpp_line_no_1":"08 8956 9682","cpp_line_no_2":"08 8956 9683","alternative_name":"Pmara Jutunta, Six Mile","cpp_line_no_5":null,"cpp_line_no_3":null,"latitude":-22.1319,"cpp_line_no_4":null,"community":"Ti Tree","objectid":73,"longitude":133.416}},{"geometry":{"type":"Point","coordinates":[134.2020000000001,-19.636999999999944],"crs":null},"id":74,"type":"Feature","properties":{"no_of_phones":1,"cpp_line_no_1":"08 8962 2869","cpp_line_no_2":null,"alternative_name":"Tingkarli","cpp_line_no_5":null,"cpp_line_no_3":null,"latitude":-19.637,"cpp_line_no_4":null,"community":"Tingkkarli","objectid":74,"longitude":134.202}},{"geometry":{"type":"Point","coordinates":[132.67100000000005,-23.88779999999997],"crs":null},"id":75,"type":"Feature","properties":{"no_of_phones":1,"cpp_line_no_1":"08 8954 9173","cpp_line_no_2":null,"alternative_name":"Tnjimiputa, Tnyimipirta, Tnyimiputa, Tnyimpirta","cpp_line_no_5":null,"cpp_line_no_3":null,"latitude":-23.8878,"cpp_line_no_4":null,"community":"Tnyimipurita","objectid":75,"longitude":132.671}},{"geometry":{"type":"Point","coordinates":[134.59270000000004,-22.19429999999994],"crs":null},"id":76,"type":"Feature","properties":{"no_of_phones":1,"cpp_line_no_1":"08 8956 9061","cpp_line_no_2":null,"alternative_name":"Prrawan","cpp_line_no_5":null,"cpp_line_no_3":null,"latitude":-22.1943,"cpp_line_no_4":null,"community":"Tommy Hawk Swamp","objectid":76,"longitude":134.5927}},{"geometry":{"type":"Point","coordinates":[133.68600000000004,-23.745799999999974],"crs":null},"id":77,"type":"Feature","properties":{"no_of_phones":1,"cpp_line_no_1":"08 8955 0396","cpp_line_no_2":null,"alternative_name":"Twenpe","cpp_line_no_5":null,"cpp_line_no_3":null,"latitude":-23.7458,"cpp_line_no_4":null,"community":"Tywenpe C","objectid":77,"longitude":133.686}},{"geometry":{"type":"Point","coordinates":[132.37300000000005,-24.589999999999975],"crs":null},"id":78,"type":"Feature","properties":{"no_of_phones":2,"cpp_line_no_1":"08 8955 8321","cpp_line_no_2":"08 8955 8324","alternative_name":null,"cpp_line_no_5":null,"cpp_line_no_3":null,"latitude":-24.59,"cpp_line_no_4":null,"community":"Ukaka","objectid":78,"longitude":132.373}},{"geometry":{"type":"Point","coordinates":[132.10529000000008,-23.759179999999958],"crs":null},"id":79,"type":"Feature","properties":{"no_of_phones":1,"cpp_line_no_1":"08 8956 7768","cpp_line_no_2":null,"alternative_name":"Undarana, Underanna                                                              ","cpp_line_no_5":null,"cpp_line_no_3":null,"latitude":-23.75918,"cpp_line_no_4":null,"community":"Undarana 2A","objectid":79,"longitude":132.10529}},{"geometry":{"type":"Point","coordinates":[129.8520000000001,-14.214999999999975],"crs":null},"id":80,"type":"Feature","properties":{"no_of_phones":1,"cpp_line_no_1":"08 8978 1271","cpp_line_no_2":null,"alternative_name":"Wudapuli ,Wudupul, Wudupulli,","cpp_line_no_5":null,"cpp_line_no_3":null,"latitude":-14.215,"cpp_line_no_4":null,"community":"Wadapuli","objectid":80,"longitude":129.852}},{"geometry":{"type":"Point","coordinates":[133.08630000000005,-24.124499999999955],"crs":null},"id":81,"type":"Feature","properties":{"no_of_phones":1,"cpp_line_no_1":"08 8955 8319","cpp_line_no_2":null,"alternative_name":null,"cpp_line_no_5":null,"cpp_line_no_3":null,"latitude":-24.1245,"cpp_line_no_4":null,"community":"Wallace Rockhole","objectid":81,"longitude":133.0863}},{"geometry":{"type":"Point","coordinates":[129.38300000000004,-23.274999999999977],"crs":null},"id":82,"type":"Feature","properties":{"no_of_phones":5,"cpp_line_no_1":"08 8956 4938","cpp_line_no_2":"08 8956 8551","alternative_name":"Kintore, Wulungurru","cpp_line_no_5":"08 8964 7034","cpp_line_no_3":"08 8964 7031","latitude":-23.275,"cpp_line_no_4":"08 8964 7032","community":"Walungurru CP-14","objectid":82,"longitude":129.383}},{"geometry":{"type":"Point","coordinates":[135.192,-22.022179999999935],"crs":null},"id":83,"type":"Feature","properties":{"no_of_phones":1,"cpp_line_no_1":"08 8956 9059","cpp_line_no_2":"08 8956 9518","alternative_name":"Derry Downs, Perety","cpp_line_no_5":null,"cpp_line_no_3":null,"latitude":-22.02218,"cpp_line_no_4":null,"community":"Welere","objectid":83,"longitude":135.192}},{"geometry":{"type":"Point","coordinates":[132.615,-21.249999999999943],"crs":null},"id":84,"type":"Feature","properties":{"no_of_phones":1,"cpp_line_no_1":"08 8964 7175","cpp_line_no_2":null,"alternative_name":" Wirliyajarrayi","cpp_line_no_5":null,"cpp_line_no_3":null,"latitude":-21.25,"cpp_line_no_4":null,"community":"Willowra CP-14","objectid":84,"longitude":132.615}},{"geometry":{"type":"Point","coordinates":[133.73000000000002,-21.739999999999952],"crs":null},"id":85,"type":"Feature","properties":{"no_of_phones":2,"cpp_line_no_1":"08 8956 9431","cpp_line_no_2":null,"alternative_name":null,"cpp_line_no_5":null,"cpp_line_no_3":null,"latitude":-21.74,"cpp_line_no_4":null,"community":"Wilora","objectid":85,"longitude":133.73}},{"geometry":{"type":"Point","coordinates":[134.19900000000007,-19.636999999999944],"crs":null},"id":86,"type":"Feature","properties":{"no_of_phones":1,"cpp_line_no_1":"08 8962 3960","cpp_line_no_2":null,"alternative_name":null,"cpp_line_no_5":null,"cpp_line_no_3":null,"latitude":-19.637,"cpp_line_no_4":null,"community":"Wuppa","objectid":86,"longitude":134.199}},{"geometry":{"type":"Point","coordinates":[130.2700000000001,-11.61669999999998],"crs":null},"id":87,"type":"Feature","properties":{"no_of_phones":1,"cpp_line_no_1":"08 8970 9367","cpp_line_no_2":null,"alternative_name":"Bathurst Island","cpp_line_no_5":null,"cpp_line_no_3":null,"latitude":-11.6167,"cpp_line_no_4":null,"community":"Wurankuwu","objectid":87,"longitude":130.27}},{"geometry":{"type":"Point","coordinates":[135.2500000000001,-20.449999999999932],"crs":null},"id":88,"type":"Feature","properties":{"no_of_phones":1,"cpp_line_no_1":"08 8964 1635","cpp_line_no_2":null,"alternative_name":"Epenara","cpp_line_no_5":null,"cpp_line_no_3":null,"latitude":-20.45,"cpp_line_no_4":null,"community":"Wutunugurra CP-14","objectid":88,"longitude":135.25}},{"geometry":{"type":"Point","coordinates":[136.02600000000007,-11.643999999999949],"crs":null},"id":89,"type":"Feature","properties":{"no_of_phones":1,"cpp_line_no_1":"08 8970 4903","cpp_line_no_2":null,"alternative_name":"Drysdale Island","cpp_line_no_5":null,"cpp_line_no_3":null,"latitude":-11.644,"cpp_line_no_4":null,"community":"Yirringa (not currently connected)","objectid":89,"longitude":136.026}},{"geometry":{"type":"Point","coordinates":[132.2070000000001,-22.258299999999963],"crs":null},"id":90,"type":"Feature","properties":{"no_of_phones":2,"cpp_line_no_1":"08 8964 7145","cpp_line_no_2":"08 8964 7146","alternative_name":"Mount Allan","cpp_line_no_5":null,"cpp_line_no_3":null,"latitude":-22.2583,"cpp_line_no_4":null,"community":"Yuelamu CP-14","objectid":90,"longitude":132.207}},{"geometry":{"type":"Point","coordinates":[131.79700000000003,-22.258299999999963],"crs":null},"id":91,"type":"Feature","properties":{"no_of_phones":4,"cpp_line_no_1":"08 8956 4226","cpp_line_no_2":"08 8956 4236","alternative_name":null,"cpp_line_no_5":null,"cpp_line_no_3":"08 8956 4246","latitude":-22.2583,"cpp_line_no_4":"08 8956 4249","community":"Yuendumu","objectid":91,"longitude":131.797}},{"geometry":{"type":"Point","coordinates":[133.75116000000003,-32.085699999999974],"crs":null},"id":92,"type":"Feature","properties":{"no_of_phones":1,"cpp_line_no_1":"08 8625 3571","cpp_line_no_2":null,"alternative_name":null,"cpp_line_no_5":null,"cpp_line_no_3":null,"latitude":-32.0857,"cpp_line_no_4":null,"community":"Koongawa Dundey","objectid":92,"longitude":133.75116}},{"geometry":{"type":"Point","coordinates":[133.61944000000005,-32.08964999999995],"crs":null},"id":93,"type":"Feature","properties":{"no_of_phones":1,"cpp_line_no_1":"08 8625 3835","cpp_line_no_2":null,"alternative_name":null,"cpp_line_no_5":null,"cpp_line_no_3":null,"latitude":-32.08965,"cpp_line_no_4":null,"community":"Betts Corner","objectid":93,"longitude":133.61944}},{"geometry":{"type":"Point","coordinates":[127.98700000000008,-20.14859999999993],"crs":null},"id":94,"type":"Feature","properties":{"no_of_phones":5,"cpp_line_no_1":"08 9168 8459","cpp_line_no_2":"08 9168 8461","alternative_name":"Wirrimanu, Boi","cpp_line_no_5":"08 9168 8465","cpp_line_no_3":"08 9168 8462","latitude":-20.1486,"cpp_line_no_4":"08 9168 8463","community":"Balgo","objectid":94,"longitude":127.987}},{"geometry":{"type":"Point","coordinates":[122.58900000000006,-16.97679999999997],"crs":null},"id":95,"type":"Feature","properties":{"no_of_phones":1,"cpp_line_no_1":"08 9192 4672","cpp_line_no_2":null,"alternative_name":"Burrguk","cpp_line_no_5":null,"cpp_line_no_3":null,"latitude":-16.9768,"cpp_line_no_4":null,"community":"Banana Wells","objectid":95,"longitude":122.589}},{"geometry":{"type":"Point","coordinates":[123.06081000000006,-16.446099999999944],"crs":null},"id":96,"type":"Feature","properties":{"no_of_phones":3,"cpp_line_no_1":"08 9192 4381","cpp_line_no_2":"08 9192 4394","alternative_name":"One Arm Point,  Ardyaloon","cpp_line_no_5":null,"cpp_line_no_3":"08 9192 4396","latitude":-16.4461,"cpp_line_no_4":null,"community":"Bardi","objectid":96,"longitude":123.06081}},{"geometry":{"type":"Point","coordinates":[122.66300000000001,-16.985799999999927],"crs":null},"id":97,"type":"Feature","properties":{"no_of_phones":2,"cpp_line_no_1":"08 9192 4579","cpp_line_no_2":"08 9192 4586","alternative_name":"Billard","cpp_line_no_5":null,"cpp_line_no_3":null,"latitude":-16.9858,"cpp_line_no_4":null,"community":"Beagle Bay","objectid":97,"longitude":122.663}},{"geometry":{"type":"Point","coordinates":[121.77700000000004,-18.685599999999965],"crs":null},"id":98,"type":"Feature","properties":{"no_of_phones":5,"cpp_line_no_1":"08 9192 4587","cpp_line_no_2":"08 9192 4605","alternative_name":"La Grange","cpp_line_no_5":"08 9192 4610","cpp_line_no_3":"08 9192 4607","latitude":-18.6856,"cpp_line_no_4":"08 9192 4609","community":"Bidyadanga","objectid":98,"longitude":121.777}},{"geometry":{"type":"Point","coordinates":[122.6350000000001,-16.97679999999997],"crs":null},"id":99,"type":"Feature","properties":{"no_of_phones":1,"cpp_line_no_1":"08 9192 4613","cpp_line_no_2":null,"alternative_name":null,"cpp_line_no_5":null,"cpp_line_no_3":null,"latitude":-16.9768,"cpp_line_no_4":null,"community":"Bobieding","objectid":99,"longitude":122.635}},{"geometry":{"type":"Point","coordinates":[122.24500000000012,-17.948999999999955],"crs":null},"id":100,"type":"Feature","properties":{"no_of_phones":1,"cpp_line_no_1":"08 9193 7528","cpp_line_no_2":null,"alternative_name":"Morgans Camp","cpp_line_no_5":null,"cpp_line_no_3":null,"latitude":-17.949,"cpp_line_no_4":null,"community":"Budgargoon","objectid":100,"longitude":122.245}},{"geometry":{"type":"Point","coordinates":[122.99800000000005,-16.39719999999994],"crs":null},"id":101,"type":"Feature","properties":{"no_of_phones":1,"cpp_line_no_1":"08 9192 4479","cpp_line_no_2":null,"alternative_name":null,"cpp_line_no_5":null,"cpp_line_no_3":null,"latitude":-16.3972,"cpp_line_no_4":null,"community":"Bulgin","objectid":101,"longitude":122.998}},{"geometry":{"type":"Point","coordinates":[122.9969000000001,-16.524999999999977],"crs":null},"id":102,"type":"Feature","properties":{"no_of_phones":1,"cpp_line_no_1":"08 9192 4359","cpp_line_no_2":null,"alternative_name":"Bynyung","cpp_line_no_5":null,"cpp_line_no_3":null,"latitude":-16.525,"cpp_line_no_4":null,"community":"Bygnunn Djoodoon","objectid":102,"longitude":122.9969}},{"geometry":{"type":"Point","coordinates":[122.87350000000004,-16.532299999999964],"crs":null},"id":103,"type":"Feature","properties":{"no_of_phones":1,"cpp_line_no_1":"08 9192 4372","cpp_line_no_2":null,"alternative_name":"Chili Creek, Chile Creek","cpp_line_no_5":null,"cpp_line_no_3":null,"latitude":-16.5323,"cpp_line_no_4":null,"community":"Chilli Creek","objectid":103,"longitude":122.8735}},{"geometry":{"type":"Point","coordinates":[128.9520000000001,-15.94599999999997],"crs":null},"id":104,"type":"Feature","properties":{"no_of_phones":1,"cpp_line_no_1":"08 9167 8315","cpp_line_no_2":null,"alternative_name":"Cockatoo Springs","cpp_line_no_5":null,"cpp_line_no_3":null,"latitude":-15.946,"cpp_line_no_4":null,"community":"Cockatoo Springs","objectid":104,"longitude":128.952}},{"geometry":{"type":"Point","coordinates":[128.139,-16.644199999999955],"crs":null},"id":105,"type":"Feature","properties":{"no_of_phones":1,"cpp_line_no_1":"08 9167 8308","cpp_line_no_2":null,"alternative_name":"Rugan","cpp_line_no_5":null,"cpp_line_no_3":null,"latitude":-16.6442,"cpp_line_no_4":null,"community":"Crocodile Hole","objectid":105,"longitude":128.139}},{"geometry":{"type":"Point","coordinates":[122.96600000000001,-16.563099999999963],"crs":null},"id":106,"type":"Feature","properties":{"no_of_phones":1,"cpp_line_no_1":"08 9192 4385","cpp_line_no_2":null,"alternative_name":null,"cpp_line_no_5":null,"cpp_line_no_3":null,"latitude":-16.5631,"cpp_line_no_4":null,"community":"Djaradjung","objectid":106,"longitude":122.966}},{"geometry":{"type":"Point","coordinates":[122.89300000000003,-16.51649999999995],"crs":null},"id":107,"type":"Feature","properties":{"no_of_phones":5,"cpp_line_no_1":"08 9192 4423","cpp_line_no_2":"08 9192 4426","alternative_name":"Lombadina","cpp_line_no_5":"08 9192 4438","cpp_line_no_3":"08 9192 4436","latitude":-16.5165,"cpp_line_no_4":"08 9192 4437","community":"Djarindjin","objectid":107,"longitude":122.893}},{"geometry":{"type":"Point","coordinates":[128.79200000000003,-15.817099999999982],"crs":null},"id":108,"type":"Feature","properties":{"no_of_phones":1,"cpp_line_no_1":"08 9169 2957","cpp_line_no_2":null,"alternative_name":"Gulgagulganeng","cpp_line_no_5":null,"cpp_line_no_3":null,"latitude":-15.8171,"cpp_line_no_4":null,"community":"Emu Creek","objectid":108,"longitude":128.792}},{"geometry":{"type":"Point","coordinates":[127.60540000000003,-18.299499999999966],"crs":null},"id":109,"type":"Feature","properties":{"no_of_phones":1,"cpp_line_no_1":"08 9168 5905","cpp_line_no_2":null,"alternative_name":"Barangga","cpp_line_no_5":null,"cpp_line_no_3":null,"latitude":-18.2995,"cpp_line_no_4":null,"community":"Flywell","objectid":109,"longitude":127.6054}},{"geometry":{"type":"Point","coordinates":[128.05000000000007,-17.276899999999955],"crs":null},"id":110,"type":"Feature","properties":{"no_of_phones":1,"cpp_line_no_1":"08 9167 8310","cpp_line_no_2":null,"alternative_name":"Wurrenranginy, Yiyiwareny, Kaiyiyiewarreny","cpp_line_no_5":null,"cpp_line_no_3":null,"latitude":-17.2769,"cpp_line_no_4":null,"community":"Frog Hollow","objectid":110,"longitude":128.05}},{"geometry":{"type":"Point","coordinates":[128.3560000000001,-16.54579999999993],"crs":null},"id":111,"type":"Feature","properties":{"no_of_phones":2,"cpp_line_no_1":"08 9167 8312","cpp_line_no_2":"08 9167 8314","alternative_name":"Mandangala","cpp_line_no_5":null,"cpp_line_no_3":null,"latitude":-16.5458,"cpp_line_no_4":null,"community":"Glen Hill","objectid":111,"longitude":128.356}},{"geometry":{"type":"Point","coordinates":[128.19230000000005,-15.533599999999979],"crs":null},"id":112,"type":"Feature","properties":{"no_of_phones":1,"cpp_line_no_1":"08 9161 1904","cpp_line_no_2":null,"alternative_name":"Nine Mile","cpp_line_no_5":null,"cpp_line_no_3":null,"latitude":-15.5336,"cpp_line_no_4":null,"community":"Guda Guda","objectid":112,"longitude":128.1923}},{"geometry":{"type":"Point","coordinates":[123.13300000000004,-16.70789999999994],"crs":null},"id":113,"type":"Feature","properties":{"no_of_phones":1,"cpp_line_no_1":"08 9192 4627","cpp_line_no_2":null,"alternative_name":null,"cpp_line_no_5":null,"cpp_line_no_3":null,"latitude":-16.7079,"cpp_line_no_4":null,"community":"Gudumul","objectid":113,"longitude":123.133}},{"geometry":{"type":"Point","coordinates":[123.02280000000007,-16.397899999999936],"crs":null},"id":114,"type":"Feature","properties":{"no_of_phones":1,"cpp_line_no_1":"08 9192 4416","cpp_line_no_2":null,"alternative_name":null,"cpp_line_no_5":null,"cpp_line_no_3":null,"latitude":-16.3979,"cpp_line_no_4":null,"community":"Gullaweed","objectid":114,"longitude":123.0228}},{"geometry":{"type":"Point","coordinates":[128.8520000000001,-15.86469999999997],"crs":null},"id":115,"type":"Feature","properties":{"no_of_phones":1,"cpp_line_no_1":"08 9167 8325","cpp_line_no_2":null,"alternative_name":"Woolerrgerbeleng","cpp_line_no_5":null,"cpp_line_no_3":null,"latitude":-15.8647,"cpp_line_no_4":null,"community":"Hollow Springs","objectid":115,"longitude":128.852}},{"geometry":{"type":"Point","coordinates":[126.68000000000006,-14.103999999999928],"crs":null},"id":116,"type":"Feature","properties":{"no_of_phones":1,"cpp_line_no_1":"08 9161 4676","cpp_line_no_2":null,"alternative_name":null,"cpp_line_no_5":null,"cpp_line_no_3":null,"latitude":-14.104,"cpp_line_no_4":null,"community":"Honeymoon Beach","objectid":116,"longitude":126.68}},{"geometry":{"type":"Point","coordinates":[122.37170000000003,-17.19259999999997],"crs":null},"id":117,"type":"Feature","properties":{"no_of_phones":1,"cpp_line_no_1":"08 9192 4615","cpp_line_no_2":null,"alternative_name":" Jabirr Jabirr","cpp_line_no_5":null,"cpp_line_no_3":null,"latitude":-17.1926,"cpp_line_no_4":null,"community":"Jabir Jabir","objectid":117,"longitude":122.3717}},{"geometry":{"type":"Point","coordinates":[128.70100000000002,-15.872999999999934],"crs":null},"id":118,"type":"Feature","properties":{"no_of_phones":1,"cpp_line_no_1":"08 9169 2961","cpp_line_no_2":null,"alternative_name":null,"cpp_line_no_5":null,"cpp_line_no_3":null,"latitude":-15.873,"cpp_line_no_4":null,"community":"Jimbilum","objectid":118,"longitude":128.701}},{"geometry":{"type":"Point","coordinates":[126.64100000000008,-14.296899999999937],"crs":null},"id":119,"type":"Feature","properties":{"no_of_phones":2,"cpp_line_no_1":"08 9161 4621","cpp_line_no_2":"08 9161 4623","alternative_name":null,"cpp_line_no_5":null,"cpp_line_no_3":null,"latitude":-14.2969,"cpp_line_no_4":null,"community":"Kalumburu","objectid":119,"longitude":126.641}},{"geometry":{"type":"Point","coordinates":[127.53600000000006,-18.33919999999995],"crs":null},"id":120,"type":"Feature","properties":{"no_of_phones":2,"cpp_line_no_1":"08 9168 5950","cpp_line_no_2":"08 9168 5951","alternative_name":"Koorgie","cpp_line_no_5":null,"cpp_line_no_3":null,"latitude":-18.3392,"cpp_line_no_4":null,"community":"Koongie Park","objectid":120,"longitude":127.536}},{"geometry":{"type":"Point","coordinates":[128.61300000000006,-18.797499999999957],"crs":null},"id":121,"type":"Feature","properties":{"no_of_phones":3,"cpp_line_no_1":"08 9168 8452","cpp_line_no_2":"08 9168 8453","alternative_name":"Ringer Soak","cpp_line_no_5":null,"cpp_line_no_3":"08 9168 8454","latitude":-18.7975,"cpp_line_no_4":null,"community":"Kundat Djaru CP-14","objectid":121,"longitude":128.613}},{"geometry":{"type":"Point","coordinates":[123.15000000000009,-16.88239999999996],"crs":null},"id":122,"type":"Feature","properties":{"no_of_phones":1,"cpp_line_no_1":"08 9192 4617","cpp_line_no_2":null,"alternative_name":null,"cpp_line_no_5":null,"cpp_line_no_3":null,"latitude":-16.8824,"cpp_line_no_4":null,"community":"La Djardarr Bay","objectid":122,"longitude":123.15}},{"geometry":{"type":"Point","coordinates":[127.35034000000007,-18.46291999999994],"crs":null},"id":123,"type":"Feature","properties":{"no_of_phones":1,"cpp_line_no_1":"08 9168 8456","cpp_line_no_2":null,"alternative_name":"Birndirdie","cpp_line_no_5":null,"cpp_line_no_3":null,"latitude":-18.46292,"cpp_line_no_4":null,"community":"Lamboo Station","objectid":123,"longitude":127.35034}},{"geometry":{"type":"Point","coordinates":[127.8950000000001,-18.40689999999995],"crs":null},"id":124,"type":"Feature","properties":{"no_of_phones":1,"cpp_line_no_1":"08 9168 5903","cpp_line_no_2":null,"alternative_name":null,"cpp_line_no_5":null,"cpp_line_no_3":null,"latitude":-18.4069,"cpp_line_no_4":null,"community":"Linga","objectid":124,"longitude":127.895}},{"geometry":{"type":"Point","coordinates":[122.8900000000001,-16.51699999999994],"crs":null},"id":125,"type":"Feature","properties":{"no_of_phones":1,"cpp_line_no_1":"08 9192 4468","cpp_line_no_2":null,"alternative_name":"Djarindjin","cpp_line_no_5":null,"cpp_line_no_3":null,"latitude":-16.517,"cpp_line_no_4":null,"community":"Lombadina","objectid":125,"longitude":122.89}},{"geometry":{"type":"Point","coordinates":[122.83690000000001,-16.57409999999993],"crs":null},"id":126,"type":"Feature","properties":{"no_of_phones":1,"cpp_line_no_1":"08 9192 4390","cpp_line_no_2":null,"alternative_name":null,"cpp_line_no_5":null,"cpp_line_no_3":null,"latitude":-16.5741,"cpp_line_no_4":null,"community":"Loumard","objectid":126,"longitude":122.8369}},{"geometry":{"type":"Point","coordinates":[127.66888000000006,-18.210309999999936],"crs":null},"id":127,"type":"Feature","properties":{"no_of_phones":1,"cpp_line_no_1":"08 9168 5893","cpp_line_no_2":null,"alternative_name":"Red Hill","cpp_line_no_5":null,"cpp_line_no_3":null,"latitude":-18.21031,"cpp_line_no_4":null,"community":"Lundja","objectid":127,"longitude":127.66888}},{"geometry":{"type":"Point","coordinates":[123.15740000000005,-16.819099999999935],"crs":null},"id":128,"type":"Feature","properties":{"no_of_phones":1,"cpp_line_no_1":"08 9192 4618","cpp_line_no_2":null,"alternative_name":"Good Enough Bay","cpp_line_no_5":null,"cpp_line_no_3":null,"latitude":-16.8191,"cpp_line_no_4":null,"community":"Maddarr","objectid":128,"longitude":123.1574}},{"geometry":{"type":"Point","coordinates":[127.6590000000001,-18.21459999999996],"crs":null},"id":129,"type":"Feature","properties":{"no_of_phones":3,"cpp_line_no_1":"08 9168 5908","cpp_line_no_2":"08 9168 5915","alternative_name":"Mardiwah","cpp_line_no_5":null,"cpp_line_no_3":"08 9168 5916","latitude":-18.2146,"cpp_line_no_4":null,"community":"Mardiwa Loop","objectid":129,"longitude":127.659}},{"geometry":{"type":"Point","coordinates":[122.58300000000008,-16.777999999999963],"crs":null},"id":130,"type":"Feature","properties":{"no_of_phones":1,"cpp_line_no_1":"08 9192 4415","cpp_line_no_2":null,"alternative_name":null,"cpp_line_no_5":null,"cpp_line_no_3":null,"latitude":-16.778,"cpp_line_no_4":null,"community":"Milargoon","objectid":130,"longitude":122.583}},{"geometry":{"type":"Point","coordinates":[128.73700000000008,-15.760399999999947],"crs":null},"id":131,"type":"Feature","properties":{"no_of_phones":5,"cpp_line_no_1":"08 9169 2843","cpp_line_no_2":"08 9169 2856","alternative_name":"Nooriginal","cpp_line_no_5":"08 9169 2876","cpp_line_no_3":"08 9169 2873","latitude":-15.7604,"cpp_line_no_4":"08 9169 2874","community":"Mirima","objectid":131,"longitude":128.737}},{"geometry":{"type":"Point","coordinates":[128.77100000000007,-15.879822249999961],"crs":null},"id":132,"type":"Feature","properties":{"no_of_phones":1,"cpp_line_no_1":"08 9169 2894","cpp_line_no_2":null,"alternative_name":"Ribinyung Dawang","cpp_line_no_5":null,"cpp_line_no_3":null,"latitude":-15.87982225,"cpp_line_no_4":null,"community":"Mud Springs","objectid":132,"longitude":128.771}},{"geometry":{"type":"Point","coordinates":[122.98300000000006,-16.527999999999963],"crs":null},"id":133,"type":"Feature","properties":{"no_of_phones":2,"cpp_line_no_1":"08 9192 4389","cpp_line_no_2":"08 9192 4506","alternative_name":"Gullun","cpp_line_no_5":null,"cpp_line_no_3":null,"latitude":-16.528,"cpp_line_no_4":null,"community":"Mudnunn","objectid":133,"longitude":122.983}},{"geometry":{"type":"Point","coordinates":[127.59300000000007,-20.10359999999997],"crs":null},"id":134,"type":"Feature","properties":{"no_of_phones":3,"cpp_line_no_1":"08 9168 8475","cpp_line_no_2":"08 9168 8476","alternative_name":"Lake Gregory","cpp_line_no_5":null,"cpp_line_no_3":"08 9168 8478","latitude":-20.1036,"cpp_line_no_4":null,"community":"Mulan","objectid":134,"longitude":127.593}},{"geometry":{"type":"Point","coordinates":[122.91600000000005,-16.448999999999955],"crs":null},"id":135,"type":"Feature","properties":{"no_of_phones":1,"cpp_line_no_1":"08 9192 4386","cpp_line_no_2":null,"alternative_name":"Ngamagkoon","cpp_line_no_5":null,"cpp_line_no_3":null,"latitude":-16.449,"cpp_line_no_4":null,"community":"Ngamakoon","objectid":135,"longitude":122.916}},{"geometry":{"type":"Point","coordinates":[122.66456000000005,-16.986719999999934],"crs":null},"id":136,"type":"Feature","properties":{"no_of_phones":1,"cpp_line_no_1":"08 9192 4873","cpp_line_no_2":null,"alternative_name":null,"cpp_line_no_5":null,"cpp_line_no_3":null,"latitude":-16.98672,"cpp_line_no_4":null,"community":"Ngarlan ","objectid":136,"longitude":122.66456}},{"geometry":{"type":"Point","coordinates":[127.67500000000007,-18.238099999999974],"crs":null},"id":137,"type":"Feature","properties":{"no_of_phones":1,"cpp_line_no_1":"08 9168 5907","cpp_line_no_2":null,"alternative_name":"Ngilinj , Anjaru","cpp_line_no_5":null,"cpp_line_no_3":null,"latitude":-18.2381,"cpp_line_no_4":null,"community":"Nicholson Block","objectid":137,"longitude":127.675}},{"geometry":{"type":"Point","coordinates":[122.98400000000004,-16.557099999999934],"crs":null},"id":138,"type":"Feature","properties":{"no_of_phones":1,"cpp_line_no_1":"08 9192 4502","cpp_line_no_2":null,"alternative_name":null,"cpp_line_no_5":null,"cpp_line_no_3":null,"latitude":-16.5571,"cpp_line_no_4":null,"community":"Nyumwah","objectid":138,"longitude":122.984}},{"geometry":{"type":"Point","coordinates":[122.55600000000004,-16.810899999999947],"crs":null},"id":139,"type":"Feature","properties":{"no_of_phones":1,"cpp_line_no_1":"08 9192 4623","cpp_line_no_2":null,"alternative_name":"Goombading","cpp_line_no_5":null,"cpp_line_no_3":null,"latitude":-16.8109,"cpp_line_no_4":null,"community":"Tappers Inlet","objectid":139,"longitude":122.556}},{"geometry":{"type":"Point","coordinates":[126.43330000000003,-17.19549999999998],"crs":null},"id":140,"type":"Feature","properties":{"no_of_phones":1,"cpp_line_no_1":"08 9191 7038","cpp_line_no_2":null,"alternative_name":null,"cpp_line_no_5":null,"cpp_line_no_3":null,"latitude":-17.1955,"cpp_line_no_4":null,"community":"Tirralintji","objectid":140,"longitude":126.4333}},{"geometry":null,"id":141,"type":"Feature","properties":{"no_of_phones":229,"cpp_line_no_1":null,"cpp_line_no_2":null,"alternative_name":null,"cpp_line_no_5":null,"cpp_line_no_3":null,"latitude":null,"cpp_line_no_4":null,"community":"TOTAL","objectid":141,"longitude":null}},{"geometry":{"type":"Point","coordinates":[128.01100000000008,-17.22189999999995],"crs":null},"id":142,"type":"Feature","properties":{"no_of_phones":1,"cpp_line_no_1":"08 9167 8725","cpp_line_no_2":null,"alternative_name":"Buaulu Wah","cpp_line_no_5":null,"cpp_line_no_3":null,"latitude":-17.2219,"cpp_line_no_4":null,"community":"Violet Valley","objectid":142,"longitude":128.011}},{"geometry":{"type":"Point","coordinates":[128.21184000000005,-17.031679999999938],"crs":null},"id":143,"type":"Feature","properties":{"no_of_phones":4,"cpp_line_no_1":"08 9167 8316","cpp_line_no_2":null,"alternative_name":"Turkey Creek, Warmum","cpp_line_no_5":null,"cpp_line_no_3":null,"latitude":-17.03168,"cpp_line_no_4":null,"community":"Warmun","objectid":143,"longitude":128.21184}},{"geometry":{"type":"Point","coordinates":[128.11900000000003,-15.480699999999956],"crs":null},"id":144,"type":"Feature","properties":{"no_of_phones":1,"cpp_line_no_1":"08 9161 1908","cpp_line_no_2":null,"alternative_name":"The Reserve","cpp_line_no_5":null,"cpp_line_no_3":null,"latitude":-15.4807,"cpp_line_no_4":null,"community":"Warrayu","objectid":144,"longitude":128.119}},{"geometry":{"type":"Point","coordinates":[128.24650000000008,-16.30639999999994],"crs":null},"id":145,"type":"Feature","properties":{"no_of_phones":1,"cpp_line_no_1":"08 9167 8327","cpp_line_no_2":null,"alternative_name":"Woolah","cpp_line_no_5":null,"cpp_line_no_3":null,"latitude":-16.3064,"cpp_line_no_4":null,"community":"Woolah Doon Doon","objectid":145,"longitude":128.2465}},{"geometry":{"type":"Point","coordinates":[128.3795,-15.954216999999971],"crs":null},"id":146,"type":"Feature","properties":{"no_of_phones":2,"cpp_line_no_1":"08 9167 8321","cpp_line_no_2":"08 9167 8324","alternative_name":"Wuggun","cpp_line_no_5":null,"cpp_line_no_3":null,"latitude":-15.954217,"cpp_line_no_4":null,"community":"Wuggunbun","objectid":146,"longitude":128.3795}},{"geometry":{"type":"Point","coordinates":[122.29171000000008,-17.96879999999993],"crs":null},"id":147,"type":"Feature","properties":{"no_of_phones":1,"cpp_line_no_1":"08 9192 8754","cpp_line_no_2":null,"alternative_name":"Wattle Downs","cpp_line_no_5":null,"cpp_line_no_3":null,"latitude":-17.9688,"cpp_line_no_4":null,"community":"Yawuru","objectid":147,"longitude":122.29171}}],"type":"FeatureCollection","properties":{"exceededTransferLimit":false}}