{"features":[{"geometry":{"type":"Point","coordinates":[131.9760000000001,-23.18599999999998],"crs":null},"id":1,"type":"Feature","properties":{"phone_no_":"08 8912 0600","community_name_":"Papunya (3 Mile Outstation)","state":"NT","objectid":1,"lat":-23.186,"long":131.976}},{"geometry":{"type":"Point","coordinates":[133.87400000000002,-24.392999999999972],"crs":null},"id":2,"type":"Feature","properties":{"phone_no_":"08 8912 0603","community_name_":"Mount Peachy","state":"NT","objectid":2,"lat":-24.393,"long":133.874}},{"geometry":{"type":"Point","coordinates":[131.98300000000006,-23.398999999999944],"crs":null},"id":3,"type":"Feature","properties":{"phone_no_":"08 8912 0605","community_name_":"Atji Creek","state":"NT","objectid":3,"lat":-23.399,"long":131.983}},{"geometry":{"type":"Point","coordinates":[131.3280000000001,-23.220999999999947],"crs":null},"id":4,"type":"Feature","properties":{"phone_no_":"08 8912 0606","community_name_":"New Bore","state":"NT","objectid":4,"lat":-23.221,"long":131.328}},{"geometry":{"type":"Point","coordinates":[132.48000000000002,-23.97199999999998],"crs":null},"id":5,"type":"Feature","properties":{"phone_no_":"08 8912 0604","community_name_":"Alkngarrija","state":"NT","objectid":5,"lat":-23.972,"long":132.48}},{"geometry":{"type":"Point","coordinates":[134.8270000000001,-23.075000000999978],"crs":null},"id":6,"type":"Feature","properties":{"phone_no_":"08 8912 0607","community_name_":"Foxalls Well - WP40","state":"NT","objectid":6,"lat":-23.075,"long":134.827}},{"geometry":{"type":"Point","coordinates":[134.216,-22.55700000099995],"crs":null},"id":7,"type":"Feature","properties":{"phone_no_":"08 8912 0608","community_name_":"Angula - WP40","state":"NT","objectid":7,"lat":-22.557,"long":134.216}},{"geometry":{"type":"Point","coordinates":[133.90100000000007,-21.512999999999977],"crs":null},"id":8,"type":"Feature","properties":{"phone_no_":"08 8933 9000","community_name_":"Jemelke","state":"NT","objectid":8,"lat":-21.513,"long":133.901}},{"geometry":{"type":"Point","coordinates":[134.75800000000004,-20.40600000099994],"crs":null},"id":9,"type":"Feature","properties":{"phone_no_":"08 8933 9002","community_name_":"Palpang (10 Mile Outstation) - WP40","state":"NT","objectid":9,"lat":-20.406,"long":134.758}},{"geometry":{"type":"Point","coordinates":[135.21300000000008,-20.845999999999947],"crs":null},"id":10,"type":"Feature","properties":{"phone_no_":"08 8933 9001","community_name_":"Hatchers Creek - WP40","state":"NT","objectid":10,"lat":-20.846,"long":135.213}},{"geometry":{"type":"Point","coordinates":[133.639,-18.764000000999943],"crs":null},"id":11,"type":"Feature","properties":{"phone_no_":"08 8933 9003","community_name_":"Kumunu","state":"NT","objectid":11,"lat":-18.764,"long":133.639}},{"geometry":{"type":"Point","coordinates":[133.74900000000002,-17.247000000999947],"crs":null},"id":12,"type":"Feature","properties":{"phone_no_":"08 8933 9004","community_name_":"Lilly Hole Creek","state":"NT","objectid":12,"lat":-17.247,"long":133.749}},{"geometry":{"type":"Point","coordinates":[132.18100000000004,-14.549999999999955],"crs":null},"id":13,"type":"Feature","properties":{"phone_no_":"08 8934 8000","community_name_":"Binjari Top Camp","state":"NT","objectid":13,"lat":-14.55,"long":132.181}},{"geometry":{"type":"Point","coordinates":[128.94000000000005,-15.896999999999935],"crs":null},"id":14,"type":"Feature","properties":{"phone_no_":"08 9118 6002","community_name_":"Kununurra (4 Mile)","state":"WA","objectid":14,"lat":-15.897,"long":128.94}},{"geometry":{"type":"Point","coordinates":[136.7260000000001,-13.918999999999926],"crs":null},"id":15,"type":"Feature","properties":{"phone_no_":"08 8934 9001","community_name_":"Salt Lake 1","state":"NT","objectid":15,"lat":-13.919,"long":136.726}},{"geometry":{"type":"Point","coordinates":[126.11700000000008,-18.75600000099996],"crs":null},"id":16,"type":"Feature","properties":{"phone_no_":"08 9118 3003","community_name_":"Bawoorooga","state":"WA","objectid":16,"lat":-18.756,"long":126.117}},{"geometry":{"type":"Point","coordinates":[135.56900000000007,-12.002999999999929],"crs":null},"id":17,"type":"Feature","properties":{"phone_no_":"08 8934 9000","community_name_":"Dhudupu - WP40","state":"NT","objectid":17,"lat":-12.003,"long":135.569}},{"geometry":{"type":"Point","coordinates":[123.1450000000001,-16.880000000999928],"crs":null},"id":18,"type":"Feature","properties":{"phone_no_":"08 9118 3005","community_name_":"Gubuli","state":"WA","objectid":18,"lat":-16.88,"long":123.145}},{"geometry":{"type":"Point","coordinates":[126.22300000000007,-19.38500000099998],"crs":null},"id":19,"type":"Feature","properties":{"phone_no_":"08 9118 3004","community_name_":"Ngarantjadu","state":"WA","objectid":19,"lat":-19.385,"long":126.223}},{"geometry":{"type":"Point","coordinates":[135.57400000000007,-11.993999999999971],"crs":null},"id":20,"type":"Feature","properties":{"phone_no_":"08 8934 9002","community_name_":"Ngayawilli - WP40","state":"NT","objectid":20,"lat":-11.994,"long":135.574}},{"geometry":{"type":"Point","coordinates":[128.93200000000002,-15.900999999999954],"crs":null},"id":21,"type":"Feature","properties":{"phone_no_":"08 9118 6001","community_name_":"Ngulwirriwirri (Currently Decommissioned)","state":"WA","objectid":21,"lat":-15.901,"long":128.932}},{"geometry":{"type":"Point","coordinates":[143.3710000000001,-14.18399999899998],"crs":null},"id":22,"type":"Feature","properties":{"phone_no_":"07 4222 2620","community_name_":"Kulpa","state":"QLD","objectid":22,"lat":-14.184,"long":143.371}},{"geometry":{"type":"Point","coordinates":[143.5490000000001,-13.97699999899993],"crs":null},"id":23,"type":"Feature","properties":{"phone_no_":"07 4222 2618","community_name_":"Silver Plain - WP40","state":"QLD","objectid":23,"lat":-13.977,"long":143.549}},{"geometry":{"type":"Point","coordinates":[143.663,-14.08299999899998],"crs":null},"id":24,"type":"Feature","properties":{"phone_no_":"07 4222 2613","community_name_":"Moojeeba - WP40","state":"QLD","objectid":24,"lat":-14.083,"long":143.663}},{"geometry":{"type":"Point","coordinates":[141.82600000000002,-12.03299999899997],"crs":null},"id":25,"type":"Feature","properties":{"phone_no_":"07 4222 2612","community_name_":"Mapoon","state":"QLD","objectid":25,"lat":-12.033,"long":141.826}},{"geometry":{"type":"Point","coordinates":[143.68400000000008,-14.065999998999928],"crs":null},"id":26,"type":"Feature","properties":{"phone_no_":"07 4222 2615","community_name_":"Theetinji - WP40","state":"QLD","objectid":26,"lat":-14.066,"long":143.684}},{"geometry":{"type":"Point","coordinates":[134.22900000000004,-24.880999999999972],"crs":null},"id":27,"type":"Feature","properties":{"phone_no_":"08 8912 0602","community_name_":"Alice Well","state":"NT","objectid":27,"lat":-24.881,"long":134.229}},{"geometry":{"type":"Point","coordinates":[134.12800000000004,-23.74600000099997],"crs":null},"id":28,"type":"Feature","properties":{"phone_no_":"08 8912 0610","community_name_":"Mount Undoolya","state":"NT","objectid":28,"lat":-23.746,"long":134.128}},{"geometry":{"type":"Point","coordinates":[134.89200000000005,-25.914000000999977],"crs":null},"id":29,"type":"Feature","properties":{"phone_no_":"08 8912 0609","community_name_":"Charlotte Waters","state":"NT","objectid":29,"lat":-25.914,"long":134.892}},{"geometry":{"type":"Point","coordinates":[133.67500000000007,-24.333999999999946],"crs":null},"id":30,"type":"Feature","properties":{"phone_no_":"08 8912 0613","community_name_":"Rainbow Valley","state":"NT","objectid":30,"lat":-24.334,"long":133.675}},{"geometry":{"type":"Point","coordinates":[132.3760000000001,-22.466999999999928],"crs":null},"id":31,"type":"Feature","properties":{"phone_no_":"08 8912 0614","community_name_":"Yuelamu (10 Mile)","state":"NT","objectid":31,"lat":-22.467,"long":132.376}},{"geometry":{"type":"Point","coordinates":[131.92000000000007,-22.261999999999944],"crs":null},"id":32,"type":"Feature","properties":{"phone_no_":"08 8912 0611","community_name_":"Dons Bore","state":"NT","objectid":32,"lat":-22.262,"long":131.92}},{"geometry":{"type":"Point","coordinates":[132.08100000000002,-22.130000000999928],"crs":null},"id":33,"type":"Feature","properties":{"phone_no_":"08 8912 0612","community_name_":"Mount Dennison","state":"NT","objectid":33,"lat":-22.13,"long":132.081}},{"geometry":{"type":"Point","coordinates":[134.47500000000002,-19.76499999999993],"crs":null},"id":34,"type":"Feature","properties":{"phone_no_":"08 8933 9006","community_name_":"Kurraya","state":"NT","objectid":34,"lat":-19.765,"long":134.475}},{"geometry":{"type":"Point","coordinates":[134.41800000000012,-19.503999999999962],"crs":null},"id":35,"type":"Feature","properties":{"phone_no_":"08 8933 9007","community_name_":"Putulki - WP40","state":"NT","objectid":35,"lat":-19.504,"long":134.418}},{"geometry":{"type":"Point","coordinates":[129.12300000000005,-24.929000000999963],"crs":null},"id":36,"type":"Feature","properties":{"phone_no_":"08 8912 0615","community_name_":"Amputjutu","state":"NT","objectid":36,"lat":-24.929,"long":129.123}},{"geometry":{"type":"Point","coordinates":[129.09800000000007,-24.929000000999963],"crs":null},"id":37,"type":"Feature","properties":{"phone_no_":"08 8912 0616","community_name_":"Eagle Valley","state":"NT","objectid":37,"lat":-24.929,"long":129.098}},{"geometry":{"type":"Point","coordinates":[129.23200000000008,-25.15700000099997],"crs":null},"id":38,"type":"Feature","properties":{"phone_no_":"08 8912 0617","community_name_":"Kunapula","state":"NT","objectid":38,"lat":-25.157,"long":129.232}},{"geometry":{"type":"Point","coordinates":[130.59500000000003,-11.777999998999974],"crs":null},"id":39,"type":"Feature","properties":{"phone_no_":"08 8919 4310","community_name_":"Nguiu - WP40 (4 Mile)","state":"NT","objectid":39,"lat":-11.778,"long":130.595}},{"geometry":{"type":"Point","coordinates":[130.59300000000007,-18.376999999999953],"crs":null},"id":40,"type":"Feature","properties":{"phone_no_":"08 9118 6004","community_name_":"Lul-Tju","state":"NT","objectid":40,"lat":-18.377,"long":130.593}},{"geometry":{"type":"Point","coordinates":[138.4090000000001,-30.817999999999984],"crs":null},"id":41,"type":"Feature","properties":{"phone_no_":"08 7603 6301","community_name_":"Kakalpurannha Homeland - WP40","state":"SA","objectid":41,"lat":-30.818,"long":138.409}},{"geometry":{"type":"Point","coordinates":[138.44000000000005,-30.366000000999975],"crs":null},"id":42,"type":"Feature","properties":{"phone_no_":"08 7603 6302","community_name_":"Leigh Creek Top Tank","state":"SA","objectid":42,"lat":-30.366,"long":138.44}},{"geometry":{"type":"Point","coordinates":[138.2170000000001,-30.449999999999932],"crs":null},"id":43,"type":"Feature","properties":{"phone_no_":"08 7603 6304","community_name_":"Myrtle Springs","state":"SA","objectid":43,"lat":-30.45,"long":138.217}},{"geometry":{"type":"Point","coordinates":[132.6780000000001,-23.926000000999977],"crs":null},"id":44,"type":"Feature","properties":{"phone_no_":"08 8912 0624","community_name_":"Ipalala","state":"NT","objectid":44,"lat":-23.926,"long":132.678}},{"geometry":{"type":"Point","coordinates":[132.63800000000003,-23.93599999999998],"crs":null},"id":45,"type":"Feature","properties":{"phone_no_":"08 8912 0623","community_name_":"Lyiltjara","state":"NT","objectid":45,"lat":-23.936,"long":132.638}},{"geometry":{"type":"Point","coordinates":[132.82900000000006,-23.98199999999997],"crs":null},"id":46,"type":"Feature","properties":{"phone_no_":"08 8912 0625","community_name_":"Arrkapa","state":"NT","objectid":46,"lat":-23.982,"long":132.829}},{"geometry":{"type":"Point","coordinates":[132.93900000000008,-23.911999999999978],"crs":null},"id":47,"type":"Feature","properties":{"phone_no_":"08 8912 0628","community_name_":"Labrapuntja","state":"NT","objectid":47,"lat":-23.912,"long":132.939}},{"geometry":{"type":"Point","coordinates":[132.8750000000001,-23.953000000999964],"crs":null},"id":48,"type":"Feature","properties":{"phone_no_":"08 8912 0627","community_name_":"Mbalkanaka","state":"NT","objectid":48,"lat":-23.953,"long":132.875}},{"geometry":{"type":"Point","coordinates":[132.83900000000006,-23.998999999999967],"crs":null},"id":49,"type":"Feature","properties":{"phone_no_":"08 8912 0626","community_name_":"Tnawurta - WP40","state":"NT","objectid":49,"lat":-23.999,"long":132.839}},{"geometry":{"type":"Point","coordinates":[133.4280000000001,-22.022999999999968],"crs":null},"id":50,"type":"Feature","properties":{"phone_no_":"08 8912 0629","community_name_":"Illeparratye","state":"NT","objectid":50,"lat":-22.023,"long":133.428}},{"geometry":{"type":"Point","coordinates":[134.39400000000012,-21.60900000099997],"crs":null},"id":51,"type":"Feature","properties":{"phone_no_":"08 8933 9005","community_name_":"Illeuwurru","state":"NT","objectid":51,"lat":-21.609,"long":134.394}},{"geometry":{"type":"Point","coordinates":[124.86000000000001,-19.05500000099994],"crs":null},"id":52,"type":"Feature","properties":{"phone_no_":"08 9118 3007","community_name_":"Djillimbardi","state":"WA","objectid":52,"lat":-19.055,"long":124.86}},{"geometry":{"type":"Point","coordinates":[121.64200000000005,-18.86500000099994],"crs":null},"id":53,"type":"Feature","properties":{"phone_no_":"08 9118 3009","community_name_":"Brubrunganjal (Kitty Wells)","state":"WA","objectid":53,"lat":-18.865,"long":121.642}},{"geometry":{"type":"Point","coordinates":[121.70200000000011,-18.730999999999938],"crs":null},"id":54,"type":"Feature","properties":{"phone_no_":"08 9118 3010","community_name_":"Rollah (Oompanaguba)","state":"WA","objectid":54,"lat":-18.731,"long":121.702}},{"geometry":{"type":"Point","coordinates":[122.78600000000006,-16.73199999999997],"crs":null},"id":55,"type":"Feature","properties":{"phone_no_":"08 9118 3008","community_name_":"Gurrbalgun (Urmarr)","state":"WA","objectid":55,"lat":-16.732,"long":122.786}},{"geometry":{"type":"Point","coordinates":[132.76300000000003,-12.728999998999939],"crs":null},"id":56,"type":"Feature","properties":{"phone_no_":"08 8919 4323","community_name_":"Djirrbiyuk","state":"NT","objectid":56,"lat":-12.729,"long":132.763}},{"geometry":{"type":"Point","coordinates":[132.59400000000005,-12.812999998999942],"crs":null},"id":57,"type":"Feature","properties":{"phone_no_":"08 8919 4321","community_name_":"Buffalo Farm","state":"NT","objectid":57,"lat":-12.813,"long":132.594}},{"geometry":{"type":"Point","coordinates":[132.58000000000004,-12.95799999999997],"crs":null},"id":58,"type":"Feature","properties":{"phone_no_":"08 8919 4313","community_name_":"Potonga Homestead","state":"NT","objectid":58,"lat":-12.958,"long":132.58}},{"geometry":{"type":"Point","coordinates":[143.0010000000001,-13.118999999999971],"crs":null},"id":59,"type":"Feature","properties":{"phone_no_":"07 4222 2634","community_name_":"Chuula - WP40","state":"QLD","objectid":59,"lat":-13.119,"long":143.001}},{"geometry":{"type":"Point","coordinates":[143.67600000000004,-14.487999999999943],"crs":null},"id":60,"type":"Feature","properties":{"phone_no_":"07 4222 2635","community_name_":"Lilyvale Station","state":"QLD","objectid":60,"lat":-14.488,"long":143.676}},{"geometry":{"type":"Point","coordinates":[143.2750000000001,-14.849999998999976],"crs":null},"id":61,"type":"Feature","properties":{"phone_no_":"07 4222 2628","community_name_":"Glengarland","state":"QLD","objectid":61,"lat":-14.85,"long":143.275}},{"geometry":{"type":"Point","coordinates":[136.45600000000002,-14.215999999999951],"crs":null},"id":62,"type":"Feature","properties":{"phone_no_":"08 8919 4318","community_name_":"Yanbakwa","state":"NT","objectid":62,"lat":-14.216,"long":136.456}},{"geometry":{"type":"Point","coordinates":[136.4570000000001,-14.078999998999961],"crs":null},"id":63,"type":"Feature","properties":{"phone_no_":"08 8919 4316","community_name_":"Yedikba","state":"NT","objectid":63,"lat":-14.079,"long":136.457}},{"geometry":{"type":"Point","coordinates":[145.31500000000005,-15.599999998999976],"crs":null},"id":64,"type":"Feature","properties":{"phone_no_":"07 4222 2621","community_name_":"Archer Point - WP40","state":"QLD","objectid":64,"lat":-15.6,"long":145.315}},{"geometry":{"type":"Point","coordinates":[136.442,-13.890999998999973],"crs":null},"id":65,"type":"Feature","properties":{"phone_no_":"08 8919 4315","community_name_":"Malkala","state":"NT","objectid":65,"lat":-13.891,"long":136.442}},{"geometry":{"type":"Point","coordinates":[144.2170000000001,-14.891999999999939],"crs":null},"id":66,"type":"Feature","properties":{"phone_no_":"07 4222 2606","community_name_":"Kalpowar Station","state":"QLD","objectid":66,"lat":-14.892,"long":144.217}},{"geometry":{"type":"Point","coordinates":[145.1260000000001,-15.055999999999926],"crs":null},"id":67,"type":"Feature","properties":{"phone_no_":"07 4222 2631","community_name_":"Starcke","state":"QLD","objectid":67,"lat":-15.056,"long":145.126}},{"geometry":{"type":"Point","coordinates":[144.5300000000001,-15.644999999999982],"crs":null},"id":68,"type":"Feature","properties":{"phone_no_":"07 4222 2637","community_name_":"Festival Ground","state":"QLD","objectid":68,"lat":-15.645,"long":144.53}},{"geometry":{"type":"Point","coordinates":[143.28700000000003,-14.049999998999965],"crs":null},"id":69,"type":"Feature","properties":{"phone_no_":"07 4222 2629","community_name_":"Puntimu - WP40","state":"QLD","objectid":69,"lat":-14.05,"long":143.287}},{"geometry":{"type":"Point","coordinates":[138.33900000000006,-21.595999999999947],"crs":null},"id":70,"type":"Feature","properties":{"phone_no_":"07 4536 8003","community_name_":"Marmanya - WP40","state":"QLD","objectid":70,"lat":-21.596,"long":138.339}},{"geometry":{"type":"Point","coordinates":[135.63300000000004,-22.91399999999993],"crs":null},"id":71,"type":"Feature","properties":{"phone_no_":"08 8912 0642","community_name_":"Ilperle","state":"NT","objectid":71,"lat":-22.914,"long":135.633}},{"geometry":{"type":"Point","coordinates":[133.615,-23.776000000999943],"crs":null},"id":72,"type":"Feature","properties":{"phone_no_":"08 8912 0631","community_name_":"Elitjia - WP40","state":"NT","objectid":72,"lat":-23.776,"long":133.615}},{"geometry":{"type":"Point","coordinates":[131.2700000000001,-23.285000000999958],"crs":null},"id":73,"type":"Feature","properties":{"phone_no_":"08 8912 0632","community_name_":"Tjintirtjintirpa","state":"NT","objectid":73,"lat":-23.285,"long":131.27}},{"geometry":{"type":"Point","coordinates":[131.25400000000002,-23.263999999999953],"crs":null},"id":74,"type":"Feature","properties":{"phone_no_":"08 8912 0633","community_name_":"Lwnpa","state":"NT","objectid":74,"lat":-23.264,"long":131.254}},{"geometry":{"type":"Point","coordinates":[129.3030000000001,-24.911999999999978],"crs":null},"id":75,"type":"Feature","properties":{"phone_no_":"08 8912 0638","community_name_":"Piyultjara","state":"NT","objectid":75,"lat":-24.912,"long":129.303}},{"geometry":{"type":"Point","coordinates":[122.62700000000007,-16.801000000999977],"crs":null},"id":76,"type":"Feature","properties":{"phone_no_":"08 9118 3016","community_name_":"Embalgun - WP40","state":"WA","objectid":76,"lat":-16.801,"long":122.627}},{"geometry":{"type":"Point","coordinates":[122.57600000000002,-16.773000000999957],"crs":null},"id":77,"type":"Feature","properties":{"phone_no_":"08 9118 3013","community_name_":"Middle Lagoon","state":"WA","objectid":77,"lat":-16.773,"long":122.576}},{"geometry":{"type":"Point","coordinates":[122.31700000000001,-17.056000000999973],"crs":null},"id":78,"type":"Feature","properties":{"phone_no_":"08 9118 3014","community_name_":"Djibinj","state":"WA","objectid":78,"lat":-17.056,"long":122.317}},{"geometry":{"type":"Point","coordinates":[121.918,-18.461000000999945],"crs":null},"id":79,"type":"Feature","properties":{"phone_no_":"08 9118 3011","community_name_":"Garimba","state":"WA","objectid":79,"lat":-18.461,"long":121.918}},{"geometry":{"type":"Point","coordinates":[131.58800000000008,-25.996999999999957],"crs":null},"id":80,"type":"Feature","properties":{"phone_no_":"08 8912 0618","community_name_":"Rocket Bore","state":"NT","objectid":80,"lat":-25.997,"long":131.588}},{"geometry":{"type":"Point","coordinates":[122.90300000000002,-16.46000000099997],"crs":null},"id":81,"type":"Feature","properties":{"phone_no_":"08 9118 3015","community_name_":"Gulumonon","state":"WA","objectid":81,"lat":-16.46,"long":122.903}},{"geometry":{"type":"Point","coordinates":[122.95200000000011,-16.408999999999935],"crs":null},"id":82,"type":"Feature","properties":{"phone_no_":"08 9118 3012","community_name_":"Goolargoon","state":"WA","objectid":82,"lat":-16.409,"long":122.952}},{"geometry":{"type":"Point","coordinates":[131.34800000000007,-26.033999999999935],"crs":null},"id":83,"type":"Feature","properties":{"phone_no_":"08 8912 0619","community_name_":"Cave Hill - WP40","state":"SA","objectid":83,"lat":-26.034,"long":131.348}},{"geometry":{"type":"Point","coordinates":[134.14600000000007,-27.95799999999997],"crs":null},"id":84,"type":"Feature","properties":{"phone_no_":"08 7600 0107","community_name_":"Mount Willoughby","state":"SA","objectid":84,"lat":-27.958,"long":134.146}},{"geometry":{"type":"Point","coordinates":[134.96800000000007,-21.20999999999998],"crs":null},"id":85,"type":"Feature","properties":{"phone_no_":"08 8933 9009","community_name_":"Imperrenth","state":"NT","objectid":85,"lat":-21.21,"long":134.968}},{"geometry":{"type":"Point","coordinates":[134.43100000000004,-24.095999999999947],"crs":null},"id":86,"type":"Feature","properties":{"phone_no_":"08 8912 0643","community_name_":"Philipson Bore","state":"NT","objectid":86,"lat":-24.096,"long":134.431}},{"geometry":{"type":"Point","coordinates":[131.08800000000008,-26.30299999999994],"crs":null},"id":87,"type":"Feature","properties":{"phone_no_":"08 8912 0621","community_name_":"Happy Valley","state":"SA","objectid":87,"lat":-26.303,"long":131.088}},{"geometry":{"type":"Point","coordinates":[132.16800000000012,-26.256999999999948],"crs":null},"id":88,"type":"Feature","properties":{"phone_no_":"08 8912 0635","community_name_":"Racecourse","state":"SA","objectid":88,"lat":-26.257,"long":132.168}},{"geometry":{"type":"Point","coordinates":[132.72400000000005,-27.041999999999973],"crs":null},"id":89,"type":"Feature","properties":{"phone_no_":"08 8912 0636","community_name_":"Shannons Bore","state":"SA","objectid":89,"lat":-27.042,"long":132.724}},{"geometry":{"type":"Point","coordinates":[131.79000000000008,-27.00400000099995],"crs":null},"id":90,"type":"Feature","properties":{"phone_no_":"08 8912 0634","community_name_":"Walalakara - WP40","state":"SA","objectid":90,"lat":-27.004,"long":131.79}},{"geometry":{"type":"Point","coordinates":[133.49700000000007,-26.93799999999993],"crs":null},"id":91,"type":"Feature","properties":{"phone_no_":"08 8912 0637","community_name_":"Granite Downs","state":"SA","objectid":91,"lat":-26.938,"long":133.497}},{"geometry":{"type":"Point","coordinates":[122.61000000000001,-16.775000000999967],"crs":null},"id":92,"type":"Feature","properties":{"phone_no_":"08 9118 3001","community_name_":"Goonjarr Goonyool (Two Moons)","state":"WA","objectid":92,"lat":-16.775,"long":122.61}},{"geometry":{"type":"Point","coordinates":[122.59300000000007,-16.765000000999976],"crs":null},"id":93,"type":"Feature","properties":{"phone_no_":"08 9118 3002","community_name_":"Mercedes Cove","state":"WA","objectid":93,"lat":-16.765,"long":122.593}},{"geometry":{"type":"Point","coordinates":[132.49900000000002,-24.559999999999945],"crs":null},"id":94,"type":"Feature","properties":{"phone_no_":"08 8912 0639","community_name_":"Sandy Bore - WP40","state":"NT","objectid":94,"lat":-24.56,"long":132.499}},{"geometry":{"type":"Point","coordinates":[135.67200000000003,-22.786999999999978],"crs":null},"id":95,"type":"Feature","properties":{"phone_no_":"08 8912 0645","community_name_":"Penyeme","state":"NT","objectid":95,"lat":-22.787,"long":135.672}},{"geometry":{"type":"Point","coordinates":[136.42200000000003,-15.961999998999943],"crs":null},"id":96,"type":"Feature","properties":{"phone_no_":"08 8933 9018","community_name_":"Milibunthurra - WP40","state":"NT","objectid":96,"lat":-15.962,"long":136.422}},{"geometry":{"type":"Point","coordinates":[136.34800000000007,-16.04100000099993],"crs":null},"id":97,"type":"Feature","properties":{"phone_no_":"08 8933 9011","community_name_":"Sandridge","state":"NT","objectid":97,"lat":-16.041,"long":136.348}},{"geometry":{"type":"Point","coordinates":[135.64800000000002,-16.674000000999968],"crs":null},"id":98,"type":"Feature","properties":{"phone_no_":"08 8933 9014","community_name_":"Garinjinny","state":"NT","objectid":98,"lat":-16.674,"long":135.648}},{"geometry":{"type":"Point","coordinates":[128.76700000000005,-15.925999998999941],"crs":null},"id":99,"type":"Feature","properties":{"phone_no_":"08 9118 6008","community_name_":"Geboowama","state":"WA","objectid":99,"lat":-15.926,"long":128.767}},{"geometry":{"type":"Point","coordinates":[136.5390000000001,-15.88799999899993],"crs":null},"id":100,"type":"Feature","properties":{"phone_no_":"08 8933 9010","community_name_":"Kangaroo Island","state":"NT","objectid":100,"lat":-15.888,"long":136.539}},{"geometry":{"type":"Point","coordinates":[137.0000000000001,-15.623999999999967],"crs":null},"id":101,"type":"Feature","properties":{"phone_no_":"08 8933 9012","community_name_":"Mooloowa","state":"NT","objectid":101,"lat":-15.624,"long":137}},{"geometry":{"type":"Point","coordinates":[136.65800000000002,-15.688999999999965],"crs":null},"id":102,"type":"Feature","properties":{"phone_no_":"08 8933 9017","community_name_":"South West Island","state":"NT","objectid":102,"lat":-15.689,"long":136.658}},{"geometry":{"type":"Point","coordinates":[136.83400000000006,-16.801000000999977],"crs":null},"id":103,"type":"Feature","properties":{"phone_no_":"08 8933 9013","community_name_":"Mimina","state":"NT","objectid":103,"lat":-16.801,"long":136.834}},{"geometry":{"type":"Point","coordinates":[137.98900000000003,-17.21800000099995],"crs":null},"id":104,"type":"Feature","properties":{"phone_no_":"08 8933 9016","community_name_":"Jungalina","state":"NT","objectid":104,"lat":-17.218,"long":137.989}},{"geometry":{"type":"Point","coordinates":[135.94900000000007,-16.207000000999926],"crs":null},"id":105,"type":"Feature","properties":{"phone_no_":"08 8933 9015","community_name_":"Cow Lagoon - WP40","state":"NT","objectid":105,"lat":-16.207,"long":135.949}},{"geometry":{"type":"Point","coordinates":[135.44400000000007,-15.299999998999965],"crs":null},"id":106,"type":"Feature","properties":{"phone_no_":"08 8934 9027","community_name_":"Maria Lagoon","state":"NT","objectid":106,"lat":-15.3,"long":135.444}},{"geometry":{"type":"Point","coordinates":[142.07200000000012,-12.660999999999945],"crs":null},"id":107,"type":"Feature","properties":{"phone_no_":"07 4222 2627","community_name_":"Peppan","state":"QLD","objectid":107,"lat":-12.661,"long":142.072}},{"geometry":{"type":"Point","coordinates":[141.98400000000004,-12.697999999999979],"crs":null},"id":108,"type":"Feature","properties":{"phone_no_":"07 4222 2638","community_name_":"Wa-Tyne","state":"QLD","objectid":108,"lat":-12.698,"long":141.984}},{"geometry":{"type":"Point","coordinates":[132.53300000000002,-12.937999999999931],"crs":null},"id":109,"type":"Feature","properties":{"phone_no_":"08 8919 4312","community_name_":"Paradise Farm","state":"NT","objectid":109,"lat":-12.938,"long":132.533}},{"geometry":{"type":"Point","coordinates":[142.66800000000012,-13.656999998999936],"crs":null},"id":110,"type":"Feature","properties":{"phone_no_":"07 4222 2609","community_name_":"Rokeby","state":"QLD","objectid":110,"lat":-13.657,"long":142.668}},{"geometry":{"type":"Point","coordinates":[134.07000000000005,-12.270999998999969],"crs":null},"id":111,"type":"Feature","properties":{"phone_no_":"08 8934 9015","community_name_":"Kumurrulu","state":"NT","objectid":111,"lat":-12.271,"long":134.07}},{"geometry":{"type":"Point","coordinates":[141.77400000000011,-15.110999999999933],"crs":null},"id":112,"type":"Feature","properties":{"phone_no_":"07 4222 2641","community_name_":"Baa's Yard","state":"QLD","objectid":112,"lat":-15.111,"long":141.774}},{"geometry":{"type":"Point","coordinates":[134.17500000000007,-12.347999999999956],"crs":null},"id":113,"type":"Feature","properties":{"phone_no_":"08 8934 9009","community_name_":"Barrijowkeng","state":"NT","objectid":113,"lat":-12.348,"long":134.175}},{"geometry":{"type":"Point","coordinates":[145.2260000000001,-15.740999999999929],"crs":null},"id":114,"type":"Feature","properties":{"phone_no_":"07 4222 2617","community_name_":"Bana Yarrilji Bubu - WP40 (Shipton's Flat)","state":"QLD","objectid":114,"lat":-15.741,"long":145.226}},{"geometry":{"type":"Point","coordinates":[134.40200000000004,-12.060999999999979],"crs":null},"id":115,"type":"Feature","properties":{"phone_no_":"08 8934 9018","community_name_":"Rocky Point","state":"NT","objectid":115,"lat":-12.061,"long":134.402}},{"geometry":{"type":"Point","coordinates":[134.2940000000001,-11.992999999999938],"crs":null},"id":116,"type":"Feature","properties":{"phone_no_":"08 8934 9028","community_name_":"Nardmiluk","state":"NT","objectid":116,"lat":-11.993,"long":134.294}},{"geometry":{"type":"Point","coordinates":[134.28600000000006,-12.201999998999952],"crs":null},"id":117,"type":"Feature","properties":{"phone_no_":"08 8934 9029","community_name_":"Djinkarr","state":"NT","objectid":117,"lat":-12.202,"long":134.286}},{"geometry":{"type":"Point","coordinates":[141.60000000000002,-15.44599999899998],"crs":null},"id":118,"type":"Feature","properties":{"phone_no_":"07 4222 2630","community_name_":"Scrubby Bore","state":"QLD","objectid":118,"lat":-15.446,"long":141.6}},{"geometry":{"type":"Point","coordinates":[132.74900000000002,-11.495999999999981],"crs":null},"id":119,"type":"Feature","properties":{"phone_no_":"08 8934 9032","community_name_":"Wiligi","state":"NT","objectid":119,"lat":-11.496,"long":132.749}},{"geometry":{"type":"Point","coordinates":[132.82500000000005,-11.405999999999949],"crs":null},"id":120,"type":"Feature","properties":{"phone_no_":"08 8934 9030","community_name_":"Annesley Point","state":"NT","objectid":120,"lat":-11.406,"long":132.825}},{"geometry":{"type":"Point","coordinates":[132.91200000000003,-11.70999999999998],"crs":null},"id":121,"type":"Feature","properties":{"phone_no_":"08 8934 9031","community_name_":"Murganella Plains","state":"NT","objectid":121,"lat":-11.71,"long":132.912}},{"geometry":{"type":"Point","coordinates":[133.07400000000007,-12.478999999999928],"crs":null},"id":122,"type":"Feature","properties":{"phone_no_":"08 8934 9007","community_name_":"Mikginj Valley","state":"NT","objectid":122,"lat":-12.479,"long":133.074}},{"geometry":{"type":"Point","coordinates":[123.61300000000006,-18.58900000099993],"crs":null},"id":123,"type":"Feature","properties":{"phone_no_":"08 9118 3025","community_name_":"Bulinjarr","state":"WA","objectid":123,"lat":-18.589,"long":123.613}},{"geometry":{"type":"Point","coordinates":[125.06200000000001,-18.58900000099993],"crs":null},"id":124,"type":"Feature","properties":{"phone_no_":"08 9118 3020","community_name_":"Parkal Springs","state":"WA","objectid":124,"lat":-18.589,"long":125.062}},{"geometry":{"type":"Point","coordinates":[127.99800000000005,-18.323999999999955],"crs":null},"id":125,"type":"Feature","properties":{"phone_no_":"08 9118 3024","community_name_":"Wungu - WP40","state":"WA","objectid":125,"lat":-18.324,"long":127.998}},{"geometry":{"type":"Point","coordinates":[125.61700000000008,-18.313000000999978],"crs":null},"id":126,"type":"Feature","properties":{"phone_no_":"08 9118 3018","community_name_":"Kamparrini  -WP40","state":"WA","objectid":126,"lat":-18.313,"long":125.617}},{"geometry":{"type":"Point","coordinates":[125.97300000000007,-18.746999999999957],"crs":null},"id":127,"type":"Feature","properties":{"phone_no_":"08 9118 3017","community_name_":"Gilly Sharpe","state":"WA","objectid":127,"lat":-18.747,"long":125.973}},{"geometry":{"type":"Point","coordinates":[126.69900000000007,-18.769999999999982],"crs":null},"id":128,"type":"Feature","properties":{"phone_no_":"08 9118 3023","community_name_":"Rockie Springs","state":"WA","objectid":128,"lat":-18.77,"long":126.699}},{"geometry":{"type":"Point","coordinates":[128.87800000000004,-16.02900000099993],"crs":null},"id":129,"type":"Feature","properties":{"phone_no_":"08 9118 6007","community_name_":"Alligator Hole","state":"WA","objectid":129,"lat":-16.029,"long":128.878}},{"geometry":{"type":"Point","coordinates":[126.1450000000001,-15.398999999999944],"crs":null},"id":130,"type":"Feature","properties":{"phone_no_":"08 9118 6012","community_name_":"Marunbabidi","state":"WA","objectid":130,"lat":-15.399,"long":126.145}},{"geometry":{"type":"Point","coordinates":[128.69100000000003,-15.886999999999944],"crs":null},"id":131,"type":"Feature","properties":{"phone_no_":"08 9118 6010","community_name_":"Yirralelem","state":"WA","objectid":131,"lat":-15.887,"long":128.691}},{"geometry":{"type":"Point","coordinates":[125.36000000000001,-17.736999999999966],"crs":null},"id":132,"type":"Feature","properties":{"phone_no_":"08 9118 3022","community_name_":"Warringarri","state":"WA","objectid":132,"lat":-17.737,"long":125.36}},{"geometry":{"type":"Point","coordinates":[129.93100000000004,-13.859999999999957],"crs":null},"id":133,"type":"Feature","properties":{"phone_no_":"08 8919 4309","community_name_":"Sabina","state":"NT","objectid":133,"lat":-13.86,"long":129.931}},{"geometry":{"type":"Point","coordinates":[129.9760000000001,-13.76499999899994],"crs":null},"id":134,"type":"Feature","properties":{"phone_no_":"08 8919 4308","community_name_":"Delye","state":"NT","objectid":134,"lat":-13.765,"long":129.976}},{"geometry":{"type":"Point","coordinates":[129.95100000000002,-13.925999998999941],"crs":null},"id":135,"type":"Feature","properties":{"phone_no_":"08 8919 4307","community_name_":"Mulingi","state":"NT","objectid":135,"lat":-13.926,"long":129.951}},{"geometry":{"type":"Point","coordinates":[129.9430000000001,-14.02699999999993],"crs":null},"id":136,"type":"Feature","properties":{"phone_no_":"08 8919 4306","community_name_":"Wudaduk","state":"NT","objectid":136,"lat":-14.027,"long":129.943}},{"geometry":{"type":"Point","coordinates":[132.5290000000001,-11.341999998999938],"crs":null},"id":137,"type":"Feature","properties":{"phone_no_":"08 8934 9014","community_name_":"Irrgul Point","state":"NT","objectid":137,"lat":-11.342,"long":132.529}},{"geometry":{"type":"Point","coordinates":[132.37800000000004,-11.268999999999949],"crs":null},"id":138,"type":"Feature","properties":{"phone_no_":"08 8934 9034","community_name_":"Woodji","state":"NT","objectid":138,"lat":-11.269,"long":132.378}},{"geometry":{"type":"Point","coordinates":[134.24700000000007,-12.522999999999968],"crs":null},"id":139,"type":"Feature","properties":{"phone_no_":"08 8934 9008","community_name_":"Milmilngkan","state":"NT","objectid":139,"lat":-12.523,"long":134.247}},{"geometry":{"type":"Point","coordinates":[135.39200000000005,-12.66799999899996],"crs":null},"id":140,"type":"Feature","properties":{"phone_no_":"08 8934 9011","community_name_":"Dhupuwamirri","state":"NT","objectid":140,"lat":-12.668,"long":135.392}},{"geometry":{"type":"Point","coordinates":[133.03200000000004,-26.863999999999976],"crs":null},"id":141,"type":"Feature","properties":{"phone_no_":"08 8912 0641","community_name_":"Amuroona","state":"SA","objectid":141,"lat":-26.864,"long":133.032}},{"geometry":{"type":"Point","coordinates":[135.85500000000002,-12.655999999999949],"crs":null},"id":142,"type":"Feature","properties":{"phone_no_":"08 8934 9036","community_name_":"Dhamiyaka","state":"NT","objectid":142,"lat":-12.656,"long":135.855}},{"geometry":{"type":"Point","coordinates":[132.4810000000001,-27.154999999999973],"crs":null},"id":143,"type":"Feature","properties":{"phone_no_":"08 8912 0649","community_name_":"Sandy Bore - WP40","state":"SA","objectid":143,"lat":-27.155,"long":132.481}},{"geometry":{"type":"Point","coordinates":[136.3510000000001,-13.29699999899998],"crs":null},"id":144,"type":"Feature","properties":{"phone_no_":"08 8934 9023","community_name_":"Djarrakapi","state":"NT","objectid":144,"lat":-13.297,"long":136.351}},{"geometry":{"type":"Point","coordinates":[131.17700000000002,-26.152999999999963],"crs":null},"id":145,"type":"Feature","properties":{"phone_no_":"08 8912 0647","community_name_":"Katjikuta","state":"SA","objectid":145,"lat":-26.153,"long":131.177}},{"geometry":{"type":"Point","coordinates":[136.50300000000004,-12.974999998999976],"crs":null},"id":146,"type":"Feature","properties":{"phone_no_":"08 8934 9013","community_name_":"Gurkawuy","state":"NT","objectid":146,"lat":-12.975,"long":136.503}},{"geometry":{"type":"Point","coordinates":[132.889,-23.927000000999953],"crs":null},"id":147,"type":"Feature","properties":{"phone_no_":"08 8912 0646","community_name_":"Kwala","state":"NT","objectid":147,"lat":-23.927,"long":132.889}},{"geometry":{"type":"Point","coordinates":[134.91700000000003,-23.04299999999995],"crs":null},"id":148,"type":"Feature","properties":{"phone_no_":"08 8912 0648","community_name_":"Spotted Tiger","state":"NT","objectid":148,"lat":-23.043,"long":134.917}},{"geometry":{"type":"Point","coordinates":[135.56400000000008,-14.216999998999938],"crs":null},"id":149,"type":"Feature","properties":{"phone_no_":"08 8934 9021","community_name_":"Yimmidarra","state":"NT","objectid":149,"lat":-14.217,"long":135.564}},{"geometry":{"type":"Point","coordinates":[134.49500000000012,-12.121999998999968],"crs":null},"id":150,"type":"Feature","properties":{"phone_no_":"08 8934 9012","community_name_":"Gorrong Gorrong","state":"NT","objectid":150,"lat":-12.122,"long":134.495}},{"geometry":{"type":"Point","coordinates":[134.97800000000007,-12.240999999999929],"crs":null},"id":151,"type":"Feature","properties":{"phone_no_":"08 8934 9016","community_name_":"Manginberri","state":"NT","objectid":151,"lat":-12.241,"long":134.978}},{"geometry":{"type":"Point","coordinates":[133.39700000000005,-11.767999998999926],"crs":null},"id":152,"type":"Feature","properties":{"phone_no_":"08 8934 9019","community_name_":"Waiminari","state":"NT","objectid":152,"lat":-11.768,"long":133.397}},{"geometry":{"type":"Point","coordinates":[139.5680000000001,-17.092000000999974],"crs":null},"id":153,"type":"Feature","properties":{"phone_no_":"07 4222 2675","community_name_":"Njinjilki","state":"QLD","objectid":153,"lat":-17.092,"long":139.568}},{"geometry":{"type":"Point","coordinates":[139.26600000000008,-16.492999999999938],"crs":null},"id":154,"type":"Feature","properties":{"phone_no_":"07 4222 2668","community_name_":"Lametha","state":"QLD","objectid":154,"lat":-16.493,"long":139.266}},{"geometry":{"type":"Point","coordinates":[139.211,-16.56899999999996],"crs":null},"id":155,"type":"Feature","properties":{"phone_no_":"07 4222 2647","community_name_":"Bidjagun","state":"QLD","objectid":155,"lat":-16.569,"long":139.211}},{"geometry":{"type":"Point","coordinates":[139.23900000000003,-16.595999999999947],"crs":null},"id":156,"type":"Feature","properties":{"phone_no_":"07 4222 2658","community_name_":"Guban Guru","state":"QLD","objectid":156,"lat":-16.596,"long":139.239}},{"geometry":{"type":"Point","coordinates":[139.17000000000007,-16.672000000999958],"crs":null},"id":157,"type":"Feature","properties":{"phone_no_":"07 4222 2672","community_name_":"Piggy Well","state":"QLD","objectid":157,"lat":-16.672,"long":139.17}},{"geometry":{"type":"Point","coordinates":[135.59300000000007,-12.043999999999926],"crs":null},"id":158,"type":"Feature","properties":{"phone_no_":"08 8934 9020","community_name_":"Galawarra","state":"NT","objectid":158,"lat":-12.044,"long":135.593}},{"geometry":{"type":"Point","coordinates":[133.84400000000005,-12.763999998999964],"crs":null},"id":159,"type":"Feature","properties":{"phone_no_":"08 8934 9006","community_name_":"Kabulwarnamyo","state":"NT","objectid":159,"lat":-12.764,"long":133.844}},{"geometry":{"type":"Point","coordinates":[139.12900000000002,-16.800000000999944],"crs":null},"id":160,"type":"Feature","properties":{"phone_no_":"07 4222 2673","community_name_":"Lamagian Point","state":"QLD","objectid":160,"lat":-16.8,"long":139.129}},{"geometry":{"type":"Point","coordinates":[138.58400000000006,-17.888000000999966],"crs":null},"id":161,"type":"Feature","properties":{"phone_no_":"07 4222 2687","community_name_":"Corinda","state":"QLD","objectid":161,"lat":-17.888,"long":138.584}},{"geometry":{"type":"Point","coordinates":[139.3180000000001,-16.71599999999995],"crs":null},"id":162,"type":"Feature","properties":{"phone_no_":"07 4222 2679","community_name_":"Warnbullin","state":"QLD","objectid":162,"lat":-16.716,"long":139.318}},{"geometry":{"type":"Point","coordinates":[138.70400000000006,-17.919000000999972],"crs":null},"id":163,"type":"Feature","properties":{"phone_no_":"07 4222 2684","community_name_":"Nine Mile","state":"QLD","objectid":163,"lat":-17.919,"long":138.704}},{"geometry":{"type":"Point","coordinates":[139.44200000000012,-16.522999999999968],"crs":null},"id":164,"type":"Feature","properties":{"phone_no_":"08 4222 2649","community_name_":"Dimereah","state":"QLD","objectid":164,"lat":-16.523,"long":139.442}},{"geometry":{"type":"Point","coordinates":[139.3130000000001,-16.66599999999994],"crs":null},"id":165,"type":"Feature","properties":{"phone_no_":"07 4222 2651","community_name_":"Doonguru","state":"QLD","objectid":165,"lat":-16.666,"long":139.313}},{"geometry":{"type":"Point","coordinates":[139.22000000000003,-16.54100000099993],"crs":null},"id":166,"type":"Feature","properties":{"phone_no_":"07 4222 2653","community_name_":"Dwendi","state":"QLD","objectid":166,"lat":-16.541,"long":139.22}},{"geometry":{"type":"Point","coordinates":[139.4290000000001,-16.668999999999983],"crs":null},"id":167,"type":"Feature","properties":{"phone_no_":"07 4222 2657","community_name_":"Ganthawu","state":"QLD","objectid":167,"lat":-16.669,"long":139.429}},{"geometry":{"type":"Point","coordinates":[139.36200000000008,-16.574999999999932],"crs":null},"id":168,"type":"Feature","properties":{"phone_no_":"07 4222 2660","community_name_":"Gubanyari","state":"QLD","objectid":168,"lat":-16.575,"long":139.362}},{"geometry":{"type":"Point","coordinates":[138.88100000000009,-17.652999999999963],"crs":null},"id":169,"type":"Feature","properties":{"phone_no_":"07 4222 2691","community_name_":"Spoon Creek","state":"QLD","objectid":169,"lat":-17.653,"long":138.881}},{"geometry":{"type":"Point","coordinates":[139.62200000000007,-16.42800000099993],"crs":null},"id":170,"type":"Feature","properties":{"phone_no_":"07 4222 2643","community_name_":"Balaleah","state":"QLD","objectid":170,"lat":-16.428,"long":139.622}},{"geometry":{"type":"Point","coordinates":[139.69700000000012,-16.478999999999928],"crs":null},"id":171,"type":"Feature","properties":{"phone_no_":"07 4222 2639","community_name_":"Barrakiah","state":"QLD","objectid":171,"lat":-16.479,"long":139.697}},{"geometry":{"type":"Point","coordinates":[139.66600000000005,-16.453000000999964],"crs":null},"id":172,"type":"Feature","properties":{"phone_no_":"07 4222 2648","community_name_":"Dadagun","state":"QLD","objectid":172,"lat":-16.453,"long":139.666}},{"geometry":{"type":"Point","coordinates":[132.5100000000001,-11.104999998999972],"crs":null},"id":173,"type":"Feature","properties":{"phone_no_":"08 8934 9041","community_name_":"Wanakutja","state":"NT","objectid":173,"lat":-11.105,"long":132.51}},{"geometry":{"type":"Point","coordinates":[132.57900000000006,-11.206999999999937],"crs":null},"id":174,"type":"Feature","properties":{"phone_no_":"08 8934 9043","community_name_":"Sandy Bay","state":"NT","objectid":174,"lat":-11.207,"long":132.579}},{"geometry":{"type":"Point","coordinates":[142.9430000000001,-15.409999999999968],"crs":null},"id":175,"type":"Feature","properties":{"phone_no_":"07 4222 2683","community_name_":"Oriners","state":"QLD","objectid":175,"lat":-15.41,"long":142.943}},{"geometry":{"type":"Point","coordinates":[132.47400000000005,-11.15199999999993],"crs":null},"id":176,"type":"Feature","properties":{"phone_no_":"08 8934 9040","community_name_":"Adjamarragu","state":"NT","objectid":176,"lat":-11.152,"long":132.474}},{"geometry":{"type":"Point","coordinates":[132.52800000000002,-11.066999998999961],"crs":null},"id":177,"type":"Feature","properties":{"phone_no_":"08 8934 9042","community_name_":"Alamirra","state":"NT","objectid":177,"lat":-11.067,"long":132.528}},{"geometry":{"type":"Point","coordinates":[139.37900000000002,-16.65799999999996],"crs":null},"id":178,"type":"Feature","properties":{"phone_no_":"07 4222 2666","community_name_":"Gunan Woonam","state":"QLD","objectid":178,"lat":-16.658,"long":139.379}},{"geometry":{"type":"Point","coordinates":[139.41800000000012,-16.44800000099997],"crs":null},"id":179,"type":"Feature","properties":{"phone_no_":"07 4222 2671","community_name_":"Lowareah","state":"QLD","objectid":179,"lat":-16.448,"long":139.418}},{"geometry":{"type":"Point","coordinates":[139.56500000000005,-16.49599999999998],"crs":null},"id":180,"type":"Feature","properties":{"phone_no_":"07 4222 2656","community_name_":"Elizabeth River","state":"QLD","objectid":180,"lat":-16.496,"long":139.565}},{"geometry":{"type":"Point","coordinates":[141.71800000000007,-12.234999998999967],"crs":null},"id":181,"type":"Feature","properties":{"phone_no_":"07 4222 2693","community_name_":"Pennefather","state":"QLD","objectid":181,"lat":-12.235,"long":141.718}},{"geometry":{"type":"Point","coordinates":[145.30000000000007,-16.051999999999964],"crs":null},"id":182,"type":"Feature","properties":{"phone_no_":"07 4222 2681","community_name_":"China Camp - WP40","state":"QLD","objectid":182,"lat":-16.052,"long":145.3}},{"geometry":{"type":"Point","coordinates":[145.34600000000012,-15.954999998999938],"crs":null},"id":183,"type":"Feature","properties":{"phone_no_":"07 4222 2682","community_name_":"Thompson\u2019s Creek","state":"QLD","objectid":183,"lat":-15.955,"long":145.346}},{"geometry":{"type":"Point","coordinates":[141.2800000000001,-17.047000000999958],"crs":null},"id":184,"type":"Feature","properties":{"phone_no_":"07 4222 2689","community_name_":"Myra Vale","state":"QLD","objectid":184,"lat":-17.047,"long":141.28}},{"geometry":{"type":"Point","coordinates":[136.67300000000012,-15.607999999999947],"crs":null},"id":185,"type":"Feature","properties":{"phone_no_":"08 8933 9019","community_name_":"Black Craggy Island","state":"NT","objectid":185,"lat":-15.608,"long":136.673}},{"geometry":{"type":"Point","coordinates":[144.99900000000002,-17.125000000999933],"crs":null},"id":186,"type":"Feature","properties":{"phone_no_":"07 4222 2692","community_name_":"Wungu","state":"QLD","objectid":186,"lat":-17.125,"long":144.999}},{"geometry":{"type":"Point","coordinates":[116.11000000000001,-23.481000000999927],"crs":null},"id":187,"type":"Feature","properties":{"phone_no_":"08 9946 2000","community_name_":"Ullawarra","state":"WA","objectid":187,"lat":-23.481,"long":116.11}},{"geometry":{"type":"Point","coordinates":[117.2120000000001,-20.803999999999974],"crs":null},"id":188,"type":"Feature","properties":{"phone_no_":"08 9120 8024","community_name_":"Mingullatharndo","state":"WA","objectid":188,"lat":-20.804,"long":117.212}},{"geometry":{"type":"Point","coordinates":[115.62700000000007,-21.843999999999937],"crs":null},"id":189,"type":"Feature","properties":{"phone_no_":"08 9120 8003","community_name_":"Jundaru","state":"WA","objectid":189,"lat":-21.844,"long":115.627}},{"geometry":{"type":"Point","coordinates":[116.80600000000004,-21.013999999999953],"crs":null},"id":190,"type":"Feature","properties":{"phone_no_":"08 9120 8006","community_name_":"Weymul - WP40","state":"WA","objectid":190,"lat":-21.014,"long":116.806}},{"geometry":{"type":"Point","coordinates":[118.98200000000008,-20.354000000999974],"crs":null},"id":191,"type":"Feature","properties":{"phone_no_":"08 9120 8005","community_name_":"Marta Marta","state":"WA","objectid":191,"lat":-20.354,"long":118.982}},{"geometry":{"type":"Point","coordinates":[115.63900000000001,-28.83299999999997],"crs":null},"id":192,"type":"Feature","properties":{"phone_no_":"08 9950 0402","community_name_":"Bundy Bunna","state":"WA","objectid":192,"lat":-28.833,"long":115.639}},{"geometry":{"type":"Point","coordinates":[132.0440000000001,-23.734999999999957],"crs":null},"id":193,"type":"Feature","properties":{"phone_no_":"08 8912 0651","community_name_":"Lunthurra","state":"NT","objectid":193,"lat":-23.735,"long":132.044}},{"geometry":{"type":"Point","coordinates":[132.8280000000001,-23.914000000999977],"crs":null},"id":194,"type":"Feature","properties":{"phone_no_":"08 8912 0652","community_name_":"Merral Ntarrakala","state":"NT","objectid":194,"lat":-23.914,"long":132.828}},{"geometry":{"type":"Point","coordinates":[134.2360000000001,-19.543999999999983],"crs":null},"id":195,"type":"Feature","properties":{"phone_no_":"08 8933 9022","community_name_":"Wiitin","state":"NT","objectid":195,"lat":-19.544,"long":134.236}},{"geometry":{"type":"Point","coordinates":[122.66300000000001,-16.795999999999935],"crs":null},"id":196,"type":"Feature","properties":{"phone_no_":"08 9118 3028","community_name_":"Goombaragin","state":"WA","objectid":196,"lat":-16.796,"long":122.663}},{"geometry":{"type":"Point","coordinates":[122.55000000000007,-16.860000000999946],"crs":null},"id":197,"type":"Feature","properties":{"phone_no_":"08 9118 3031","community_name_":"Gnylmarung","state":"WA","objectid":197,"lat":-16.86,"long":122.55}},{"geometry":{"type":"Point","coordinates":[122.53800000000001,-16.83500000099997],"crs":null},"id":198,"type":"Feature","properties":{"phone_no_":"08 9118 3027","community_name_":"Map WP40","state":"WA","objectid":198,"lat":-16.835,"long":122.538}},{"geometry":{"type":"Point","coordinates":[123.03200000000004,-16.42199999999997],"crs":null},"id":199,"type":"Feature","properties":{"phone_no_":"08 9118 3032","community_name_":"Gumbarnum","state":"WA","objectid":199,"lat":-16.422,"long":123.032}},{"geometry":{"type":"Point","coordinates":[122.58900000000006,-16.97600000099993],"crs":null},"id":200,"type":"Feature","properties":{"phone_no_":"08 9118 3029","community_name_":"Banana Well","state":"WA","objectid":200,"lat":-16.976,"long":122.589}},{"geometry":{"type":"Point","coordinates":[135.87400000000002,-34.553999999999974],"crs":null},"id":201,"type":"Feature","properties":{"phone_no_":"08 7605 8502","community_name_":"Poonindie","state":"SA","objectid":201,"lat":-34.554,"long":135.874}},{"geometry":{"type":"Point","coordinates":[135.69400000000007,-34.62799999999993],"crs":null},"id":202,"type":"Feature","properties":{"phone_no_":"08 7605 8501","community_name_":"Kuranya","state":"SA","objectid":202,"lat":-34.628,"long":135.694}},{"geometry":{"type":"Point","coordinates":[133.9330000000001,-32.32099999999997],"crs":null},"id":203,"type":"Feature","properties":{"phone_no_":"08 7600 0111","community_name_":"Munda and Wanna Mar","state":"SA","objectid":203,"lat":-32.321,"long":133.933}},{"geometry":{"type":"Point","coordinates":[133.8950000000001,-18.639000000999943],"crs":null},"id":204,"type":"Feature","properties":{"phone_no_":"08 8933 9020","community_name_":"Muckaty","state":"NT","objectid":204,"lat":-18.639,"long":133.895}},{"geometry":{"type":"Point","coordinates":[135.4050000000001,-19.42100000099998],"crs":null},"id":205,"type":"Feature","properties":{"phone_no_":"08 8933 9021","community_name_":"Ngurrara - WP40","state":"NT","objectid":205,"lat":-19.421,"long":135.405}},{"geometry":{"type":"Point","coordinates":[136.92500000000007,-19.598000000999946],"crs":null},"id":206,"type":"Feature","properties":{"phone_no_":"08 8933 9023","community_name_":"Burudu","state":"NT","objectid":206,"lat":-19.598,"long":136.925}},{"geometry":{"type":"Point","coordinates":[129.73300000000006,-20.583999999999946],"crs":null},"id":207,"type":"Feature","properties":{"phone_no_":"08 8912 0644","community_name_":"Mungurrupa","state":"NT","objectid":207,"lat":-20.584,"long":129.733}},{"geometry":{"type":"Point","coordinates":[125.75000000000011,-17.454999999999927],"crs":null},"id":208,"type":"Feature","properties":{"phone_no_":"08 9118 3026","community_name_":"Munmural","state":"WA","objectid":208,"lat":-17.455,"long":125.75}},{"geometry":{"type":"Point","coordinates":[125.61000000000001,-18.172999999999945],"crs":null},"id":209,"type":"Feature","properties":{"phone_no_":"08 9118 3033","community_name_":"Bungardi","state":"WA","objectid":209,"lat":-18.173,"long":125.61}},{"geometry":{"type":"Point","coordinates":[127.70900000000006,-18.260999999999967],"crs":null},"id":210,"type":"Feature","properties":{"phone_no_":"08 9118 6030","community_name_":"Burraluba Yura Ngurra","state":"WA","objectid":210,"lat":-18.261,"long":127.709}},{"geometry":{"type":"Point","coordinates":[127.75000000000011,-18.13299999999998],"crs":null},"id":211,"type":"Feature","properties":{"phone_no_":"08 9118 6005","community_name_":"Barangma Boongaray WP40","state":"WA","objectid":211,"lat":-18.133,"long":127.75}},{"geometry":{"type":"Point","coordinates":[128.06100000000004,-17.200999999999965],"crs":null},"id":212,"type":"Feature","properties":{"phone_no_":"08 9118 6003","community_name_":"Norton Bore - WP40","state":"WA","objectid":212,"lat":-17.201,"long":128.061}},{"geometry":{"type":"Point","coordinates":[130.64200000000005,-16.487000000999956],"crs":null},"id":213,"type":"Feature","properties":{"phone_no_":"08 8934 8005","community_name_":"Lingarra - WP40","state":"NT","objectid":213,"lat":-16.487,"long":130.642}},{"geometry":{"type":"Point","coordinates":[130.93400000000008,-15.561999999999955],"crs":null},"id":214,"type":"Feature","properties":{"phone_no_":"08 8934 8004","community_name_":"Fitzroy Station - WP40","state":"NT","objectid":214,"lat":-15.562,"long":130.934}},{"geometry":{"type":"Point","coordinates":[136.86,-16.05099999999993],"crs":null},"id":215,"type":"Feature","properties":{"phone_no_":"08 8933 9026","community_name_":"Wonmurri","state":"NT","objectid":215,"lat":-16.051,"long":136.86}},{"geometry":{"type":"Point","coordinates":[137.04300000000012,-16.474999999999966],"crs":null},"id":216,"type":"Feature","properties":{"phone_no_":"08 8933 9027","community_name_":"Wundigalla - WP40","state":"NT","objectid":216,"lat":-16.475,"long":137.043}},{"geometry":{"type":"Point","coordinates":[136.76800000000003,-16.179000000999963],"crs":null},"id":217,"type":"Feature","properties":{"phone_no_":"08 8933 9025","community_name_":"Budjanga","state":"NT","objectid":217,"lat":-16.179,"long":136.768}},{"geometry":{"type":"Point","coordinates":[135.61800000000005,-11.960999998999966],"crs":null},"id":218,"type":"Feature","properties":{"phone_no_":"08 8934 9010","community_name_":"Dhayirri (Elcho Is)","state":"NT","objectid":218,"lat":-11.961,"long":135.618}},{"geometry":{"type":"Point","coordinates":[135.70000000000005,-11.938999998999975],"crs":null},"id":219,"type":"Feature","properties":{"phone_no_":"08 8934 9038","community_name_":"Watdagawuy","state":"NT","objectid":219,"lat":-11.939,"long":135.7}},{"geometry":{"type":"Point","coordinates":[136.77510000000007,-16.19855999999993],"crs":null},"id":220,"type":"Feature","properties":{"phone_no_":"08 8933 9024","community_name_":"Bull Rush","state":"NT","objectid":220,"lat":-16.19856,"long":136.7751}},{"geometry":{"type":"Point","coordinates":[135.87300000000005,-11.759999999999934],"crs":null},"id":221,"type":"Feature","properties":{"phone_no_":"08 8934 9039","community_name_":"Nanginyburra (Elcho Island)","state":"NT","objectid":221,"lat":-11.76,"long":135.873}},{"geometry":{"type":"Point","coordinates":[135.82200000000012,-11.916999999999973],"crs":null},"id":222,"type":"Feature","properties":{"phone_no_":"08 8934 9022","community_name_":"Gulumarri (Elcho Is)","state":"NT","objectid":222,"lat":-11.917,"long":135.822}},{"geometry":{"type":"Point","coordinates":[135.78100000000006,-11.910999999999945],"crs":null},"id":223,"type":"Feature","properties":{"phone_no_":"08 8934 9026","community_name_":"Gitan (Elcho Is)","state":"NT","objectid":223,"lat":-11.911,"long":135.781}},{"geometry":{"type":"Point","coordinates":[135.7030000000001,-12.045999999999935],"crs":null},"id":224,"type":"Feature","properties":{"phone_no_":"08 8934 9025","community_name_":"Bullariny (Elcho Is)","state":"NT","objectid":224,"lat":-12.046,"long":135.703}},{"geometry":{"type":"Point","coordinates":[134.01900000000012,-23.35699999999997],"crs":null},"id":225,"type":"Feature","properties":{"phone_no_":"08 8912 0664","community_name_":"Black Tank South","state":"NT","objectid":225,"lat":-23.357,"long":134.019}},{"geometry":{"type":"Point","coordinates":[135.54600000000005,-12.088999999999942],"crs":null},"id":226,"type":"Feature","properties":{"phone_no_":"08 8934 9037","community_name_":"Nikawu","state":"NT","objectid":226,"lat":-12.089,"long":135.546}},{"geometry":{"type":"Point","coordinates":[135.47400000000005,-16.21200000099998],"crs":null},"id":227,"type":"Feature","properties":{"phone_no_":"08 8933 9030","community_name_":"Bauhinia Downs","state":"NT","objectid":227,"lat":-16.212,"long":135.474}},{"geometry":{"type":"Point","coordinates":[136.8370000000001,-16.00299999999993],"crs":null},"id":228,"type":"Feature","properties":{"phone_no_":"08 8933 9029","community_name_":"Manangoora - WP40","state":"NT","objectid":228,"lat":-16.003,"long":136.837}},{"geometry":{"type":"Point","coordinates":[136.87800000000004,-16.267999999999972],"crs":null},"id":229,"type":"Feature","properties":{"phone_no_":"08 8933 9028","community_name_":"Budjana","state":"NT","objectid":229,"lat":-16.268,"long":136.878}},{"geometry":{"type":"Point","coordinates":[136.45600000000002,-13.81899999999996],"crs":null},"id":230,"type":"Feature","properties":{"phone_no_":"08 8934 9046","community_name_":"Ngadunuyerrk (Groote Is)","state":"NT","objectid":230,"lat":-13.819,"long":136.456}},{"geometry":{"type":"Point","coordinates":[136.5150000000001,-14.136999998999954],"crs":null},"id":231,"type":"Feature","properties":{"phone_no_":"08 8934 9044","community_name_":"Leske Pools (Groote Is)","state":"NT","objectid":231,"lat":-14.137,"long":136.515}},{"geometry":{"type":"Point","coordinates":[136.77800000000002,-13.863999999999976],"crs":null},"id":232,"type":"Feature","properties":{"phone_no_":"08 8934 9045","community_name_":"Akwalirrumanja (Groote Is)","state":"NT","objectid":232,"lat":-13.864,"long":136.778}},{"geometry":{"type":"Point","coordinates":[132.1640000000001,-11.169999999999959],"crs":null},"id":233,"type":"Feature","properties":{"phone_no_":"08 8919 4328","community_name_":"Gumeragi","state":"NT","objectid":233,"lat":-11.17,"long":132.164}},{"geometry":{"type":"Point","coordinates":[143.87400000000002,-14.546999999999969],"crs":null},"id":234,"type":"Feature","properties":{"phone_no_":"07 4222 2695","community_name_":"Marina Plains","state":"QLD","objectid":234,"lat":-14.547,"long":143.874}},{"geometry":{"type":"Point","coordinates":[134.29600000000005,-12.212999998999976],"crs":null},"id":235,"type":"Feature","properties":{"phone_no_":"08 8934 9005","community_name_":"Nangak","state":"NT","objectid":235,"lat":-12.213,"long":134.296}},{"geometry":{"type":"Point","coordinates":[133.43200000000002,-11.612999999999943],"crs":null},"id":236,"type":"Feature","properties":{"phone_no_":"08 8934 9047","community_name_":"Wigu (Goulburn Is)","state":"NT","objectid":236,"lat":-11.613,"long":133.432}},{"geometry":{"type":"Point","coordinates":[133.45400000000006,-11.593999998999948],"crs":null},"id":237,"type":"Feature","properties":{"phone_no_":"08 8934 9048","community_name_":"Amatjatpalk (Goulburn Is)","state":"NT","objectid":237,"lat":-11.594,"long":133.454}},{"geometry":{"type":"Point","coordinates":[142.67000000000007,-12.660999999999945],"crs":null},"id":238,"type":"Feature","properties":{"phone_no_":"07 4222 2667","community_name_":"Batavia Downs","state":"QLD","objectid":238,"lat":-12.661,"long":142.67}},{"geometry":{"type":"Point","coordinates":[135.02100000000007,-12.279999998999926],"crs":null},"id":239,"type":"Feature","properties":{"phone_no_":"08 8934 9050","community_name_":"Garanydjirr","state":"NT","objectid":239,"lat":-12.28,"long":135.021}},{"geometry":{"type":"Point","coordinates":[130.80100000000004,-11.814999998999951],"crs":null},"id":240,"type":"Feature","properties":{"phone_no_":"08 8919 4322","community_name_":"Takapimiliyi Creek (Melville Is)","state":"NT","objectid":240,"lat":-11.815,"long":130.801}},{"geometry":{"type":"Point","coordinates":[141.711,-15.40399999899995],"crs":null},"id":241,"type":"Feature","properties":{"phone_no_":"07 4222 2698","community_name_":"The Crossing","state":"QLD","objectid":241,"lat":-15.404,"long":141.711}},{"geometry":{"type":"Point","coordinates":[144.81100000000004,-15.241999998999972],"crs":null},"id":242,"type":"Feature","properties":{"phone_no_":"07 4222 2697","community_name_":"Melsonby","state":"QLD","objectid":242,"lat":-15.242,"long":144.811}},{"geometry":{"type":"Point","coordinates":[145.1210000000001,-15.18199999899997],"crs":null},"id":243,"type":"Feature","properties":{"phone_no_":"07 4222 2677","community_name_":"Billy Boil","state":"QLD","objectid":243,"lat":-15.182,"long":145.121}},{"geometry":{"type":"Point","coordinates":[135.7120000000001,-13.573999999999955],"crs":null},"id":244,"type":"Feature","properties":{"phone_no_":"08 8934 9035","community_name_":"Marrkalawa","state":"NT","objectid":244,"lat":-13.574,"long":135.712}},{"geometry":{"type":"Point","coordinates":[130.32000000000005,-13.961999999999932],"crs":null},"id":245,"type":"Feature","properties":{"phone_no_":"08 8919 4327","community_name_":"Kellerk","state":"NT","objectid":245,"lat":-13.962,"long":130.32}},{"geometry":{"type":"Point","coordinates":[132.5530000000001,-11.30099999999993],"crs":null},"id":246,"type":"Feature","properties":{"phone_no_":"08 8934 9049","community_name_":"Marramarrani","state":"NT","objectid":246,"lat":-11.301,"long":132.553}},{"geometry":{"type":"Point","coordinates":[144.99300000000005,-17.402999999999963],"crs":null},"id":247,"type":"Feature","properties":{"phone_no_":"07 4222 2694","community_name_":"Bar Barum","state":"QLD","objectid":247,"lat":-17.403,"long":144.993}},{"geometry":{"type":"Point","coordinates":[141.75900000000001,-15.31699999999995],"crs":null},"id":248,"type":"Feature","properties":{"phone_no_":"07 4222 2696","community_name_":"Wonya Bore","state":"QLD","objectid":248,"lat":-15.317,"long":141.759}},{"geometry":{"type":"Point","coordinates":[135.1780000000001,-12.541999998999927],"crs":null},"id":249,"type":"Feature","properties":{"phone_no_":"08 8934 9052","community_name_":"Nalayindi","state":"NT","objectid":249,"lat":-12.542,"long":135.178}},{"geometry":{"type":"Point","coordinates":[134.3560000000001,-12.789999998999974],"crs":null},"id":250,"type":"Feature","properties":{"phone_no_":"08 8934 9051","community_name_":"Yamini","state":"NT","objectid":250,"lat":-12.79,"long":134.356}},{"geometry":{"type":"Point","coordinates":[130.16600000000005,-26.298999999999978],"crs":null},"id":251,"type":"Feature","properties":{"phone_no_":"08 8912 0661","community_name_":"Tankaanu","state":"SA","objectid":251,"lat":-26.299,"long":130.166}},{"geometry":{"type":"Point","coordinates":[132.192,-26.251000000999966],"crs":null},"id":252,"type":"Feature","properties":{"phone_no_":"08 8912 0659","community_name_":"Aeroplane 1","state":"SA","objectid":252,"lat":-26.251,"long":132.192}},{"geometry":{"type":"Point","coordinates":[132.06500000000005,-26.36599999999993],"crs":null},"id":253,"type":"Feature","properties":{"phone_no_":"08 8912 0655","community_name_":"Balfour Well","state":"SA","objectid":253,"lat":-26.366,"long":132.065}},{"geometry":{"type":"Point","coordinates":[132.08000000000004,-26.328000000999964],"crs":null},"id":254,"type":"Feature","properties":{"phone_no_":"08 8912 0663","community_name_":"Turkey Bore (Tjutjinpiri)","state":"SA","objectid":254,"lat":-26.328,"long":132.08}},{"geometry":{"type":"Point","coordinates":[122.56900000000007,-16.922000000999958],"crs":null},"id":255,"type":"Feature","properties":{"phone_no_":"08 9118 3034","community_name_":"Murphy Creek","state":"WA","objectid":255,"lat":-16.922,"long":122.569}},{"geometry":{"type":"Point","coordinates":[134.06000000000006,-23.97999999999996],"crs":null},"id":256,"type":"Feature","properties":{"phone_no_":"08 8912 0667","community_name_":"Urremerne","state":"NT","objectid":256,"lat":-23.98,"long":134.06}},{"geometry":{"type":"Point","coordinates":[122.56900000000007,-16.90700000099997],"crs":null},"id":257,"type":"Feature","properties":{"phone_no_":"08 9118 3019","community_name_":"Ngarlann Burr","state":"WA","objectid":257,"lat":-16.907,"long":122.569}},{"geometry":{"type":"Point","coordinates":[133.8760000000001,-23.68399999999997],"crs":null},"id":258,"type":"Feature","properties":{"phone_no_":"08 8912 0668","community_name_":"Hoppy\u2019s Camp","state":"NT","objectid":258,"lat":-23.684,"long":133.876}},{"geometry":{"type":"Point","coordinates":[134.94600000000003,-21.23200000099996],"crs":null},"id":259,"type":"Feature","properties":{"phone_no_":"08 8912 0657","community_name_":"Imperenthe #1","state":"NT","objectid":259,"lat":-21.232,"long":134.946}},{"geometry":{"type":"Point","coordinates":[133.11300000000006,-23.99600000099997],"crs":null},"id":260,"type":"Feature","properties":{"phone_no_":"08 8912 0666","community_name_":"West Waterhouse - WP40","state":"NT","objectid":260,"lat":-23.996,"long":133.113}},{"geometry":{"type":"Point","coordinates":[132.20800000000008,-26.403000000999953],"crs":null},"id":261,"type":"Feature","properties":{"phone_no_":"08 8912 0660","community_name_":"Tjiwuru","state":"SA","objectid":261,"lat":-26.403,"long":132.208}},{"geometry":{"type":"Point","coordinates":[132.33800000000008,-26.323999999999955],"crs":null},"id":262,"type":"Feature","properties":{"phone_no_":"08 8912 0662","community_name_":"Black Hill 3","state":"SA","objectid":262,"lat":-26.324,"long":132.338}},{"geometry":{"type":"Point","coordinates":[132.09400000000005,-26.006999999999948],"crs":null},"id":263,"type":"Feature","properties":{"phone_no_":"08 8912 0656","community_name_":"Eagle Bore","state":"SA","objectid":263,"lat":-26.007,"long":132.094}},{"geometry":{"type":"Point","coordinates":[132.23300000000006,-26.085999999999956],"crs":null},"id":264,"type":"Feature","properties":{"phone_no_":"08 8912 0653","community_name_":"New Well","state":"SA","objectid":264,"lat":-26.086,"long":132.233}},{"geometry":{"type":"Point","coordinates":[131.211,-25.913000000999943],"crs":null},"id":265,"type":"Feature","properties":{"phone_no_":"08 8912 0654","community_name_":"Alpara","state":"NT","objectid":265,"lat":-25.913,"long":131.211}},{"geometry":{"type":"Point","coordinates":[132.11200000000008,-26.813999999999965],"crs":null},"id":266,"type":"Feature","properties":{"phone_no_":"08 8912 0658","community_name_":"Mulga Bore","state":"SA","objectid":266,"lat":-26.814,"long":132.112}},{"geometry":{"type":"Point","coordinates":[132.86300000000006,-24.017999999999972],"crs":null},"id":267,"type":"Feature","properties":{"phone_no_":"08 8912 0669","community_name_":"Mpakaputa","state":"NT","objectid":267,"lat":-24.018,"long":132.863}},{"geometry":{"type":"Point","coordinates":[132.48400000000004,-24.571999999999946],"crs":null},"id":268,"type":"Feature","properties":{"phone_no_":"08 8912 0665","community_name_":"Iltjitjari","state":"NT","objectid":268,"lat":-24.572,"long":132.484}},{"geometry":{"type":"Point","coordinates":[120.19100000000003,-21.90600000099994],"crs":null},"id":269,"type":"Feature","properties":{"phone_no_":"08 9120 8009","community_name_":"Five Mile","state":"WA","objectid":269,"lat":-21.906,"long":120.191}},{"geometry":{"type":"Point","coordinates":[120.15800000000002,-21.85899999999998],"crs":null},"id":270,"type":"Feature","properties":{"phone_no_":"08 9120 8011","community_name_":"Three Mile","state":"WA","objectid":270,"lat":-21.859,"long":120.158}},{"geometry":{"type":"Point","coordinates":[121.60400000000004,-23.595999999999947],"crs":null},"id":271,"type":"Feature","properties":{"phone_no_":"08 9120 8007","community_name_":"Puntawarri","state":"WA","objectid":271,"lat":-23.596,"long":121.604}},{"geometry":{"type":"Point","coordinates":[118.75600000000009,-22.19199999999995],"crs":null},"id":272,"type":"Feature","properties":{"phone_no_":"08 9120 8010","community_name_":"Wirrillimarra","state":"WA","objectid":272,"lat":-22.192,"long":118.756}},{"geometry":{"type":"Point","coordinates":[115.22900000000004,-25.436999999999955],"crs":null},"id":273,"type":"Feature","properties":{"phone_no_":"08 9946 2002","community_name_":"Towrana","state":"WA","objectid":273,"lat":-25.437,"long":115.229}},{"geometry":{"type":"Point","coordinates":[115.19000000000005,-25.819999999999936],"crs":null},"id":274,"type":"Feature","properties":{"phone_no_":"08 9946 2001","community_name_":"Gilroyd","state":"WA","objectid":274,"lat":-25.82,"long":115.19}},{"geometry":{"type":"Point","coordinates":[122.31700000000001,-17.17199999999997],"crs":null},"id":275,"type":"Feature","properties":{"phone_no_":"08 9118 3035","community_name_":"Carnot Springs","state":"WA","objectid":275,"lat":-17.172,"long":122.317}},{"geometry":{"type":"Point","coordinates":[139.1400000000001,-16.755999999999972],"crs":null},"id":276,"type":"Feature","properties":{"phone_no_":"07 4222 2642","community_name_":"Walburdin","state":"QLD","objectid":276,"lat":-16.756,"long":139.14}},{"geometry":{"type":"Point","coordinates":[139.09400000000005,-16.841999999999928],"crs":null},"id":277,"type":"Feature","properties":{"phone_no_":"07 4222 2661","community_name_":"Mayanba","state":"QLD","objectid":277,"lat":-16.842,"long":139.094}},{"geometry":{"type":"Point","coordinates":[139.1590000000001,-16.650000000999967],"crs":null},"id":278,"type":"Feature","properties":{"phone_no_":"07 4222 2644","community_name_":"Slim Creek","state":"QLD","objectid":278,"lat":-16.65,"long":139.159}},{"geometry":{"type":"Point","coordinates":[131.99500000000012,-26.98199999999997],"crs":null},"id":279,"type":"Feature","properties":{"phone_no_":"08 8912 0670","community_name_":"Tjilpil","state":"SA","objectid":279,"lat":-26.982,"long":131.995}},{"geometry":{"type":"Point","coordinates":[136.17000000000007,-15.620999999999981],"crs":null},"id":280,"type":"Feature","properties":{"phone_no_":"08 8933 9036","community_name_":"Pandanus Ridge","state":"NT","objectid":280,"lat":-15.621,"long":136.17}},{"geometry":{"type":"Point","coordinates":[136.54800000000012,-16.08499999999998],"crs":null},"id":281,"type":"Feature","properties":{"phone_no_":"08 8933 9034","community_name_":"20 Mile","state":"NT","objectid":281,"lat":-16.085,"long":136.548}},{"geometry":{"type":"Point","coordinates":[136.6350000000001,-16.121999999999957],"crs":null},"id":282,"type":"Feature","properties":{"phone_no_":"08 8933 9035","community_name_":"Wallaces Outstation","state":"NT","objectid":282,"lat":-16.122,"long":136.635}},{"geometry":{"type":"Point","coordinates":[137.7120000000001,-17.773999999999944],"crs":null},"id":283,"type":"Feature","properties":{"phone_no_":"08 8933 9037","community_name_":"Fish River","state":"NT","objectid":283,"lat":-17.774,"long":137.712}},{"geometry":{"type":"Point","coordinates":[136.97800000000007,-15.743999999999971],"crs":null},"id":284,"type":"Feature","properties":{"phone_no_":"08 8933 9031","community_name_":"Babungi","state":"NT","objectid":284,"lat":-15.744,"long":136.978}},{"geometry":{"type":"Point","coordinates":[134.50486105800007,-12.071973207999974],"crs":null},"id":285,"type":"Feature","properties":{"phone_no_":"08 8934 9055","community_name_":"Berraja","state":"NT","objectid":285,"lat":-12.071,"long":-134.504}},{"geometry":{"type":"Point","coordinates":[141.96500000000003,-15.359999998999967],"crs":null},"id":286,"type":"Feature","properties":{"phone_no_":"07 4222 2614","community_name_":"Shelfo Crossing","state":"QLD","objectid":286,"lat":-15.36,"long":141.965}},{"geometry":{"type":"Point","coordinates":[134.58300000000008,-12.074999998999942],"crs":null},"id":287,"type":"Feature","properties":{"phone_no_":"08 8934 9053","community_name_":"Gupanga","state":"NT","objectid":287,"lat":-12.075,"long":134.583}},{"geometry":{"type":"Point","coordinates":[134.84600000000012,-12.234999998999967],"crs":null},"id":288,"type":"Feature","properties":{"phone_no_":"08 8934 9054","community_name_":"Bundahari","state":"NT","objectid":288,"lat":-12.235,"long":134.846}},{"geometry":{"type":"Point","coordinates":[136.49700000000007,-16.558000000999982],"crs":null},"id":289,"type":"Feature","properties":{"phone_no_":"08 8933 9008","community_name_":"Spring Creek","state":"NT","objectid":289,"lat":-16.558,"long":136.497}},{"geometry":{"type":"Point","coordinates":[144.81600000000003,-15.331999999999937],"crs":null},"id":290,"type":"Feature","properties":{"phone_no_":"07 4222 2611","community_name_":"Normanby","state":"QLD","objectid":290,"lat":-15.332,"long":144.816}},{"geometry":{"type":"Point","coordinates":[142.5490000000001,-13.78099999899996],"crs":null},"id":291,"type":"Feature","properties":{"phone_no_":"07 4222 2623","community_name_":"Merepah","state":"QLD","objectid":291,"lat":-13.781,"long":142.549}},{"geometry":{"type":"Point","coordinates":[127.7292940000001,-18.42955999999998],"crs":null},"id":292,"type":"Feature","properties":{"phone_no_":"08 9118 6013","community_name_":"Ngallawilli","state":"WA","objectid":292,"lat":-18.42956,"long":127.729294}},{"geometry":{"type":"Point","coordinates":[127.78800000000001,-15.54699999899998],"crs":null},"id":293,"type":"Feature","properties":{"phone_no_":"08 9118 6009","community_name_":"Nulla Nulla","state":"WA","objectid":293,"lat":-15.547,"long":127.788}},{"geometry":{"type":"Point","coordinates":[135.692,-14.16599999899995],"crs":null},"id":294,"type":"Feature","properties":{"phone_no_":"08 8934 9057","community_name_":"Wumajbarr","state":"NT","objectid":294,"lat":-14.166,"long":135.692}},{"geometry":{"type":"Point","coordinates":[142.4330000000001,-14.793999998999936],"crs":null},"id":295,"type":"Feature","properties":{"phone_no_":"07 4795 5901","community_name_":"New Strathgordon","state":"QLD","objectid":295,"lat":-14.794,"long":142.433}},{"geometry":{"type":"Point","coordinates":[136.55100000000004,-12.59699999999998],"crs":null},"id":296,"type":"Feature","properties":{"phone_no_":"08 8934 9056","community_name_":"Garrathiya","state":"NT","objectid":296,"lat":-12.597,"long":136.551}},{"geometry":{"type":"Point","coordinates":[134.82000000000005,-12.271999999999935],"crs":null},"id":297,"type":"Feature","properties":{"phone_no_":"08 8934 9058","community_name_":"Gadji","state":"NT","objectid":297,"lat":-12.272,"long":134.82}},{"geometry":{"type":"Point","coordinates":[143.50800000000004,-12.958999998999957],"crs":null},"id":298,"type":"Feature","properties":{"phone_no_":"07 4222 2680","community_name_":"Lockhart Old Site","state":"QLD","objectid":298,"lat":-12.959,"long":143.508}},{"geometry":{"type":"Point","coordinates":[143.17300000000012,-13.419999999999959],"crs":null},"id":299,"type":"Feature","properties":{"phone_no_":"07 4795 5902","community_name_":"Nyacha Wanta","state":"QLD","objectid":299,"lat":-13.42,"long":143.173}},{"geometry":{"type":"Point","coordinates":[137.48000000000002,-17.935000000999935],"crs":null},"id":300,"type":"Feature","properties":{"phone_no_":"08 8933 9032","community_name_":"Gumuluji","state":"NT","objectid":300,"lat":-17.935,"long":137.48}},{"geometry":{"type":"Point","coordinates":[126.71800000000007,-14.123999999999967],"crs":null},"id":301,"type":"Feature","properties":{"phone_no_":"08 9118 6014","community_name_":"Pago","state":"WA","objectid":301,"lat":-14.124,"long":126.718}}],"type":"FeatureCollection","properties":{"exceededTransferLimit":false}}