{"features":[{"geometry":{"type":"Point","coordinates":[123.12283500000001,-22.045586000999947],"crs":null},"id":1,"type":"Feature","properties":{"fid":1,"community_":"Punmu","latitude":-22.045586,"state":"WA","objectid":1,"longitude":123.122835}},{"geometry":{"type":"Point","coordinates":[128.0130600000001,-17.21954999999997],"crs":null},"id":2,"type":"Feature","properties":{"fid":2,"community_":"Violet Valley","latitude":-17.21955,"state":"WA","objectid":2,"longitude":128.01306}},{"geometry":{"type":"Point","coordinates":[126.05794000000003,-18.726629999999943],"crs":null},"id":3,"type":"Feature","properties":{"fid":3,"community_":"Mimbi","latitude":-18.72663,"state":"WA","objectid":3,"longitude":126.05794}},{"geometry":{"type":"Point","coordinates":[128.36003000000005,-16.545159999999953],"crs":null},"id":4,"type":"Feature","properties":{"fid":4,"community_":"Mandangala (Glen Hill)","latitude":-16.54516,"state":"WA","objectid":4,"longitude":128.36003}},{"geometry":{"type":"Point","coordinates":[124.94087500000012,-17.41539400099998],"crs":null},"id":5,"type":"Feature","properties":{"fid":5,"community_":"Windjana Gorge National Park","latitude":-17.415394,"state":"WA","objectid":5,"longitude":124.940875}},{"geometry":{"type":"Point","coordinates":[127.45450000000005,-22.489999999999952],"crs":null},"id":6,"type":"Feature","properties":{"fid":6,"community_":"Kunawarritji","latitude":-22.49,"state":"WA","objectid":6,"longitude":127.4545}},{"geometry":{"type":"Point","coordinates":[136.16878900000006,-22.789519999999982],"crs":null},"id":7,"type":"Feature","properties":{"fid":7,"community_":"Orrtipa-Thurra (Bonya)","latitude":-22.78952,"state":"NT","objectid":7,"longitude":136.168789}},{"geometry":{"type":"Point","coordinates":[124.01050000000009,-18.013399999999933],"crs":null},"id":8,"type":"Feature","properties":{"fid":8,"community_":"Jaelmadangah","latitude":-18.0134,"state":"WA","objectid":8,"longitude":124.0105}},{"geometry":{"type":"Point","coordinates":[125.92750000000001,-16.721110000999943],"crs":null},"id":9,"type":"Feature","properties":{"fid":9,"community_":"Kupungarri","latitude":-16.72111,"state":"WA","objectid":9,"longitude":125.9275}},{"geometry":{"type":"Point","coordinates":[138.97919000000002,-30.583000999999967],"crs":null},"id":10,"type":"Feature","properties":{"fid":10,"community_":"Nepabunna","latitude":-30.583001,"state":"SA","objectid":10,"longitude":138.97919}},{"geometry":{"type":"Point","coordinates":[137.84480000000008,-20.98540000099996],"crs":null},"id":11,"type":"Feature","properties":{"fid":11,"community_":"Alpurrurulam","latitude":-20.9854,"state":"NT","objectid":11,"longitude":137.8448}},{"geometry":{"type":"Point","coordinates":[132.2683300000001,-24.07321000099995],"crs":null},"id":12,"type":"Feature","properties":{"fid":12,"community_":"Areyonga","latitude":-24.07321,"state":"NT","objectid":12,"longitude":132.26833}},{"geometry":{"type":"Point","coordinates":[135.58618,-20.64474999999993],"crs":null},"id":13,"type":"Feature","properties":{"fid":13,"community_":"Canteen Creek","latitude":-20.64475,"state":"NT","objectid":13,"longitude":135.58618}},{"geometry":{"type":"Point","coordinates":[134.45424000000003,-22.802859999999953],"crs":null},"id":14,"type":"Feature","properties":{"fid":14,"community_":"Engawala","latitude":-22.80286,"state":"NT","objectid":14,"longitude":134.45424}},{"geometry":{"type":"Point","coordinates":[131.88223000000005,-23.447739999999953],"crs":null},"id":15,"type":"Feature","properties":{"fid":15,"community_":"Haasts Bluff","latitude":-23.44774,"state":"NT","objectid":15,"longitude":131.88223}},{"geometry":{"type":"Point","coordinates":[132.7533400000001,-22.53505999999993],"crs":null},"id":16,"type":"Feature","properties":{"fid":16,"community_":"Laramba","latitude":-22.53506,"state":"NT","objectid":16,"longitude":132.75334}},{"geometry":{"type":"Point","coordinates":[130.55290000000002,-22.648790000999952],"crs":null},"id":17,"type":"Feature","properties":{"fid":17,"community_":"Nyirripi","latitude":-22.64879,"state":"NT","objectid":17,"longitude":130.5529}},{"geometry":{"type":"Point","coordinates":[134.19824000000006,-20.337309999999945],"crs":null},"id":18,"type":"Feature","properties":{"fid":18,"community_":"Mungkarta","latitude":-20.33731,"state":"NT","objectid":18,"longitude":134.19824}},{"geometry":{"type":"Point","coordinates":[133.99602000000004,-21.506819999999948],"crs":null},"id":19,"type":"Feature","properties":{"fid":19,"community_":"Tara","latitude":-21.50682,"state":"NT","objectid":19,"longitude":133.99602}},{"geometry":{"type":"Point","coordinates":[129.38823000000002,-23.27542999999997],"crs":null},"id":20,"type":"Feature","properties":{"fid":20,"community_":"Walungurru","latitude":-23.27543,"state":"NT","objectid":20,"longitude":129.38823}},{"geometry":{"type":"Point","coordinates":[135.25043000000005,-20.463039999999978],"crs":null},"id":21,"type":"Feature","properties":{"fid":21,"community_":"Wutunugurra","latitude":-20.46304,"state":"NT","objectid":21,"longitude":135.25043}},{"geometry":{"type":"Point","coordinates":[132.20593000000008,-22.259380000999954],"crs":null},"id":22,"type":"Feature","properties":{"fid":22,"community_":"Yuelamu","latitude":-22.25938,"state":"NT","objectid":22,"longitude":132.20593}},{"geometry":{"type":"Point","coordinates":[128.3592400000001,-16.54546000099998],"crs":null},"id":23,"type":"Feature","properties":{"fid":23,"community_":"Glen Hill","latitude":-16.54546,"state":"WA","objectid":23,"longitude":128.35924}},{"geometry":{"type":"Point","coordinates":[128.6145600000001,-18.794559999999933],"crs":null},"id":24,"type":"Feature","properties":{"fid":24,"community_":"Kundat Djaru","latitude":-18.79456,"state":"WA","objectid":24,"longitude":128.61456}}],"type":"FeatureCollection","properties":{"exceededTransferLimit":false}}