{"type": "FeatureCollection", "generated_at": "2026-09-18T11:28:51.770789+00:00", "source": "Northern Territory Government Open Data", "features": [{"type": "Feature", "geometry": {"type": "Point", "coordinates": [131.106, -13.238]}, "properties": {"id": "adelaide-river", "name": "Adelaide River", "kind": "community", "provider": "Telstra", "backhaul": "Optic fibre", "risk": "Not assessed", "resilience": null, "population": null, "region": "Northern Territory", "coverage": "Recorded mobile coverage", "reason": "Risk score not yet assessed for this location", "action": "Confirm local redundancy and backup power with the service provider", "offlinePack": "Available on request", "confidence": "Source location", "facilities": []}}, {"type": "Feature", "geometry": {"type": "Point", "coordinates": [134.407, -21.002]}, "properties": {"id": "ali-curung", "name": "Ali Curung", "kind": "community", "provider": "Telstra/NTG Program", "backhaul": "Optic fibre", "risk": "Medium", "resilience": 51, "population": 494, "region": "Barkly", "coverage": "Moderate", "reason": "Moderate service with limited redundancy", "action": "Add low-cost satellite back-up at community centre", "offlinePack": "Ready · 12 MB", "confidence": "Medium", "facilities": ["Clinic", "School", "Community centre"]}}, {"type": "Feature", "geometry": {"type": "Point", "coordinates": [136.419, -13.85]}, "properties": {"id": "alyangula", "name": "Alyangula", "kind": "community", "provider": "Telstra", "backhaul": "Optic fibre", "risk": "Not assessed", "resilience": null, "population": null, "region": "Northern Territory", "coverage": "Recorded mobile coverage", "reason": "Risk score not yet assessed for this location", "action": "Confirm local redundancy and backup power with the service provider", "offlinePack": "Available on request", "confidence": "Source location", "facilities": []}}, {"type": "Feature", "geometry": {"type": "Point", "coordinates": [135.225, -21.657]}, "properties": {"id": "ampilatwatja", "name": "Ampilatwatja", "kind": "community", "provider": "Project 13", "backhaul": "Microwave radio", "risk": "Not assessed", "resilience": null, "population": null, "region": "Northern Territory", "coverage": "Recorded mobile coverage", "reason": "Risk score not yet assessed for this location", "action": "Confirm local redundancy and backup power with the service provider", "offlinePack": "Available on request", "confidence": "Source location", "facilities": []}}, {"type": "Feature", "geometry": {"type": "Point", "coordinates": [133.936, -23.766]}, "properties": {"id": "amoonguna", "name": "Amoonguna", "kind": "community", "provider": "Telstra", "backhaul": "Microwave radio", "risk": "Not assessed", "resilience": null, "population": null, "region": "Northern Territory", "coverage": "Recorded mobile coverage", "reason": "Risk score not yet assessed for this location", "action": "Confirm local redundancy and backup power with the service provider", "offlinePack": "Available on request", "confidence": "Source location", "facilities": []}}, {"type": "Feature", "geometry": {"type": "Point", "coordinates": [136.459, -13.981]}, "properties": {"id": "angurugu", "name": "Angurugu", "kind": "community", "provider": "Telstra", "backhaul": "Optic fibre", "risk": "Not assessed", "resilience": null, "population": null, "region": "Northern Territory", "coverage": "Recorded mobile coverage", "reason": "Risk score not yet assessed for this location", "action": "Confirm local redundancy and backup power with the service provider", "offlinePack": "Available on request", "confidence": "Source location", "facilities": []}}, {"type": "Feature", "geometry": {"type": "Point", "coordinates": [134.775, -22.088]}, "properties": {"id": "arlparra", "name": "Arlparra", "kind": "community", "provider": "Project 13", "backhaul": "Microwave radio", "risk": "Not assessed", "resilience": null, "population": null, "region": "Northern Territory", "coverage": "Recorded mobile coverage", "reason": "Risk score not yet assessed for this location", "action": "Confirm local redundancy and backup power with the service provider", "offlinePack": "Available on request", "confidence": "Source location", "facilities": []}}, {"type": "Feature", "geometry": {"type": "Point", "coordinates": [134.936, -22.974]}, "properties": {"id": "atitjere", "name": "Atitjere", "kind": "community", "provider": "Telstra", "backhaul": "Microwave radio", "risk": "Not assessed", "resilience": null, "population": null, "region": "Northern Territory", "coverage": "Recorded mobile coverage", "reason": "Risk score not yet assessed for this location", "action": "Confirm local redundancy and backup power with the service provider", "offlinePack": "Available on request", "confidence": "Source location", "facilities": []}}, {"type": "Feature", "geometry": {"type": "Point", "coordinates": [135.826, -19.71]}, "properties": {"id": "barkly-homestead", "name": "Barkly Homestead", "kind": "community", "provider": "Telstra", "backhaul": "Optic fibre", "risk": "Not assessed", "resilience": null, "population": null, "region": "Northern Territory", "coverage": "Recorded mobile coverage", "reason": "Risk score not yet assessed for this location", "action": "Confirm local redundancy and backup power with the service provider", "offlinePack": "Available on request", "confidence": "Source location", "facilities": []}}, {"type": "Feature", "geometry": {"type": "Point", "coordinates": [132.867, -14.524]}, "properties": {"id": "barunga", "name": "Barunga", "kind": "community", "provider": "Telstra", "backhaul": "Optic fibre", "risk": "Not assessed", "resilience": null, "population": null, "region": "Northern Territory", "coverage": "Recorded mobile coverage", "reason": "Risk score not yet assessed for this location", "action": "Confirm local redundancy and backup power with the service provider", "offlinePack": "Available on request", "confidence": "Source location", "facilities": []}}, {"type": "Feature", "geometry": {"type": "Point", "coordinates": [133.889, -21.531]}, "properties": {"id": "barrow-creek", "name": "Barrow Creek", "kind": "community", "provider": "Project 13", "backhaul": "Optic fibre", "risk": "Not assessed", "resilience": null, "population": null, "region": "Northern Territory", "coverage": "Recorded mobile coverage", "reason": "Risk score not yet assessed for this location", "action": "Confirm local redundancy and backup power with the service provider", "offlinePack": "Available on request", "confidence": "Source location", "facilities": []}}, {"type": "Feature", "geometry": {"type": "Point", "coordinates": [131.029, -13.046]}, "properties": {"id": "batchelor", "name": "Batchelor", "kind": "community", "provider": "Telstra", "backhaul": "Optic fibre", "risk": "Not assessed", "resilience": null, "population": null, "region": "Northern Territory", "coverage": "Recorded mobile coverage", "reason": "Risk score not yet assessed for this location", "action": "Confirm local redundancy and backup power with the service provider", "offlinePack": "Available on request", "confidence": "Source location", "facilities": []}}, {"type": "Feature", "geometry": {"type": "Point", "coordinates": [133.114, -14.555]}, "properties": {"id": "beswick", "name": "Beswick", "kind": "community", "provider": "Telstra", "backhaul": "Optic fibre", "risk": "Not assessed", "resilience": null, "population": null, "region": "Northern Territory", "coverage": "Recorded mobile coverage", "reason": "Risk score not yet assessed for this location", "action": "Confirm local redundancy and backup power with the service provider", "offlinePack": "Available on request", "confidence": "Source location", "facilities": []}}, {"type": "Feature", "geometry": {"type": "Point", "coordinates": [136.305, -16.056]}, "properties": {"id": "borroloola", "name": "Borroloola", "kind": "community", "provider": "Telstra", "backhaul": "Optic fibre", "risk": "High", "resilience": 38, "population": 871, "region": "Gulf", "coverage": "Basic", "reason": "Single primary coverage path and high cyclone exposure", "action": "Pre-position satellite terminal and backup power", "offlinePack": "Ready · 18 MB", "confidence": "Medium", "facilities": ["Clinic", "School", "Emergency shelter"]}}, {"type": "Feature", "geometry": {"type": "Point", "coordinates": [134.333, -13.665]}, "properties": {"id": "bulman", "name": "Bulman", "kind": "community", "provider": "Telstra/NTG Program", "backhaul": "Optic fibre", "risk": "Not assessed", "resilience": null, "population": null, "region": "Northern Territory", "coverage": "Recorded mobile coverage", "reason": "Risk score not yet assessed for this location", "action": "Confirm local redundancy and backup power with the service provider", "offlinePack": "Available on request", "confidence": "Source location", "facilities": []}}, {"type": "Feature", "geometry": {"type": "Point", "coordinates": [130.62, -12.818]}, "properties": {"id": "bynoe", "name": "Bynoe", "kind": "community", "provider": "MBSP", "backhaul": "Microwave radio", "risk": "Not assessed", "resilience": null, "population": null, "region": "Northern Territory", "coverage": "Recorded mobile coverage", "reason": "Risk score not yet assessed for this location", "action": "Confirm local redundancy and backup power with the service provider", "offlinePack": "Available on request", "confidence": "Source location", "facilities": []}}, {"type": "Feature", "geometry": {"type": "Point", "coordinates": [130.806, -17.401]}, "properties": {"id": "daguragu", "name": "Daguragu", "kind": "community", "provider": "Telstra", "backhaul": "Optic fibre", "risk": "Not assessed", "resilience": null, "population": null, "region": "Northern Territory", "coverage": "Recorded mobile coverage", "reason": "Risk score not yet assessed for this location", "action": "Confirm local redundancy and backup power with the service provider", "offlinePack": "Available on request", "confidence": "Source location", "facilities": []}}, {"type": "Feature", "geometry": {"type": "Point", "coordinates": [130.711, -13.765]}, "properties": {"id": "daly-river", "name": "Daly River", "kind": "community", "provider": "Telstra", "backhaul": "Optic fibre", "risk": "Not assessed", "resilience": null, "population": null, "region": "Northern Territory", "coverage": "Recorded mobile coverage", "reason": "Risk score not yet assessed for this location", "action": "Confirm local redundancy and backup power with the service provider", "offlinePack": "Available on request", "confidence": "Source location", "facilities": []}}, {"type": "Feature", "geometry": {"type": "Point", "coordinates": [133.386, -16.307]}, "properties": {"id": "daly-waters", "name": "Daly Waters", "kind": "community", "provider": "Telstra", "backhaul": "Optic fibre", "risk": "Not assessed", "resilience": null, "population": null, "region": "Northern Territory", "coverage": "Recorded mobile coverage", "reason": "Risk score not yet assessed for this location", "action": "Confirm local redundancy and backup power with the service provider", "offlinePack": "Available on request", "confidence": "Source location", "facilities": []}}, {"type": "Feature", "geometry": {"type": "Point", "coordinates": [133.541, -17.553]}, "properties": {"id": "elliott", "name": "Elliott", "kind": "community", "provider": "Project 13", "backhaul": "Optic fibre", "risk": "Not assessed", "resilience": null, "population": null, "region": "Northern Territory", "coverage": "Recorded mobile coverage", "reason": "Risk score not yet assessed for this location", "action": "Confirm local redundancy and backup power with the service provider", "offlinePack": "Available on request", "confidence": "Source location", "facilities": []}}, {"type": "Feature", "geometry": {"type": "Point", "coordinates": [133.2, -25.197]}, "properties": {"id": "erldunda", "name": "Erldunda", "kind": "community", "provider": "Telstra", "backhaul": "Optic fibre", "risk": "Not assessed", "resilience": null, "population": null, "region": "Northern Territory", "coverage": "Recorded mobile coverage", "reason": "Risk score not yet assessed for this location", "action": "Confirm local redundancy and backup power with the service provider", "offlinePack": "Available on request", "confidence": "Source location", "facilities": []}}, {"type": "Feature", "geometry": {"type": "Point", "coordinates": [135.566, -12.024]}, "properties": {"id": "galiwinku", "name": "Galiwinku", "kind": "community", "provider": "Arnhem Fibre Program", "backhaul": "Microwave radio", "risk": "Not assessed", "resilience": null, "population": null, "region": "Northern Territory", "coverage": "Recorded mobile coverage", "reason": "Risk score not yet assessed for this location", "action": "Confirm local redundancy and backup power with the service provider", "offlinePack": "Available on request", "confidence": "Source location", "facilities": []}}, {"type": "Feature", "geometry": {"type": "Point", "coordinates": [135.809, -12.503]}, "properties": {"id": "gapuwiyak", "name": "Gapuwiyak", "kind": "community", "provider": "Arnhem Fibre Program", "backhaul": "Optic fibre", "risk": "Not assessed", "resilience": null, "population": null, "region": "Northern Territory", "coverage": "Recorded mobile coverage", "reason": "Risk score not yet assessed for this location", "action": "Confirm local redundancy and backup power with the service provider", "offlinePack": "Available on request", "confidence": "Source location", "facilities": []}}, {"type": "Feature", "geometry": {"type": "Point", "coordinates": [133.052, -12.323]}, "properties": {"id": "gunbalanya", "name": "Gunbalanya", "kind": "community", "provider": "Arnhem Fibre Program", "backhaul": "Optic fibre", "risk": "Not assessed", "resilience": null, "population": null, "region": "Northern Territory", "coverage": "Recorded mobile coverage", "reason": "Risk score not yet assessed for this location", "action": "Confirm local redundancy and backup power with the service provider", "offlinePack": "Available on request", "confidence": "Source location", "facilities": []}}, {"type": "Feature", "geometry": {"type": "Point", "coordinates": [132.777, -23.943]}, "properties": {"id": "hermannsburg", "name": "Hermannsburg", "kind": "community", "provider": "Project 13", "backhaul": "Optic fibre", "risk": "Not assessed", "resilience": null, "population": null, "region": "Northern Territory", "coverage": "Recorded mobile coverage", "reason": "Risk score not yet assessed for this location", "action": "Confirm local redundancy and backup power with the service provider", "offlinePack": "Available on request", "confidence": "Source location", "facilities": []}}, {"type": "Feature", "geometry": {"type": "Point", "coordinates": [132.836, -12.674]}, "properties": {"id": "jabiru", "name": "Jabiru", "kind": "community", "provider": "Telstra", "backhaul": "Optic fibre", "risk": "Not assessed", "resilience": null, "population": null, "region": "Northern Territory", "coverage": "Recorded mobile coverage", "reason": "Risk score not yet assessed for this location", "action": "Confirm local redundancy and backup power with the service provider", "offlinePack": "Available on request", "confidence": "Source location", "facilities": []}}, {"type": "Feature", "geometry": {"type": "Point", "coordinates": [130.834, -17.446]}, "properties": {"id": "kalkaringi", "name": "Kalkaringi", "kind": "community", "provider": "Telstra", "backhaul": "Optic fibre", "risk": "Not assessed", "resilience": null, "population": null, "region": "Northern Territory", "coverage": "Recorded mobile coverage", "reason": "Risk score not yet assessed for this location", "action": "Confirm local redundancy and backup power with the service provider", "offlinePack": "Available on request", "confidence": "Source location", "facilities": []}}, {"type": "Feature", "geometry": {"type": "Point", "coordinates": [129.079, -24.876]}, "properties": {"id": "kaltukatjara", "name": "Kaltukatjara", "kind": "community", "provider": "Telstra/NTG Program", "backhaul": "Optic fibre", "risk": "Not assessed", "resilience": null, "population": null, "region": "Northern Territory", "coverage": "Recorded mobile coverage", "reason": "Risk score not yet assessed for this location", "action": "Confirm local redundancy and backup power with the service provider", "offlinePack": "Available on request", "confidence": "Source location", "facilities": []}}, {"type": "Feature", "geometry": {"type": "Point", "coordinates": [129.387, -23.276]}, "properties": {"id": "kintore", "name": "Kintore", "kind": "community", "provider": "Telstra/NTG Program", "backhaul": "Microwave radio", "risk": "Not assessed", "resilience": null, "population": null, "region": "Northern Territory", "coverage": "Recorded mobile coverage", "reason": "Risk score not yet assessed for this location", "action": "Confirm local redundancy and backup power with the service provider", "offlinePack": "Available on request", "confidence": "Source location", "facilities": []}}, {"type": "Feature", "geometry": {"type": "Point", "coordinates": [130.636, -18.334]}, "properties": {"id": "lajamanu", "name": "Lajamanu", "kind": "community", "provider": "Telstra", "backhaul": "Optic fibre", "risk": "Not assessed", "resilience": null, "population": null, "region": "Northern Territory", "coverage": "Recorded mobile coverage", "reason": "Risk score not yet assessed for this location", "action": "Confirm local redundancy and backup power with the service provider", "offlinePack": "Available on request", "confidence": "Source location", "facilities": []}}, {"type": "Feature", "geometry": {"type": "Point", "coordinates": [136.091, -16.435]}, "properties": {"id": "mcarthur-river", "name": "McArthur River", "kind": "community", "provider": "Telstra", "backhaul": "Optic fibre", "risk": "Not assessed", "resilience": null, "population": null, "region": "Northern Territory", "coverage": "Recorded mobile coverage", "reason": "Risk score not yet assessed for this location", "action": "Confirm local redundancy and backup power with the service provider", "offlinePack": "Available on request", "confidence": "Source location", "facilities": []}}, {"type": "Feature", "geometry": {"type": "Point", "coordinates": [134.229, -12.05]}, "properties": {"id": "maningrida", "name": "Maningrida", "kind": "community", "provider": "Arnhem Fibre Program", "backhaul": "Optic fibre", "risk": "Not assessed", "resilience": null, "population": null, "region": "Northern Territory", "coverage": "Recorded mobile coverage", "reason": "Risk score not yet assessed for this location", "action": "Confirm local redundancy and backup power with the service provider", "offlinePack": "Available on request", "confidence": "Source location", "facilities": []}}, {"type": "Feature", "geometry": {"type": "Point", "coordinates": [132.828, -14.266]}, "properties": {"id": "manyallaluk", "name": "Manyallaluk", "kind": "community", "provider": "Telstra/NTG Program", "backhaul": "Microwave radio", "risk": "Not assessed", "resilience": null, "population": null, "region": "Northern Territory", "coverage": "Recorded mobile coverage", "reason": "Risk score not yet assessed for this location", "action": "Confirm local redundancy and backup power with the service provider", "offlinePack": "Available on request", "confidence": "Source location", "facilities": []}}, {"type": "Feature", "geometry": {"type": "Point", "coordinates": [133.066, -14.923]}, "properties": {"id": "mataranka", "name": "Mataranka", "kind": "community", "provider": "Telstra", "backhaul": "Optic fibre", "risk": "Not assessed", "resilience": null, "population": null, "region": "Northern Territory", "coverage": "Recorded mobile coverage", "reason": "Risk score not yet assessed for this location", "action": "Confirm local redundancy and backup power with the service provider", "offlinePack": "Available on request", "confidence": "Source location", "facilities": []}}, {"type": "Feature", "geometry": {"type": "Point", "coordinates": [130.672, -11.422]}, "properties": {"id": "milikapiti", "name": "Milikapiti", "kind": "community", "provider": "Telstra", "backhaul": "Microwave radio", "risk": "Not assessed", "resilience": null, "population": null, "region": "Northern Territory", "coverage": "Recorded mobile coverage", "reason": "Risk score not yet assessed for this location", "action": "Confirm local redundancy and backup power with the service provider", "offlinePack": "Available on request", "confidence": "Source location", "facilities": []}}, {"type": "Feature", "geometry": {"type": "Point", "coordinates": [134.916, -12.104]}, "properties": {"id": "milingimbi", "name": "Milingimbi", "kind": "community", "provider": "Arnhem Fibre Program", "backhaul": "Microwave radio", "risk": "Not assessed", "resilience": null, "population": null, "region": "Northern Territory", "coverage": "Recorded mobile coverage", "reason": "Risk score not yet assessed for this location", "action": "Confirm local redundancy and backup power with the service provider", "offlinePack": "Available on request", "confidence": "Source location", "facilities": []}}, {"type": "Feature", "geometry": {"type": "Point", "coordinates": [132.579, -11.151]}, "properties": {"id": "minjilang", "name": "Minjilang", "kind": "community", "provider": "MBSP", "backhaul": "Microwave radio", "risk": "Not assessed", "resilience": null, "population": null, "region": "Northern Territory", "coverage": "Recorded mobile coverage", "reason": "Risk score not yet assessed for this location", "action": "Confirm local redundancy and backup power with the service provider", "offlinePack": "Available on request", "confidence": "Source location", "facilities": []}}, {"type": "Feature", "geometry": {"type": "Point", "coordinates": [134.082, -15.222]}, "properties": {"id": "minyerri", "name": "Minyerri", "kind": "community", "provider": "Telstra/NTG Program", "backhaul": "Optic fibre", "risk": "Not assessed", "resilience": null, "population": null, "region": "Northern Territory", "coverage": "Recorded mobile coverage", "reason": "Risk score not yet assessed for this location", "action": "Confirm local redundancy and backup power with the service provider", "offlinePack": "Available on request", "confidence": "Source location", "facilities": []}}, {"type": "Feature", "geometry": {"type": "Point", "coordinates": [131.273, -23.266]}, "properties": {"id": "mount-liebig", "name": "Mount Liebig", "kind": "community", "provider": "MBSP", "backhaul": "Optic fibre", "risk": "Not assessed", "resilience": null, "population": null, "region": "Northern Territory", "coverage": "Recorded mobile coverage", "reason": "Risk score not yet assessed for this location", "action": "Confirm local redundancy and backup power with the service provider", "offlinePack": "Available on request", "confidence": "Source location", "facilities": []}}, {"type": "Feature", "geometry": {"type": "Point", "coordinates": [131.066, -25.349]}, "properties": {"id": "mutitjulu", "name": "Mutitjulu", "kind": "community", "provider": "Project 13", "backhaul": "Optic fibre", "risk": "Not assessed", "resilience": null, "population": null, "region": "Northern Territory", "coverage": "Recorded mobile coverage", "reason": "Risk score not yet assessed for this location", "action": "Confirm local redundancy and backup power with the service provider", "offlinePack": "Available on request", "confidence": "Source location", "facilities": []}}, {"type": "Feature", "geometry": {"type": "Point", "coordinates": [129.878, -14.349]}, "properties": {"id": "nganmarriyanga", "name": "Nganmarriyanga", "kind": "community", "provider": "Project 13", "backhaul": "Optic fibre", "risk": "Not assessed", "resilience": null, "population": null, "region": "Northern Territory", "coverage": "Recorded mobile coverage", "reason": "Risk score not yet assessed for this location", "action": "Confirm local redundancy and backup power with the service provider", "offlinePack": "Available on request", "confidence": "Source location", "facilities": []}}, {"type": "Feature", "geometry": {"type": "Point", "coordinates": [133.411, -17.377]}, "properties": {"id": "newcastle-waters", "name": "Newcastle Waters", "kind": "community", "provider": "Project 13", "backhaul": "Optic fibre", "risk": "Not assessed", "resilience": null, "population": null, "region": "Northern Territory", "coverage": "Recorded mobile coverage", "reason": "Risk score not yet assessed for this location", "action": "Confirm local redundancy and backup power with the service provider", "offlinePack": "Available on request", "confidence": "Source location", "facilities": []}}, {"type": "Feature", "geometry": {"type": "Point", "coordinates": [134.729, -14.732]}, "properties": {"id": "ngukurr", "name": "Ngukurr", "kind": "community", "provider": "Project 13", "backhaul": "Optic fibre", "risk": "High", "resilience": 46, "population": 1006, "region": "Roper Gulf", "coverage": "Basic", "reason": "Limited alternative coverage during wet-season access constraints", "action": "Add portable cell capability to wet-season response cache", "offlinePack": "Ready · 14 MB", "confidence": "Medium", "facilities": ["Clinic", "School", "Airstrip"]}}, {"type": "Feature", "geometry": {"type": "Point", "coordinates": [133.418, -22.132]}, "properties": {"id": "nturiya", "name": "Nturiya", "kind": "community", "provider": "Telstra", "backhaul": "Optic fibre", "risk": "Not assessed", "resilience": null, "population": null, "region": "Northern Territory", "coverage": "Recorded mobile coverage", "reason": "Risk score not yet assessed for this location", "action": "Confirm local redundancy and backup power with the service provider", "offlinePack": "Available on request", "confidence": "Source location", "facilities": []}}, {"type": "Feature", "geometry": {"type": "Point", "coordinates": [135.741, -14.277]}, "properties": {"id": "numbulwar", "name": "Numbulwar", "kind": "community", "provider": "Project 13", "backhaul": "Optic fibre", "risk": "Not assessed", "resilience": null, "population": null, "region": "Northern Territory", "coverage": "Recorded mobile coverage", "reason": "Risk score not yet assessed for this location", "action": "Confirm local redundancy and backup power with the service provider", "offlinePack": "Available on request", "confidence": "Source location", "facilities": []}}, {"type": "Feature", "geometry": {"type": "Point", "coordinates": [131.913, -23.205]}, "properties": {"id": "papunya", "name": "Papunya", "kind": "community", "provider": "Project 13", "backhaul": "Optic fibre", "risk": "Medium", "resilience": 57, "population": 375, "region": "Central Desert", "coverage": "Moderate", "reason": "Long road distance to alternative service points", "action": "Maintain offline health and emergency information pack", "offlinePack": "Ready · 11 MB", "confidence": "High", "facilities": ["Health centre", "School", "Community centre"]}}, {"type": "Feature", "geometry": {"type": "Point", "coordinates": [130.076, -14.151]}, "properties": {"id": "peppimenarti", "name": "Peppimenarti", "kind": "community", "provider": "Project 13", "backhaul": "Optic fibre", "risk": "Not assessed", "resilience": null, "population": null, "region": "Northern Territory", "coverage": "Recorded mobile coverage", "reason": "Risk score not yet assessed for this location", "action": "Confirm local redundancy and backup power with the service provider", "offlinePack": "Available on request", "confidence": "Source location", "facilities": []}}, {"type": "Feature", "geometry": {"type": "Point", "coordinates": [131.833, -13.822]}, "properties": {"id": "pine-creek", "name": "Pine Creek", "kind": "community", "provider": "Telstra", "backhaul": "Optic fibre", "risk": "Not assessed", "resilience": null, "population": null, "region": "Northern Territory", "coverage": "Recorded mobile coverage", "reason": "Risk score not yet assessed for this location", "action": "Confirm local redundancy and backup power with the service provider", "offlinePack": "Available on request", "confidence": "Source location", "facilities": []}}, {"type": "Feature", "geometry": {"type": "Point", "coordinates": [130.422, -11.409]}, "properties": {"id": "pirlangimpi", "name": "Pirlangimpi", "kind": "community", "provider": "Telstra", "backhaul": "Microwave radio", "risk": "Not assessed", "resilience": null, "population": null, "region": "Northern Territory", "coverage": "Recorded mobile coverage", "reason": "Risk score not yet assessed for this location", "action": "Confirm local redundancy and backup power with the service provider", "offlinePack": "Available on request", "confidence": "Source location", "facilities": []}}, {"type": "Feature", "geometry": {"type": "Point", "coordinates": [134.93, -12.328]}, "properties": {"id": "ramingining", "name": "Ramingining", "kind": "community", "provider": "Arnhem Fibre Program", "backhaul": "Optic fibre", "risk": "Not assessed", "resilience": null, "population": null, "region": "Northern Territory", "coverage": "Recorded mobile coverage", "reason": "Risk score not yet assessed for this location", "action": "Confirm local redundancy and backup power with the service provider", "offlinePack": "Available on request", "confidence": "Source location", "facilities": []}}, {"type": "Feature", "geometry": {"type": "Point", "coordinates": [134.372, -24.129]}, "properties": {"id": "santa-teresa", "name": "Santa Teresa", "kind": "community", "provider": "Telstra", "backhaul": "Microwave radio", "risk": "Not assessed", "resilience": null, "population": null, "region": "Northern Territory", "coverage": "Recorded mobile coverage", "reason": "Risk score not yet assessed for this location", "action": "Confirm local redundancy and backup power with the service provider", "offlinePack": "Available on request", "confidence": "Source location", "facilities": []}}, {"type": "Feature", "geometry": {"type": "Point", "coordinates": [130.317, -20.544]}, "properties": {"id": "tanami", "name": "Tanami", "kind": "community", "provider": "Telstra", "backhaul": "Microwave radio", "risk": "Not assessed", "resilience": null, "population": null, "region": "Northern Territory", "coverage": "Recorded mobile coverage", "reason": "Risk score not yet assessed for this location", "action": "Confirm local redundancy and backup power with the service provider", "offlinePack": "Available on request", "confidence": "Source location", "facilities": []}}, {"type": "Feature", "geometry": {"type": "Point", "coordinates": [130.469, -15.644]}, "properties": {"id": "timber-creek", "name": "Timber Creek", "kind": "community", "provider": "Telstra", "backhaul": "Optic fibre", "risk": "Not assessed", "resilience": null, "population": null, "region": "Northern Territory", "coverage": "Recorded mobile coverage", "reason": "Risk score not yet assessed for this location", "action": "Confirm local redundancy and backup power with the service provider", "offlinePack": "Available on request", "confidence": "Source location", "facilities": []}}, {"type": "Feature", "geometry": {"type": "Point", "coordinates": [134.076, -24.674]}, "properties": {"id": "titjikala", "name": "Titjikala", "kind": "community", "provider": "Telstra/NTG Program", "backhaul": "Microwave radio", "risk": "Not assessed", "resilience": null, "population": null, "region": "Northern Territory", "coverage": "Recorded mobile coverage", "reason": "Risk score not yet assessed for this location", "action": "Confirm local redundancy and backup power with the service provider", "offlinePack": "Available on request", "confidence": "Source location", "facilities": []}}, {"type": "Feature", "geometry": {"type": "Point", "coordinates": [136.811, -13.86]}, "properties": {"id": "umbakumba", "name": "Umbakumba", "kind": "community", "provider": "Telstra/NTG Program", "backhaul": "Optic fibre", "risk": "Not assessed", "resilience": null, "population": null, "region": "Northern Territory", "coverage": "Recorded mobile coverage", "reason": "Risk score not yet assessed for this location", "action": "Confirm local redundancy and backup power with the service provider", "offlinePack": "Available on request", "confidence": "Source location", "facilities": []}}, {"type": "Feature", "geometry": {"type": "Point", "coordinates": [129.52, -14.24]}, "properties": {"id": "wadeye", "name": "Wadeye", "kind": "community", "provider": "Project 13", "backhaul": "Optic fibre", "risk": "High", "resilience": 42, "population": 2280, "region": "Top End", "coverage": "Basic", "reason": "High population exposure and single access corridor", "action": "Prioritise hardened tower and generator staging", "offlinePack": "Needs sync · 16 MB", "confidence": "Medium", "facilities": ["Clinic", "School", "Evacuation centre"]}}, {"type": "Feature", "geometry": {"type": "Point", "coordinates": [133.086, -24.125]}, "properties": {"id": "wallace-rockhole", "name": "Wallace Rockhole", "kind": "community", "provider": "MBSP", "backhaul": "Microwave radio", "risk": "Not assessed", "resilience": null, "population": null, "region": "Northern Territory", "coverage": "Recorded mobile coverage", "reason": "Risk score not yet assessed for this location", "action": "Confirm local redundancy and backup power with the service provider", "offlinePack": "Available on request", "confidence": "Source location", "facilities": []}}, {"type": "Feature", "geometry": {"type": "Point", "coordinates": [133.39, -11.648]}, "properties": {"id": "warruwi", "name": "Warruwi", "kind": "community", "provider": "Arnhem Fibre Program", "backhaul": "Microwave radio", "risk": "Not assessed", "resilience": null, "population": null, "region": "Northern Territory", "coverage": "Recorded mobile coverage", "reason": "Risk score not yet assessed for this location", "action": "Confirm local redundancy and backup power with the service provider", "offlinePack": "Available on request", "confidence": "Source location", "facilities": []}}, {"type": "Feature", "geometry": {"type": "Point", "coordinates": [134.309, -13.644]}, "properties": {"id": "weemol", "name": "Weemol", "kind": "community", "provider": "Telstra/NTG Program", "backhaul": "Optic fibre", "risk": "Not assessed", "resilience": null, "population": null, "region": "Northern Territory", "coverage": "Recorded mobile coverage", "reason": "Risk score not yet assessed for this location", "action": "Confirm local redundancy and backup power with the service provider", "offlinePack": "Available on request", "confidence": "Source location", "facilities": []}}, {"type": "Feature", "geometry": {"type": "Point", "coordinates": [130.632, -11.761]}, "properties": {"id": "wurrumiyanga", "name": "Wurrumiyanga", "kind": "community", "provider": "Telstra", "backhaul": "Microwave radio", "risk": "Not assessed", "resilience": null, "population": null, "region": "Northern Territory", "coverage": "Recorded mobile coverage", "reason": "Risk score not yet assessed for this location", "action": "Confirm local redundancy and backup power with the service provider", "offlinePack": "Available on request", "confidence": "Source location", "facilities": []}}, {"type": "Feature", "geometry": {"type": "Point", "coordinates": [130.883, -16.448]}, "properties": {"id": "yarralin", "name": "Yarralin", "kind": "community", "provider": "Telstra/NTG Program", "backhaul": "Microwave radio", "risk": "Not assessed", "resilience": null, "population": null, "region": "Northern Territory", "coverage": "Recorded mobile coverage", "reason": "Risk score not yet assessed for this location", "action": "Confirm local redundancy and backup power with the service provider", "offlinePack": "Available on request", "confidence": "Source location", "facilities": []}}, {"type": "Feature", "geometry": {"type": "Point", "coordinates": [136.891, -12.253]}, "properties": {"id": "yirrkala", "name": "Yirrkala", "kind": "community", "provider": "Arnhem Fibre Program", "backhaul": "Optic fibre", "risk": "Not assessed", "resilience": null, "population": null, "region": "Northern Territory", "coverage": "Recorded mobile coverage", "reason": "Risk score not yet assessed for this location", "action": "Confirm local redundancy and backup power with the service provider", "offlinePack": "Available on request", "confidence": "Source location", "facilities": []}}, {"type": "Feature", "geometry": {"type": "Point", "coordinates": [131.796, -22.253]}, "properties": {"id": "yuendumu", "name": "Yuendumu", "kind": "community", "provider": "Telstra", "backhaul": "Optic fibre", "risk": "Not assessed", "resilience": null, "population": null, "region": "Northern Territory", "coverage": "Recorded mobile coverage", "reason": "Risk score not yet assessed for this location", "action": "Confirm local redundancy and backup power with the service provider", "offlinePack": "Available on request", "confidence": "Source location", "facilities": []}}, {"type": "Feature", "geometry": {"type": "Point", "coordinates": [130.985, -25.236]}, "properties": {"id": "yulara", "name": "Yulara", "kind": "community", "provider": "Telstra", "backhaul": "Optic fibre", "risk": "Low", "resilience": 76, "population": 1041, "region": "South West", "coverage": "Good", "reason": "Multiple communications options and nearby airport", "action": "Monitor; no immediate deployment recommended", "offlinePack": "Ready · 21 MB", "confidence": "High", "facilities": ["Clinic", "Airport", "Emergency services"]}}, {"type": "Feature", "geometry": {"type": "Point", "coordinates": [133.245, -22.5]}, "properties": {"id": "aileron-station", "name": "Aileron Station", "kind": "small-cell", "provider": "Optus", "backhaul": "Small cell", "risk": "Not assessed", "resilience": null, "population": null, "region": "Northern Territory", "coverage": "Small cell", "reason": "Risk score not yet assessed for this location", "action": "Confirm local redundancy and backup power with the service provider", "offlinePack": "Available on request", "confidence": "Source location", "facilities": []}}, {"type": "Feature", "geometry": {"type": "Point", "coordinates": [132.48, -12.676]}, "properties": {"id": "aurora-kakadu", "name": "Aurora Kakadu", "kind": "small-cell", "provider": "Telstra", "backhaul": "Small cell", "risk": "Not assessed", "resilience": null, "population": null, "region": "Northern Territory", "coverage": "Small cell", "reason": "Risk score not yet assessed for this location", "action": "Confirm local redundancy and backup power with the service provider", "offlinePack": "Available on request", "confidence": "Source location", "facilities": []}}, {"type": "Feature", "geometry": {"type": "Point", "coordinates": [135.826, -19.71]}, "properties": {"id": "barkly-homestead", "name": "Barkly Homestead", "kind": "small-cell", "provider": "Optus", "backhaul": "Small cell", "risk": "Not assessed", "resilience": null, "population": null, "region": "Northern Territory", "coverage": "Small cell", "reason": "Risk score not yet assessed for this location", "action": "Confirm local redundancy and backup power with the service provider", "offlinePack": "Available on request", "confidence": "Source location", "facilities": []}}, {"type": "Feature", "geometry": {"type": "Point", "coordinates": [133.889, -21.531]}, "properties": {"id": "barrow-creek", "name": "Barrow Creek", "kind": "small-cell", "provider": "Optus", "backhaul": "Small cell", "risk": "Not assessed", "resilience": null, "population": null, "region": "Northern Territory", "coverage": "Small cell", "reason": "Risk score not yet assessed for this location", "action": "Confirm local redundancy and backup power with the service provider", "offlinePack": "Available on request", "confidence": "Source location", "facilities": []}}, {"type": "Feature", "geometry": {"type": "Point", "coordinates": [131.756, -25.314]}, "properties": {"id": "curtain-springs-roadhouse", "name": "Curtain Springs Roadhouse", "kind": "small-cell", "provider": "Optus", "backhaul": "Small cell", "risk": "Not assessed", "resilience": null, "population": null, "region": "Northern Territory", "coverage": "Small cell", "reason": "Risk score not yet assessed for this location", "action": "Confirm local redundancy and backup power with the service provider", "offlinePack": "Available on request", "confidence": "Source location", "facilities": []}}, {"type": "Feature", "geometry": {"type": "Point", "coordinates": [133.386, -16.307]}, "properties": {"id": "daly-waters", "name": "Daly Waters", "kind": "small-cell", "provider": "Optus", "backhaul": "Small cell", "risk": "Not assessed", "resilience": null, "population": null, "region": "Northern Territory", "coverage": "Small cell", "reason": "Risk score not yet assessed for this location", "action": "Confirm local redundancy and backup power with the service provider", "offlinePack": "Available on request", "confidence": "Source location", "facilities": []}}, {"type": "Feature", "geometry": {"type": "Point", "coordinates": [134.223, -20.641]}, "properties": {"id": "devils-marbles-hotel", "name": "Devils Marbles Hotel", "kind": "small-cell", "provider": "Optus", "backhaul": "Small cell", "risk": "Not assessed", "resilience": null, "population": null, "region": "Northern Territory", "coverage": "Small cell", "reason": "Risk score not yet assessed for this location", "action": "Confirm local redundancy and backup power with the service provider", "offlinePack": "Available on request", "confidence": "Source location", "facilities": []}}, {"type": "Feature", "geometry": {"type": "Point", "coordinates": [133.541, -17.553]}, "properties": {"id": "elliott", "name": "Elliott", "kind": "small-cell", "provider": "Optus", "backhaul": "Small cell", "risk": "Not assessed", "resilience": null, "population": null, "region": "Northern Territory", "coverage": "Small cell", "reason": "Risk score not yet assessed for this location", "action": "Confirm local redundancy and backup power with the service provider", "offlinePack": "Available on request", "confidence": "Source location", "facilities": []}}, {"type": "Feature", "geometry": {"type": "Point", "coordinates": [133.2, -25.197]}, "properties": {"id": "erldunda", "name": "Erldunda", "kind": "small-cell", "provider": "Optus", "backhaul": "Small cell", "risk": "Not assessed", "resilience": null, "population": null, "region": "Northern Territory", "coverage": "Small cell", "reason": "Risk score not yet assessed for this location", "action": "Confirm local redundancy and backup power with the service provider", "offlinePack": "Available on request", "confidence": "Source location", "facilities": []}}, {"type": "Feature", "geometry": {"type": "Point", "coordinates": [134.243, -22.968]}, "properties": {"id": "gem-tree-park", "name": "Gem Tree Park", "kind": "small-cell", "provider": "Optus", "backhaul": "Small cell", "risk": "Not assessed", "resilience": null, "population": null, "region": "Northern Territory", "coverage": "Small cell", "reason": "Risk score not yet assessed for this location", "action": "Confirm local redundancy and backup power with the service provider", "offlinePack": "Available on request", "confidence": "Source location", "facilities": []}}, {"type": "Feature", "geometry": {"type": "Point", "coordinates": [132.672, -23.685]}, "properties": {"id": "glen-helen-homestead", "name": "Glen Helen Homestead", "kind": "small-cell", "provider": "Optus", "backhaul": "Small cell", "risk": "Not assessed", "resilience": null, "population": null, "region": "Northern Territory", "coverage": "Small cell", "reason": "Risk score not yet assessed for this location", "action": "Confirm local redundancy and backup power with the service provider", "offlinePack": "Available on request", "confidence": "Source location", "facilities": []}}, {"type": "Feature", "geometry": {"type": "Point", "coordinates": [131.458, -13.582]}, "properties": {"id": "hayes-creek-roadhouse", "name": "Hayes Creek Roadhouse", "kind": "small-cell", "provider": "Telstra", "backhaul": "Small cell", "risk": "Not assessed", "resilience": null, "population": null, "region": "Northern Territory", "coverage": "Small cell", "reason": "Risk score not yet assessed for this location", "action": "Confirm local redundancy and backup power with the service provider", "offlinePack": "Available on request", "confidence": "Source location", "facilities": []}}, {"type": "Feature", "geometry": {"type": "Point", "coordinates": [133.301, -14.953]}, "properties": {"id": "jilkminggan", "name": "Jilkminggan", "kind": "small-cell", "provider": "Telstra", "backhaul": "Small cell", "risk": "Not assessed", "resilience": null, "population": null, "region": "Northern Territory", "coverage": "Small cell", "reason": "Risk score not yet assessed for this location", "action": "Confirm local redundancy and backup power with the service provider", "offlinePack": "Available on request", "confidence": "Source location", "facilities": []}}, {"type": "Feature", "geometry": {"type": "Point", "coordinates": [131.512, -24.248]}, "properties": {"id": "kings-canyon-resort", "name": "Kings Canyon Resort", "kind": "small-cell", "provider": "Optus", "backhaul": "Small cell", "risk": "Not assessed", "resilience": null, "population": null, "region": "Northern Territory", "coverage": "Small cell", "reason": "Risk score not yet assessed for this location", "action": "Confirm local redundancy and backup power with the service provider", "offlinePack": "Available on request", "confidence": "Source location", "facilities": []}}, {"type": "Feature", "geometry": {"type": "Point", "coordinates": [131.817, -24.405]}, "properties": {"id": "kings-creek-station", "name": "Kings Creek Station", "kind": "small-cell", "provider": "Optus", "backhaul": "Small cell", "risk": "Not assessed", "resilience": null, "population": null, "region": "Northern Territory", "coverage": "Small cell", "reason": "Risk score not yet assessed for this location", "action": "Confirm local redundancy and backup power with the service provider", "offlinePack": "Available on request", "confidence": "Source location", "facilities": []}}, {"type": "Feature", "geometry": {"type": "Point", "coordinates": [132.219, -13.605]}, "properties": {"id": "mary-river-roadhouse", "name": "Mary River Roadhouse", "kind": "small-cell", "provider": "Optus", "backhaul": "Small cell", "risk": "Not assessed", "resilience": null, "population": null, "region": "Northern Territory", "coverage": "Small cell", "reason": "Risk score not yet assessed for this location", "action": "Confirm local redundancy and backup power with the service provider", "offlinePack": "Available on request", "confidence": "Source location", "facilities": []}}, {"type": "Feature", "geometry": {"type": "Point", "coordinates": [132.728, -23.633]}, "properties": {"id": "ormiston-ranger-station", "name": "Ormiston Ranger Station", "kind": "small-cell", "provider": "Optus", "backhaul": "Small cell", "risk": "Not assessed", "resilience": null, "population": null, "region": "Northern Territory", "coverage": "Small cell", "reason": "Risk score not yet assessed for this location", "action": "Confirm local redundancy and backup power with the service provider", "offlinePack": "Available on request", "confidence": "Source location", "facilities": []}}, {"type": "Feature", "geometry": {"type": "Point", "coordinates": [133.795, -18.318]}, "properties": {"id": "renner-springs-roadhouse", "name": "Renner Springs Roadhouse", "kind": "small-cell", "provider": "Optus", "backhaul": "Small cell", "risk": "Not assessed", "resilience": null, "population": null, "region": "Northern Territory", "coverage": "Small cell", "reason": "Risk score not yet assessed for this location", "action": "Confirm local redundancy and backup power with the service provider", "offlinePack": "Available on request", "confidence": "Source location", "facilities": []}}, {"type": "Feature", "geometry": {"type": "Point", "coordinates": [133.458, -24.339]}, "properties": {"id": "stuarts-well-roadhouse", "name": "Stuarts Well Roadhouse", "kind": "small-cell", "provider": "Optus", "backhaul": "Small cell", "risk": "Not assessed", "resilience": null, "population": null, "region": "Northern Territory", "coverage": "Small cell", "reason": "Risk score not yet assessed for this location", "action": "Confirm local redundancy and backup power with the service provider", "offlinePack": "Available on request", "confidence": "Source location", "facilities": []}}, {"type": "Feature", "geometry": {"type": "Point", "coordinates": [134.208, -19.436]}, "properties": {"id": "threeways-roadhouse", "name": "Threeways Roadhouse", "kind": "small-cell", "provider": "Optus", "backhaul": "Small cell", "risk": "Not assessed", "resilience": null, "population": null, "region": "Northern Territory", "coverage": "Small cell", "reason": "Risk score not yet assessed for this location", "action": "Confirm local redundancy and backup power with the service provider", "offlinePack": "Available on request", "confidence": "Source location", "facilities": []}}, {"type": "Feature", "geometry": {"type": "Point", "coordinates": [131.041, -13.734]}, "properties": {"id": "tipperary-station", "name": "Tipperary Station", "kind": "small-cell", "provider": "Telstra", "backhaul": "Small cell", "risk": "Not assessed", "resilience": null, "population": null, "region": "Northern Territory", "coverage": "Small cell", "reason": "Risk score not yet assessed for this location", "action": "Confirm local redundancy and backup power with the service provider", "offlinePack": "Available on request", "confidence": "Source location", "facilities": []}}, {"type": "Feature", "geometry": {"type": "Point", "coordinates": [133.416, -22.132]}, "properties": {"id": "ti-tree-station", "name": "Ti Tree Station", "kind": "small-cell", "provider": "Optus", "backhaul": "Small cell", "risk": "Not assessed", "resilience": null, "population": null, "region": "Northern Territory", "coverage": "Small cell", "reason": "Risk score not yet assessed for this location", "action": "Confirm local redundancy and backup power with the service provider", "offlinePack": "Available on request", "confidence": "Source location", "facilities": []}}, {"type": "Feature", "geometry": {"type": "Point", "coordinates": [131.127, -15.616]}, "properties": {"id": "victoria-river-roadhouse", "name": "Victoria River Roadhouse", "kind": "small-cell", "provider": "Optus", "backhaul": "Small cell", "risk": "Not assessed", "resilience": null, "population": null, "region": "Northern Territory", "coverage": "Small cell", "reason": "Risk score not yet assessed for this location", "action": "Confirm local redundancy and backup power with the service provider", "offlinePack": "Available on request", "confidence": "Source location", "facilities": []}}, {"type": "Feature", "geometry": {"type": "Point", "coordinates": [134.236, -20.795]}, "properties": {"id": "wycliffe-well", "name": "Wycliffe Well", "kind": "small-cell", "provider": "Optus", "backhaul": "Small cell", "risk": "Not assessed", "resilience": null, "population": null, "region": "Northern Territory", "coverage": "Small cell", "reason": "Risk score not yet assessed for this location", "action": "Confirm local redundancy and backup power with the service provider", "offlinePack": "Available on request", "confidence": "Source location", "facilities": []}}]}